Name,Address,Grades,Latitude,Longitude 
Cappy's Pizza,"'672 Truman Pk.,Boston,MA,USA'",'A; B; C',42.252176,-71.1182602
D'Angelo,"'1345 Hyde Park Ave.,Boston,MA,USA'",'A; B; C',42.2530577,-71.1251695
Subway,"'1281 Hyde Park Ave.,Boston,MA,USA'",'A; B; C',42.2552829,-71.1245567
Piece Of Pizza,"'1280 Hyde Park Ave.,Boston,MA,USA'",'A; B; C',42.2553199,-71.1242165
Rincon Caribeno Restaurant,"'18 Fairmount Ave.,Boston,MA,USA'",'A; B; C',42.2556731,-71.1208773
Zaz Restaurant,"'1230 River St.,Boston,MA,USA'",'A; B; C',42.255717,-71.123019
Red Moon Restuarant,"'1299 River St.,Boston,MA,USA'",'A; B; C',42.2558178,-71.1249461
Las Vegas Seafood Restaurant,"'1200 River St St.,Boston,MA,USA'",'A; B; C',42.2560217,-71.1217542
River Grille Restaurant & Cafe Inc.,"'1263 River St.,Boston,MA,USA'",'A; B; C',42.256027,-71.1238818
Farah's Cafe Restaurant,"'1158 River St.,Boston,MA,USA'",'A; B; C',42.2563776,-71.1203881
The Master Mcgrath,"'1152 River St.,Boston,MA,USA'",'A; B; C',42.2564595,-71.120328
Dunkin' Donuts,"'21 Austin.,Boston,MA,USA'",'A; B; C',42.258076,-71.12593
Asian Thai Eatery Inc.,"'1064 River St.,Boston,MA,USA'",'A; B; C',42.2588094,-71.1177451
Fairouz Restaurant,"'5268 Washington St.,Boston,MA,USA'",'A; B; C',42.2593278,-71.1588465
Viva Mi Arepa,"'5197 Washington St.,Boston,MA,USA'",'A; B; C',42.2614178,-71.1573202
Papa Giorgio's,"'239 Grove St.,Boston,MA,USA'",'A; B; C',42.261558,-71.1573839
No. 7 Restaurant,"'225 Grove St.,Boston,MA,USA'",'A; B; C',42.26183,-71.1572006
Vikos Pizza & Ribs,"'847 River St.,Boston,MA,USA'",'A; B; C',42.262851,-71.10841
Edu And Den's Restaurant,"'637 River St.,Boston,MA,USA'",'A; B; C',42.2651599,-71.0993101
Domino's Pizza,"'1672 Blue Hill Ave.,Boston,MA,USA'",'A; B; C',42.2676303,-71.0932265
Restauranchito,"'516 River St St.,Boston,MA,USA'",'A; B; C',42.2677061,-71.0936779
Brother Deli Restaurant,"'1636 Blue Hill Ave.,Boston,MA,USA'",'A; B; C',42.268114,-71.0933359
Mattapan House Of Pizza,"'1621 Blue Hill Ave.,Boston,MA,USA'",'A; B; C',42.2685477,-71.0940335
Afc Sushi @ Shaw's No. 586,"'4 River St.,Boston,MA,USA'",'A; B; C',42.2718903,-71.0697097
Standish Village,"'1190 Adams St.,Boston,MA,USA'",'A; B; C',42.2719271,-71.0660623
Spring St. Cafe,"'314 Spring St.,Boston,MA,USA'",'A; B; C',42.2719887,-71.1720965
Simco's Restaurant,"'1509 Blue Hill Ave.,Boston,MA,USA'",'A; B; C',42.272373,-71.0940433
Ester,"'2261 Dorchester Ave.,Boston,MA,USA'",'A; B; C',42.2732046,-71.0680553
Pats Pizza,"'2254 Dorchester Ave.,Boston,MA,USA'",'A; B; C',42.2734004,-71.067573
Sweet Life Bakery And Cafe,"'2243 Dorchester Ave.,Boston,MA,USA'",'A; B; C',42.2736971,-71.0679033
Domino's Pizza,"'4640 Washington St.,Boston,MA,USA'",'A; B; C',42.2748874,-71.1397325
Burger King No. 3531,"'4594 Washington St.,Boston,MA,USA'",'A; B; C',42.2759765,-71.1391773
Tony's Place,"'186 Baker St.,Boston,MA,USA'",'A; B; C',42.276111,-71.167361
Bani Restaurant,"'4541 Washington St.,Boston,MA,USA'",'A; B; C',42.2783531,-71.1372349
Burgerfi,"'75 Spring St.,Boston,MA,USA'",'A; B; C',42.2787237,-71.1632963
Panera Bread Bakery/Cafe No. 1411,"'75 Spring St.,Boston,MA,USA'",'A; B; C',42.2787237,-71.1632963
La Lechonera Cafe,"'342 Cummins Hw.,Boston,MA,USA'",'A; B; C',42.2788124,-71.1160201
Oasis Cafe,"'630 Hyde Park Ave.,Boston,MA,USA'",'A; B; C',42.2788709,-71.1189639
Lelene's Restaurant,"'1296 Blue Hill Ave.,Boston,MA,USA'",'A; B; C',42.2793776,-71.0927724
P & R Ice Cream,"'1284 Blue Hill Ave.,Boston,MA,USA'",'A; B; C',42.2797888,-71.0926221
Pu Pu Platter Restaurant,"'2060 Centre St.,Boston,MA,USA'",'A; B; C',42.2798755,-71.1582991
Nicholas Sub & Pizza Shop,"'600 Hyde Park Ave.,Boston,MA,USA'",'A; B; C',42.2800831,-71.1186758
Brannellys Cafe,"'4432 Washington St.,Boston,MA,USA'",'A; B; C',42.280257,-71.13435
Morton's Pizzeria,"'896 Morton St.,Boston,MA,USA'",'A; B; C',42.2807,-71.0839146
Just Not Subs,"'920 Morton St.,Boston,MA,USA'",'A; B; C',42.280707,-71.0829255
Pit Stop Barbecue,"'888 Morton St.,Boston,MA,USA'",'A; B; C',42.280756,-71.0841896
Windy City At Adams Village,"'516 Gallivan Bl.,Boston,MA,USA'",'A; B; C',42.2827675,-71.0555516
Mcdonald's,"'718 American Legion Hw.,Boston,MA,USA'",'A; B; C',42.2828909,-71.1135265
Kings Pizza & Grill,"'1210A Blue Hill Ave.,Boston,MA,USA'",'A; B; C',42.2829072,-71.0913989
Popeyes,"'710 American Legion Hw.,Boston,MA,USA'",'A; B; C',42.2829473,-71.112814
Anthony's @ Adams Village,"'789 Adams St.,Boston,MA,USA'",'A; B; C',42.2832473,-71.0559502
Greenhills Bakery,"'780 Adams St.,Boston,MA,USA'",'A; B; C',42.2832823,-71.0555812
Gerard's Sandwich Shop,"'772 Adams.,Boston,MA,USA'",'A; B; C',42.2833826,-71.0554847
Las Palmas Restaurant,"'4337 Washington St.,Boston,MA,USA'",'A; B; C',42.2833984,-71.1314173
China Sea Restaurant,"'1202 Blue Hill Ave.,Boston,MA,USA'",'A; B; C',42.283423,-71.0914217
Joseph's Pizza & Sub Shop,"'1200 Blue Hill Ave.,Boston,MA,USA'",'A; B; C',42.2835104,-71.0916231
New York Fried Chicken,"'1198 Blue Hill Ave.,Boston,MA,USA'",'A; B; C',42.2835606,-71.0916062
Allis Roti + Meat Market,"'1188 Blue Hill Ave.,Boston,MA,USA'",'A; B; C',42.283748,-71.0912565
Blasi's Cafe,"'756 Adams St.,Boston,MA,USA'",'A; B; C',42.2838094,-71.0553018
Triple Eatery,"'77 Cummins Hw.,Boston,MA,USA'",'A; B; C',42.2844975,-71.1256069
Papa Gino's,"'748 Gallivan Bl.,Boston,MA,USA'",'A; B; C',42.2847156,-71.0454636
Johnny's Pizza & Subs,"'1917 Dorchester Ave.,Boston,MA,USA'",'A; B; C',42.2851875,-71.0644569
Tavolo,"'1917 Dorchester.,Boston,MA,USA'",'A; B; C',42.2851875,-71.0644569
Chez-Vous Skating Rink,"'11 Rhoades St.,Boston,MA,USA'",'A; B; C',42.2853311,-71.092041
Simco's Inc.,"'679 Canterbury St.,Boston,MA,USA'",'A; B; C',42.2854219,-71.110053
West Garden Chinese,"'1890 Centre St.,Boston,MA,USA'",'A; B; C',42.2854839,-71.1557377
Bon Appetit Restaurant,"'1138 Blue Hill Ave.,Boston,MA,USA'",'A; B; C',42.2855177,-71.0903534
Blue Smoke Restaurant,"'1132 Blue Hill Ave.,Boston,MA,USA'",'A; B; C',42.2855961,-71.0909099
Comella's,"'1882 Centre St.,Boston,MA,USA'",'A; B; C',42.2856569,-71.1555497
Redd's In Rozzie,"'4253 Washington St.,Boston,MA,USA'",'A; B; C',42.2856755,-71.1293331
Romano's,"'4249 Washington St.,Boston,MA,USA'",'A; B; C',42.2857214,-71.1292568
Imperial Kitchen,"'50 Corinth St.,Boston,MA,USA'",'A; B; C',42.2858767,-71.12928
Rox Diner,"'1881 Centre St.,Boston,MA,USA'",'A; B; C',42.2860122,-71.1557771
Ashmont Grill,"'555 Talbot Ave.,Boston,MA,USA'",'A; B; C',42.2860648,-71.0647658
Phuket Thai Restaurant,"'1852 Centre St.,Boston,MA,USA'",'A; B; C',42.2860884,-71.1543777
Roche Bros. Supermarket,"'1800 Centre St.,Boston,MA,USA'",'A; B; C',42.2862365,-71.1519936
Riddick's House Of Pizza,"'400 Neponset Ave.,Boston,MA,USA'",'A; B; C',42.2864685,-71.0441353
Mud House,"'389 Neponset Ave.,Boston,MA,USA'",'A; B; C',42.2864815,-71.0446549
Blue Star Restaurant,"'11 Corinth St.,Boston,MA,USA'",'A; B; C',42.2865389,-71.1303503
Village Sushi & Grill,"'10 Corinth St.,Boston,MA,USA'",'A; B; C',42.2865865,-71.1302123
West,"'1732 Centre.,Boston,MA,USA'",'A; B; C',42.2870834,-71.1496115
Shanti Boston,"'4197 Washington St.,Boston,MA,USA'",'A; B; C',42.287211,-71.1275989
Mangia-Yogoteria,"'1727 Centre St.,Boston,MA,USA'",'A; B; C',42.287344,-71.1493772
Thai Spice,"'1745 Centre St.,Boston,MA,USA'",'A; B; C',42.2874632,-71.1502499
Los Amigos Mexican Grill,"'1741 Centre St.,Boston,MA,USA'",'A; B; C',42.2874711,-71.1501623
Red Eyed Pig,"'1753 Centre St.,Boston,MA,USA'",'A; B; C',42.2874905,-71.1504532
Banh Mi Ngon/Vietnamese Gourmet Sandwiches,"'1759 Centre St.,Boston,MA,USA'",'A; B; C',42.2874942,-71.15064
Christos Pizza,"'1761 Centre St.,Boston,MA,USA'",'A; B; C',42.2875662,-71.1506912
Empire Garden,"'686 Washington St.,Boston,MA,USA'",'A; B; C',42.2878589,-71.0711918
Dunkin Donuts,"'4175 Washington.,Boston,MA,USA'",'A; B; C',42.2879171,-71.1270075
Hong Kong 888 Cafe,"'888 South St.,Boston,MA,USA'",'A; B; C',42.2885656,-71.1343582
Sea Breeze Grill,"'1782 Dorchester Ave.,Boston,MA,USA'",'A; B; C',42.2895689,-71.0630737
Crown Fried Chicken,"'998 Blue Hill Ave.,Boston,MA,USA'",'A; B; C',42.2898133,-71.0892627
Top Griyo,"'986 Blue Hill Ave.,Boston,MA,USA'",'A; B; C',42.2899888,-71.0891877
Boston Market,"'1010 William T Morrissey Bl.,Boston,MA,USA'",'A; B; C',42.2901014,-71.0448547
Mcdonald's,"'607 Washington St.,Boston,MA,USA'",'A; B; C',42.290391,-71.071895
Dot 2 Dot Cafe,"'1735 Dorchester Ave.,Boston,MA,USA'",'A; B; C',42.2909799,-71.0630433
Guira And Tambora Restaurant,"'4014 Washington St.,Boston,MA,USA'",'A; B; C',42.2918179,-71.1221402
Arboretum Grill,"'4021 Washington St.,Boston,MA,USA'",'A; B; C',42.2919936,-71.122395
Domino's Pizza,"'4000 Washington St.,Boston,MA,USA'",'A; B; C',42.2923283,-71.1215439
Yucatan Tacos,"'1419 Centre.,Boston,MA,USA'",'A; B; C',42.2940177,-71.1368129
Perry's Catering,"'499 Washington St.,Boston,MA,USA'",'A; B; C',42.294102,-71.072233
The Boston Ice Cream Factory,"'777 William T Morrissey Bl.,Boston,MA,USA'",'A; B; C',42.2949355,-71.0484403
Sun Pizza.,"'870 Blue Hill Ave.,Boston,MA,USA'",'A; B; C',42.295062,-71.0875385
Country Kitchen,"'830 Blue Hill Ave.,Boston,MA,USA'",'A; B; C',42.2962219,-71.0871959
Simpli Bar N Bites,"'3840 Washington St.,Boston,MA,USA'",'A; B; C',42.2970242,-71.11665
Dunkin Donuts,"'1580 Dorchester Ave.,Boston,MA,USA'",'A; B; C',42.2970569,-71.0604478
Twelve Bens,"'315 Adams St.,Boston,MA,USA'",'A; B; C',42.2985976,-71.0576768
Pizza 24,"'301 Adams St.,Boston,MA,USA'",'A; B; C',42.2990786,-71.0581834
Magic Wok Restaurant,"'1512 Dorchester Ave.,Boston,MA,USA'",'A; B; C',42.2991047,-71.0603697
The Blarney Stone,"'1505 Dorchester Ave.,Boston,MA,USA'",'A; B; C',42.2993062,-71.0607079
Just Steaks,"'481 Geneva Ave.,Boston,MA,USA'",'A; B; C',42.2993239,-71.06476
Antonio's Pizzeria,"'1508 Dorchester Ave.,Boston,MA,USA'",'A; B; C',42.2993781,-71.0600672
Rino's Pizza,"'730 Blue Hill Ave.,Boston,MA,USA'",'A; B; C',42.2998041,-71.0860958
My Sisters Crawfish,"'272 Adams St.,Boston,MA,USA'",'A; B; C',42.29985,-71.058367
Saigon Seafood Restaurant,"'270 Adams St.,Boston,MA,USA'",'A; B; C',42.2999921,-71.0584995
Brassica Kitchen & Cafe,"'3710 Washington St.,Boston,MA,USA'",'A; B; C',42.300249,-71.113075
Tikki Masala Indian Restaurant,"'3706 Washington St.,Boston,MA,USA'",'A; B; C',42.3003573,-71.1129845
Oriental House,"'3704 Washington St.,Boston,MA,USA'",'A; B; C',42.3004123,-71.1128933
Minina's Cafe,"'430 Geneva Ave.,Boston,MA,USA'",'A; B; C',42.3005757,-71.0666576
Hills Deli,"'3696 Washington St.,Boston,MA,USA'",'A; B; C',42.3006458,-71.1126955
Yuen Barbeque Restaurant,"'1458 Dorchester Ave.,Boston,MA,USA'",'A; B; C',42.3008427,-71.0596858
Ba Le Fields Corner,"'1449 Dorchester Ave.,Boston,MA,USA'",'A; B; C',42.301172,-71.060096
Forest Hills Pizza,"'3722 Washington St.,Boston,MA,USA'",'A; B; C',42.3011727,-71.1124283
Papa Rino's Pizza,"'392 Geneva Ave.,Boston,MA,USA'",'A; B; C',42.301328,-71.0679259
Pho So 1 Boston,"'223 Adams St.,Boston,MA,USA'",'A; B; C',42.301506,-71.0600268
Archie's Place,"'227 Washington St.,Boston,MA,USA'",'A; B; C',42.3018246,-71.0775917
D'Benny's Subs,"'1433 Dorchester Ave.,Boston,MA,USA'",'A; B; C',42.3020177,-71.0598808
Giddy Up Grill,"'1 Franklin Park Pr.,Boston,MA,USA'",'A; B; C',42.302786,-71.08681
Boston Big Easy,"'624 Blue Hill Ave.,Boston,MA,USA'",'A; B; C',42.3029077,-71.0850348
Stash's Pizza,"'612 Blue Hill Ave.,Boston,MA,USA'",'A; B; C',42.3031985,-71.0850037
Tropical Island Restaurant,"'148 Bowdoin.,Boston,MA,USA'",'A; B; C',42.3038507,-71.0710082
Pho Hoa Restaurant,"'1370 Dorchester Ave.,Boston,MA,USA'",'A; B; C',42.3039882,-71.0590928
On The Dot Cafe,"'1353 Dorchester Ave.,Boston,MA,USA'",'A; B; C',42.3045188,-71.0593977
Mythos Pizza,"'203 Bowdoin St.,Boston,MA,USA'",'A; B; C',42.305133,-71.06806
Saigon One Restaurant,"'1331 Dorchester Ave.,Boston,MA,USA'",'A; B; C',42.30525,-71.059195
J P Kitchen,"'3510 Washington St.,Boston,MA,USA'",'A; B; C',42.3058337,-71.107846
Vina Roast,"'1305 Dorchester Ave.,Boston,MA,USA'",'A; B; C',42.3062357,-71.0591088
Yanes Burrito's,"'3492 Washington St.,Boston,MA,USA'",'A; B; C',42.3062541,-71.1074603
Doyles Cafe,"'3484 Washington St.,Boston,MA,USA'",'A; B; C',42.3064259,-71.1072393
One Family Diner Inc.,"'260 Bowdoin St.,Boston,MA,USA'",'A; B; C',42.3068012,-71.0666751
Restaurante Cesaria,"'266 Bowdoin St.,Boston,MA,USA'",'A; B; C',42.306923,-71.06667
Burrito's Pizzeria,"'224 Columbia Rd.,Boston,MA,USA'",'A; B; C',42.3075243,-71.0763991
Jerk,"'310 Bowdoin St.,Boston,MA,USA'",'A; B; C',42.3079436,-71.065478
Mi Casa Tu Casa Restaurant,"'299 Hancock St.,Boston,MA,USA'",'A; B; C',42.3081374,-71.0587093
Express Pizzeria,"'3381 Washington St.,Boston,MA,USA'",'A; B; C',42.3087402,-71.1052662
Papa Johns Pizza,"'1224 Dorchester Ave.,Boston,MA,USA'",'A; B; C',42.3087762,-71.0578362
King Do,"'1225 Dorchester Ave.,Boston,MA,USA'",'A; B; C',42.308859,-71.058521
Flames Restaurant Iii Inc.,"'469 Blue Hill Ave.,Boston,MA,USA'",'A; B; C',42.3090113,-71.0832465
El Embajador Restaurant,"'3371 Washington St.,Boston,MA,USA'",'A; B; C',42.3091641,-71.1052281
Dunkin Donuts Blue Hill Ave,"'456 Blue Hill Ave.,Boston,MA,USA'",'A; B; C',42.3094381,-71.0820627
Burger King,"'1200 Dorchester Ave.,Boston,MA,USA'",'A; B; C',42.309529,-71.057694
Grove Hall Pizza,"'651 Warren St.,Boston,MA,USA'",'A; B; C',42.3097686,-71.0830395
The Rotisserie,"'651 Warren St.,Boston,MA,USA'",'A; B; C',42.3097686,-71.0830395
Red Island Restaurant,"'657 Warren.,Boston,MA,USA'",'A; B; C',42.3103386,-71.083135
Dunkin Donuts(757 Centre St.),"'757 Centre St.,Boston,MA,USA'",'A; B; C',42.3104662,-71.1152151
Bartlett Square Cafe,"'154 Green St.,Boston,MA,USA'",'A; B; C',42.3104844,-71.1065318
J. P. Seafood Cafe Inc.,"'730 Centre St.,Boston,MA,USA'",'A; B; C',42.3108941,-71.1143439
The Real Deal,"'728 Centre St.,Boston,MA,USA'",'A; B; C',42.3110116,-71.114574
Sun Rise Restaurant Inc.,"'1157 Dorchester Ave.,Boston,MA,USA'",'A; B; C',42.3112537,-71.0576012
Galway House Inc,"'710 Centre St.,Boston,MA,USA'",'A; B; C',42.31131,-71.1141459
Nhu Lan Fast Food,"'1155 Dorchester Ave.,Boston,MA,USA'",'A; B; C',42.3114019,-71.0580481
Ghazal Fine Indian Cuisine,"'707 Centre St.,Boston,MA,USA'",'A; B; C',42.3114834,-71.114629
Noodle Barn,"'707 Centre St.,Boston,MA,USA'",'A; B; C',42.3114834,-71.114629
Mckenna's Cafe,"'109 Savin Hill Ave.,Boston,MA,USA'",'A; B; C',42.3115793,-71.0539351
Savin Scoops,"'107 Savin Hill Ave.,Boston,MA,USA'",'A; B; C',42.3115793,-71.0539351
Savin Bar And Kitchen,"'112 Savin Hill Ave.,Boston,MA,USA'",'A; B; C',42.3116909,-71.0535492
La Cuchara Restaurant Inc.,"'379 Blue Hill Ave.,Boston,MA,USA'",'A; B; C',42.311744,-71.081143
J & J Irish Pub & Grille,"'1130 Dorchester Ave.,Boston,MA,USA'",'A; B; C',42.3122453,-71.0571852
Corner Cafe,"'87 Prince St.,Boston,MA,USA'",'A; B; C',42.3123194,-71.1212087
Same Old Place Inc.,"'662 Centre.,Boston,MA,USA'",'A; B; C',42.31261,-71.113945
First Baptist Church In Jamaica Plain,"'633 Centre St.,Boston,MA,USA'",'A; B; C',42.3126572,-71.1143049
Taste Of India,"'1111 Dorchester Ave.,Boston,MA,USA'",'A; B; C',42.3126584,-71.0574935
Lucky Cafe,"'1107 Dorchester Ave.,Boston,MA,USA'",'A; B; C',42.3127356,-71.0574738
Navarrete Restaurant,"'445 Columbia Rd.,Boston,MA,USA'",'A; B; C',42.3128326,-71.0680476
J.P. Licks Inc.,"'659 Centre St.,Boston,MA,USA'",'A; B; C',42.3129047,-71.114463
Cape Verdeon Food Terraterra,"'79 Hancock St.,Boston,MA,USA'",'A; B; C',42.312984,-71.0650222
Harp & Bard,"'1097 Dorchester Ave.,Boston,MA,USA'",'A; B; C',42.313056,-71.057457
Delicias Del Caribe,"'149 Stoughton St.,Boston,MA,USA'",'A; B; C',42.314695,-71.0602723
Grass Fed,"'605 Centre St.,Boston,MA,USA'",'A; B; C',42.3147738,-71.1143228
Lucky Boston Chinese Rest.,"'3096 Washington St.,Boston,MA,USA'",'A; B; C',42.3150539,-71.098778
New York Fried Chicken,"'1985 Columbus Av Ave.,Boston,MA,USA'",'A; B; C',42.3150581,-71.0976251
Millenium Restaurant & Grill,"'3092 Washington St.,Boston,MA,USA'",'A; B; C',42.3151792,-71.0986509
New York Fried Chicken & Pizza,"'531 Columbia Rd.,Boston,MA,USA'",'A; B; C',42.315316,-71.0663966
Egleston Pizza,"'3080 Washington St.,Boston,MA,USA'",'A; B; C',42.3154112,-71.098455
Borinquen Bakery & Cafe,"'112 Stoughton St.,Boston,MA,USA'",'A; B; C',42.3154574,-71.061271
Sodexo U Mass Food Court,"'100 Wm T Morrissey Bl.,Boston,MA,USA'",'A; B; C',42.315672,-71.0479068
Boston Pizza & Grill,"'533 Columbia Rd.,Boston,MA,USA'",'A; B; C',42.3156864,-71.0659619
Mcdonald's(3060 Washington St.),"'3060 Washington St.,Boston,MA,USA'",'A; B; C',42.3158491,-71.0979374
Uphams House Of Pizza,"'556 Columbia Rd.,Boston,MA,USA'",'A; B; C',42.31633,-71.0661721
Dublin House,"'9 Stoughton St.,Boston,MA,USA'",'A; B; C',42.316871,-71.0647189
New Garden Restaurant,"'746 Dudley St.,Boston,MA,USA'",'A; B; C',42.3178188,-71.0668857
Ideal Cafe 'D Pizza,"'482 Centre St.,Boston,MA,USA'",'A; B; C',42.3185965,-71.1120871
Columbia Park Cafe @ Sovereign Bank,"'2 William T Morrissey Bl.,Boston,MA,USA'",'A; B; C',42.3188111,-71.0485813
Santander Bank Coffee Bar,"'2 William T Morrissey Bl.,Boston,MA,USA'",'A; B; C',42.3188111,-71.0485813
El Fongon Restaurant,"'170 Blue Hill Ave.,Boston,MA,USA'",'A; B; C',42.3189612,-71.0776057
Charlies Pizza And Kitchen,"'930 Dorchester Ave.,Boston,MA,USA'",'A; B; C',42.3190874,-71.0566212
Merengue Restaurant,"'156 Blue Hill Ave.,Boston,MA,USA'",'A; B; C',42.31919,-71.077559
Acapulco Mexican Restaurant,"'466 Centre.,Boston,MA,USA'",'A; B; C',42.3192366,-71.1118613
Blue Hill Pizza,"'161 Blue Hill Ave.,Boston,MA,USA'",'A; B; C',42.31929,-71.0779752
Canary Square,"'435 S Huntington Ave.,Boston,MA,USA'",'A; B; C',42.3197881,-71.1119981
Rita's Catering,"'Georges Island.,Boston,MA,USA'",'A; B; C',42.3200063,-70.9286732
El Oriental De Cuba,"'414 Centre St.,Boston,MA,USA'",'A; B; C',42.320863,-71.1106137
The Haven,"'401 Centre St.,Boston,MA,USA'",'A; B; C',42.321699,-71.1102515
Sorella's,"'388 Centre St.,Boston,MA,USA'",'A; B; C',42.3217674,-71.1099123
Brendan Behan Pub,"'378 Centre St.,Boston,MA,USA'",'A; B; C',42.3219921,-71.1092813
Pikalo J.P.,"'378 Centre St.,Boston,MA,USA'",'A; B; C',42.3219921,-71.1092813
Alex's Chimis,"'358 Centre.,Boston,MA,USA'",'A; B; C',42.3222409,-71.1076541
Miami Restaurant,"'381 Centre St.,Boston,MA,USA'",'A; B; C',42.3224184,-71.109246
Captain Nemo's,"'367 Centre St.,Boston,MA,USA'",'A; B; C',42.3225122,-71.1085812
Latino Restaurant,"'302 Centre St.,Boston,MA,USA'",'A; B; C',42.3227206,-71.1032357
Cappy's Pizza,"'304 Centre.,Boston,MA,USA'",'A; B; C',42.3227312,-71.1033726
The Old Havana,"'349 Centre St.,Boston,MA,USA'",'A; B; C',42.3227418,-71.1067284
Yely's Coffee Shop,"'284 Centre St.,Boston,MA,USA'",'A; B; C',42.3227801,-71.1020139
Tostado,"'300 Centre St.,Boston,MA,USA'",'A; B; C',42.3227915,-71.1031217
Victoria's Diner,"'1024 Massachusetts Ave.,Boston,MA,USA'",'A; B; C',42.3270323,-71.0667899
Hen House,"'1033 Massachusetts Ave.,Boston,MA,USA'",'A; B; C',42.327127,-71.067638
Cafe 1010,"'1010 Massachusetts Ave.,Boston,MA,USA'",'A; B; C',42.3279958,-71.0672402
Eurest Dining@Suffolk Construction,"'65 Allerton St.,Boston,MA,USA'",'A; B; C',42.3283473,-71.0702877
Vasquez Pizza & Spanish Food,"'258 Dudley St.,Boston,MA,USA'",'A; B; C',42.3286292,-71.0790261
Peking House,"'160 Dudley St.,Boston,MA,USA'",'A; B; C',42.3286361,-71.0831277
Arizona B B Q,"'2360 Washington St.,Boston,MA,USA'",'A; B; C',42.3293674,-71.0844591
Royal Fried Chicken,"'2360 Washington St.,Boston,MA,USA'",'A; B; C',42.3293674,-71.0844591
Yummy Yummy,"'2360 Washington St.,Boston,MA,USA'",'A; B; C',42.3293674,-71.0844591
Supreme House Of Pizza,"'309 Old Colony Ave.,Boston,MA,USA'",'A; B; C',42.3296394,-71.0530241
Hafun Cafe,"'37 Roxbury St.,Boston,MA,USA'",'A; B; C',42.3296825,-71.0853514
Tony's,"'960 Massachusetts Ave.,Boston,MA,USA'",'A; B; C',42.3298321,-71.0688039
Safari M. Cafe,"'50 John Eliot Sq.,Boston,MA,USA'",'A; B; C',42.3298422,-71.0914935
Red Line Pizza And Grill,"'582 Dorchester Ave.,Boston,MA,USA'",'A; B; C',42.3299902,-71.0569532
Dudley Dough,"'2300 Washington St.,Boston,MA,USA'",'A; B; C',42.3301639,-71.083968
Molina Restaurant,"'130 Newmarket Sq.,Boston,MA,USA'",'A; B; C',42.3303477,-71.0681385
Anshur Restauruant,"'291 Roxbury St.,Boston,MA,USA'",'A; B; C',42.3304142,-71.0942869
Dudly Coffee,"'2296 Washington St.,Boston,MA,USA'",'A; B; C',42.3304325,-71.0837531
Morgan Memorial Cafeteria,"'1010 Harrison Ave.,Boston,MA,USA'",'A; B; C',42.3308653,-71.079945
D'Angelo's,"'267 Old Colony Ave.,Boston,MA,USA'",'A; B; C',42.330979,-71.0532025
Seapoint Restaurant,"'367 East Eighth.,Boston,MA,USA'",'A; B; C',42.3311127,-71.0463381
Touchie's Shamrock Pub,"'501 E Eighth St.,Boston,MA,USA'",'A; B; C',42.3312365,-71.0412195
Wok 'N Talk,"'23 S Huntington Ave.,Boston,MA,USA'",'A; B; C',42.3314666,-71.1121349
A K's Take Out & Delivery,"'1427 Tremont St.,Boston,MA,USA'",'A; B; C',42.3318927,-71.0963204
Haley House Bakery Cafe,"'12 Dade St.,Boston,MA,USA'",'A; B; C',42.3320416,-71.0825178
New Market Pizza & Grill,"'850 Massachusetts Ave.,Boston,MA,USA'",'A; B; C',42.332079,-71.07102
Crispy Dough Pizzeria,"'1512 Tremont St.,Boston,MA,USA'",'A; B; C',42.3321315,-71.0995917
Lilly Gourmet Pasta Express,"'1526 Tremont St.,Boston,MA,USA'",'A; B; C',42.3323338,-71.0999691
J's Cafe @Bos. W & S,"'980 Harrison Ave.,Boston,MA,USA'",'A; B; C',42.3323543,-71.0777303
Alfredo's Italian Kitchen,"'243 Dorchester St.,Boston,MA,USA'",'A; B; C',42.3328298,-71.0513318
New England Center For Arts & Technology,"'23 Bradston St.,Boston,MA,USA'",'A; B; C',42.3331375,-71.0706074
Subway,"'1578 Tremont St.,Boston,MA,USA'",'A; B; C',42.3332519,-71.1025319
Zc Boston,"'797 Massachusetts Ave.,Boston,MA,USA'",'A; B; C',42.3333302,-71.0732524
Local 149,"'143 P St.,Boston,MA,USA'",'A; B; C',42.3333774,-71.0273045
Tremont House Of Pizza,"'1586 Tremont St.,Boston,MA,USA'",'A; B; C',42.3334073,-71.1030792
Tgi Fridays,"'1620 Tremont St.,Boston,MA,USA'",'A; B; C',42.3334914,-71.1040956
Green T Coffee Shop,"'754 Huntington Ave.,Boston,MA,USA'",'A; B; C',42.3334927,-71.1056987
Flames Restaurant,"'746 Huntington Ave.,Boston,MA,USA'",'A; B; C',42.3335859,-71.10551
Montecristo Mexican Grill,"'746 Huntington Ave.,Boston,MA,USA'",'A; B; C',42.3335859,-71.10551
Brigham Circle Chinese Food,"'728 Huntington Ave.,Boston,MA,USA'",'A; B; C',42.333779,-71.10516
Mission Sushi & Wok,"'1625 Tremont St.,Boston,MA,USA'",'A; B; C',42.333933,-71.103529
Cafe Mamtaz,"'87 L Street St.,Boston,MA,USA'",'A; B; C',42.334291,-71.0354814
New China Restaurant,"'869 Harrison Ave.,Boston,MA,USA'",'A; B; C',42.334356,-71.0762039
Sixth Gear Cask & Kitchen,"'81 L St.,Boston,MA,USA'",'A; B; C',42.3345705,-71.0355651
Il Mondo,"'682 Huntington Ave.,Boston,MA,USA'",'A; B; C',42.334848,-71.1023924
Sidewalk Cafe,"'764 E Fourth St.,Boston,MA,USA'",'A; B; C',42.3349687,-71.0334983
Perkin's Sq Deli,"'106 Dorchester St.,Boston,MA,USA'",'A; B; C',42.3351641,-71.0457625
Amsterdam Cafe,"'483 E Broadway.,Boston,MA,USA'",'A; B; C',42.3352353,-71.0455201
Tasty Burger.,"'69 L St.,Boston,MA,USA'",'A; B; C',42.3352776,-71.0355806
Pizzatalia,"'618 Shawmut Ave.,Boston,MA,USA'",'A; B; C',42.3353804,-71.0805736
Olympic House Of Pizza,"'655 East Broadway.,Boston,MA,USA'",'A; B; C',42.3354007,-71.0383448
Mc Goo's Pizza,"'479 W Broadway.,Boston,MA,USA'",'A; B; C',42.3354524,-71.0459815
Mcgoo's,"'479 W Broadway.,Boston,MA,USA'",'A; B; C',42.3354524,-71.0459815
Lee Chen's Restaurant,"'475 W Broadway.,Boston,MA,USA'",'A; B; C',42.3355156,-71.0461212
Pan Asia Restaurant,"'720 E Broadway.,Boston,MA,USA'",'A; B; C',42.3356179,-71.0363341
South Ocean Chinese Restaurant,"'720 E Broadway.,Boston,MA,USA'",'A; B; C',42.3356179,-71.0363341
Boston Bagel Company,"'753 E Broadway.,Boston,MA,USA'",'A; B; C',42.3356325,-71.0353578
Nick's Pizza & Seafood,"'467 W Broadway.,Boston,MA,USA'",'A; B; C',42.3356905,-71.0463159
Nanning Wok,"'465 W Broadway.,Boston,MA,USA'",'A; B; C',42.3357322,-71.046361
Cranberry Cafe Inc.,"'704 E Broadway.,Boston,MA,USA'",'A; B; C',42.3357566,-71.0371896
D'Angelo Sandwich Shop,"'818 Harrison Ave.,Boston,MA,USA'",'A; B; C',42.3357599,-71.0741126
Brigham & Womens Hospital D/B/A O'Naturals,"'70 Francis St.,Boston,MA,USA'",'A; B; C',42.3358387,-71.1080967
Boston Beer Garden,"'732 E Broadway.,Boston,MA,USA'",'A; B; C',42.3358655,-71.0359884
Land Of Pizza,"'445 W Broadway.,Boston,MA,USA'",'A; B; C',42.3359729,-71.0469397
Au Bon Pain,"'75 Francis St.,Boston,MA,USA'",'A; B; C',42.3360887,-71.1067067
Brighams & Womens Hospital - Tower Cafe,"'75 Francis St.,Boston,MA,USA'",'A; B; C',42.3360887,-71.1067067
Carter Fuller Mental Hospital,"'85 E Newton St.,Boston,MA,USA'",'A; B; C',42.3362292,-71.0708327
South Boston Chinese,"'429 W Broadway.,Boston,MA,USA'",'A; B; C',42.336264,-71.0474681
Mass Art Dining Commons,"'625 Huntington Ave.,Boston,MA,USA'",'A; B; C',42.3363287,-71.1004229
Village Pizza & Grill,"'56 L St.,Boston,MA,USA'",'A; B; C',42.3363597,-71.0352223
Chequers,"'72 E Concord St.,Boston,MA,USA'",'A; B; C',42.3364013,-71.072408
Laz Cafe,"'1744 Washington St.,Boston,MA,USA'",'A; B; C',42.336495,-71.076476
Eagles Deli,"'1918 Beacon St.,Boston,MA,USA'",'A; B; C',42.3366194,-71.1492179
Wentworth Beatty Hall,"'550 Huntington Ave.,Boston,MA,USA'",'A; B; C',42.3366516,-71.0957071
Fins Sushi & Grill Inc.,"'354 Chestnut Hill Ave.,Boston,MA,USA'",'A; B; C',42.3368803,-71.1515184
Mike's City Diner,"'1714 Washington St.,Boston,MA,USA'",'A; B; C',42.3369219,-71.0760252
Toro,"'1704 Washington St.,Boston,MA,USA'",'A; B; C',42.336925,-71.0758793
Fromage,"'399 W Broadway.,Boston,MA,USA'",'A; B; C',42.3370242,-71.0484753
412 Broadway,"'412 W Broadway.,Boston,MA,USA'",'A; B; C',42.3370712,-71.0476839
Equator Restaurant,"'1721 Washington St.,Boston,MA,USA'",'A; B; C',42.3370936,-71.0768306
Seiyo,"'1721C Washington St.,Boston,MA,USA'",'A; B; C',42.3370936,-71.0768306
Molly Moo's,"'687 E Second St.,Boston,MA,USA'",'A; B; C',42.3371468,-71.0357036
Slade's Bar & Grill,"'950 Tremont St.,Boston,MA,USA'",'A; B; C',42.337234,-71.083625
Pat's Kitchen,"'402 W Broadway.,Boston,MA,USA'",'A; B; C',42.3372352,-71.0480839
Citra A Fresh Cafe,"'221 Longwood Ave.,Boston,MA,USA'",'A; B; C',42.3372871,-71.102142
Subway,"'981 Tremont St.,Boston,MA,USA'",'A; B; C',42.3373459,-71.084415
Au Bon Pain,"'17 Blackfan St.,Boston,MA,USA'",'A; B; C',42.337394,-71.106273
Cafe Arpeggio,"'398 W Broadway.,Boston,MA,USA'",'A; B; C',42.3374199,-71.0481086
Papa Johns Pizza,"'971A Tremont St.,Boston,MA,USA'",'A; B; C',42.3375105,-71.0840783
M.G.S. Cafe Inc.,"'720 Harrison Ave.,Boston,MA,USA'",'A; B; C',42.3377929,-71.0708552
The Galley Dinner,"'11 P Street St.,Boston,MA,USA'",'A; B; C',42.3378038,-71.0273482
Code 10 Restaurant Cafe,"'2 E Concord St.,Boston,MA,USA'",'A; B; C',42.3378771,-71.0747174
Jaho Coffee & Tea,"'1651 Washington St.,Boston,MA,USA'",'A; B; C',42.3378806,-71.0754999
Murphy's Law,"'837 Summer St.,Boston,MA,USA'",'A; B; C',42.3380204,-71.0356638
Ethel & Andy's Sub Shop,"'134 K St.,Boston,MA,USA'",'A; B; C',42.3381244,-71.0374965
Subway,"'340 Longwood Ave.,Boston,MA,USA'",'A; B; C',42.3382421,-71.1063943
Dragon Bowl,"'396 Brookline Ave.,Boston,MA,USA'",'A; B; C',42.338263,-71.106985
Boston College Walsh Hall,"'150 St Thomas Moore.,Boston,MA,USA'",'A; B; C',42.338298,-71.165323
Longwood Hotel Corp.,"'342 Longwood Ave.,Boston,MA,USA'",'A; B; C',42.3383407,-71.1066156
Bertucci's,"'1 Blackfan Cr.,Boston,MA,USA'",'A; B; C',42.3383539,-71.1049218
University House Of Pizza,"'452 Huntington Ave.,Boston,MA,USA'",'A; B; C',42.3385299,-71.092913
Bourbon Street Cafe,"'350 Longwood Ave.,Boston,MA,USA'",'A; B; C',42.3386237,-71.1072353
Chutney's,"'350 Longwood Ave.,Boston,MA,USA'",'A; B; C',42.3386237,-71.1072353
Red Barn Coffee Roasters,"'350 Longwood Ave.,Boston,MA,USA'",'A; B; C',42.3386237,-71.1072353
Rebecca's Cafe,"'380 Huntington Ave.,Boston,MA,USA'",'A; B; C',42.338772,-71.0889027
Punter's Pub,"'444 Huntington Ave.,Boston,MA,USA'",'A; B; C',42.3388479,-71.0924575
Orinoco:A Latin Kitchen,"'477 Shawmut Ave.,Boston,MA,USA'",'A; B; C',42.3389499,-71.0758995
Simmons College-The Fens,"'300 Fenway.,Boston,MA,USA'",'A; B; C',42.3390832,-71.1000654
Burger King,"'280 W Broadway.,Boston,MA,USA'",'A; B; C',42.3392093,-71.0509416
Eat @ Corner Cafe,"'502 Massachusetts Ave.,Boston,MA,USA'",'A; B; C',42.339277,-71.080097
Pizzeria 260,"'260 W Broadway.,Boston,MA,USA'",'A; B; C',42.3394011,-71.0514192
Museum Of Fine Arts Cafeteria,"'465 Huntington Ave.,Boston,MA,USA'",'A; B; C',42.3394567,-71.0941429
Museum Of Fine Arts New American Cafe,"'465 Huntington Ave.,Boston,MA,USA'",'A; B; C',42.3394567,-71.0941429
South End Pizza & Grill,"'768 Tremont.,Boston,MA,USA'",'A; B; C',42.3396951,-71.0794827
South End Pita,"'471 Albany St.,Boston,MA,USA'",'A; B; C',42.3397506,-71.0650008
Darryls Corner Bar & Kitchen,"'604 Columbus Ave.,Boston,MA,USA'",'A; B; C',42.3397664,-71.0824273
Qdoba Mexican Eats No. 2207,"'393 Huntington Ave.,Boston,MA,USA'",'A; B; C',42.3397747,-71.0908576
Bruegger's Bagel Bakery,"'375 Longwood Ave.,Boston,MA,USA'",'A; B; C',42.3398658,-71.1083679
Crazy Dough's Pizza,"'2201 Commonwealth Ave.,Boston,MA,USA'",'A; B; C',42.3402844,-71.1666091
Emmanuel College,"'400 Fenway.,Boston,MA,USA'",'A; B; C',42.3403687,-71.1016439
Yamato Japanese Cuisine,"'111 Chiswick Rd.,Boston,MA,USA'",'A; B; C',42.3405167,-71.1516432
Chilli Thai Bistro,"'1795 Commonwealth Ave.,Boston,MA,USA'",'A; B; C',42.3406535,-71.1514824
Chatime,"'331 Huntington Ave.,Boston,MA,USA'",'A; B; C',42.3408791,-71.0883906
Conor Larkins Grill & Tap,"'329 Huntington Ave.,Boston,MA,USA'",'A; B; C',42.340918,-71.0882276
Wings Over Boston,"'325 Huntington Ave.,Boston,MA,USA'",'A; B; C',42.3409273,-71.0881083
Subway,"'393 Massachusetts Ave.,Boston,MA,USA'",'A; B; C',42.3409448,-71.0841087
Temptations Cafe,"'311 Huntington Ave.,Boston,MA,USA'",'A; B; C',42.3410105,-71.0874536
Rondo's Sub Shop,"'134 W Broadway.,Boston,MA,USA'",'A; B; C',42.341033,-71.053962
Dolce Vita (1696 Comm. Ave.),"'1696 Commonwealth Ave.,Boston,MA,USA'",'A; B; C',42.341217,-71.1465565
Boston House Of Pizza,"'305 Huntington Ave.,Boston,MA,USA'",'A; B; C',42.3412969,-71.0873678
House Of Siam,"'542 Columbus Ave.,Boston,MA,USA'",'A; B; C',42.3414036,-71.0803312
The Upper Crust,"'683 Tremont St.,Boston,MA,USA'",'A; B; C',42.3415995,-71.0766635
Mul's Diner,"'75 W Broadway.,Boston,MA,USA'",'A; B; C',42.3417284,-71.0553608
Symphony Sushi,"'45 Gainsborough St.,Boston,MA,USA'",'A; B; C',42.3418024,-71.0868342
Farmer Horse Coffee,"'376 Massachusetts Ave.,Boston,MA,USA'",'A; B; C',42.341833,-71.083466
Uno Chicago Grill,"'270 Huntington Ave.,Boston,MA,USA'",'A; B; C',42.3418351,-71.0858831
Our House,"'54 Gainsborough St.,Boston,MA,USA'",'A; B; C',42.341857,-71.0872485
Jae's Cafe & Grill Inc,"'520 Columbus Ave.,Boston,MA,USA'",'A; B; C',42.3419137,-71.0797543
Sodexo Wheelock College Dining Room 2Nd Fl.,"'200 Riverway.,Boston,MA,USA'",'A; B; C',42.341994,-71.10602
South End Buttery(314 Shawmut Ave.),"'314 Shawmut Ave.,Boston,MA,USA'",'A; B; C',42.3420879,-71.0703521
Cafe Madeleine,"'517 Columbus Ave.,Boston,MA,USA'",'A; B; C',42.3421174,-71.0799272
Ginger Exchange,"'250 Huntington Ave.,Boston,MA,USA'",'A; B; C',42.3422662,-71.0848807
Subway,"'11 W Broadway.,Boston,MA,USA'",'A; B; C',42.3423347,-71.056551
Nicole's Pizza,"'639 Tremont St.,Boston,MA,USA'",'A; B; C',42.342368,-71.075197
College Pizza,"'50 Queensberry St.,Boston,MA,USA'",'A; B; C',42.3425143,-71.0972567
Kung Fu Tea @ Mass. Ave.,"'334 Massachusetts Ave.,Boston,MA,USA'",'A; B; C',42.3425943,-71.0841727
Hidyan Cafe,"'70 Kilmarnock St.,Boston,MA,USA'",'A; B; C',42.3426429,-71.0993547
Teriyaki House,"'32 W Broadway.,Boston,MA,USA'",'A; B; C',42.3427237,-71.056358
My Diner,"'98 A St.,Boston,MA,USA'",'A; B; C',42.342794,-71.0545448
Petit Robert Bistro,"'480 Columbus Ave.,Boston,MA,USA'",'A; B; C',42.3428437,-71.078613
House Of Siam On Tremont,"'592 Tremont St.,Boston,MA,USA'",'A; B; C',42.3429361,-71.0730253
Thorntons Fenway Grille,"'100 Peterborough St.,Boston,MA,USA'",'A; B; C',42.3429965,-71.0993529
Neighborhoods,"'96 Peterborough St.,Boston,MA,USA'",'A; B; C',42.3430179,-71.0992149
Rod Dee 2 Thai Cuisine,"'94 Peterborough St.,Boston,MA,USA'",'A; B; C',42.3430395,-71.0991588
Swish Shabu,"'84 Peterborough St.,Boston,MA,USA'",'A; B; C',42.3431397,-71.0988372
Bamboo Restaurant,"'1616 Commonwealth Ave.,Boston,MA,USA'",'A; B; C',42.343229,-71.1427851
Mela Restaurant,"'574 Tremont St.,Boston,MA,USA'",'A; B; C',42.3434753,-71.0725594
Stephi's On Tremont,"'571 Tremont St.,Boston,MA,USA'",'A; B; C',42.343676,-71.0726255
Cappy's Pizza & Subs,"'82 Westland Ave.,Boston,MA,USA'",'A; B; C',42.34376,-71.0896762
Aquitaine,"'569 Tremont St.,Boston,MA,USA'",'A; B; C',42.3437833,-71.0724315
Anchovies Restaurant,"'433 Columbus Ave.,Boston,MA,USA'",'A; B; C',42.3440216,-71.0778505
Giacomo's Restaurant,"'431 Columbus Ave.,Boston,MA,USA'",'A; B; C',42.3440688,-71.077795
Chang's House,"'1581 Commonwealth Ave.,Boston,MA,USA'",'A; B; C',42.3442572,-71.1429991
Designer Cafe'(Au Bon Pain),"'1 Design Center Pl.,Boston,MA,USA'",'A; B; C',42.3442688,-71.0305676
Emilios Pizza & Subs,"'536 Tremont St.,Boston,MA,USA'",'A; B; C',42.344302,-71.0705658
Freshii,"'1 Iron St.,Boston,MA,USA'",'A; B; C',42.344538,-71.0522314
Basho Japanese Brasserie,"'1341 Boylston St.,Boston,MA,USA'",'A; B; C',42.3446572,-71.0995726
Revolution Juice,"'150 Huntington Ave.,Boston,MA,USA'",'A; B; C',42.344663,-71.0821543
Thornton's Restaurant,"'150 Huntington Ave.,Boston,MA,USA'",'A; B; C',42.344663,-71.0821543
The Baseball Tavern,"'1270 Boylston.,Boston,MA,USA'",'A; B; C',42.344691,-71.0963144
The Beehive,"'537 Tremont St.,Boston,MA,USA'",'A; B; C',42.344691,-71.0714069
Chipotle Mexican Grill,"'144 Brookline Ave.,Boston,MA,USA'",'A; B; C',42.3447204,-71.100834
Tasty Burger,"'1301 Boylston St.,Boston,MA,USA'",'A; B; C',42.3447623,-71.0983756
Woody's Grill & Tap,"'58 Hemenway St.,Boston,MA,USA'",'A; B; C',42.3448031,-71.0894537
Domino's Pizza,"'1252 Boylston St.,Boston,MA,USA'",'A; B; C',42.3448775,-71.0957999
Caffe Strega,"'175 Huntington Ave.,Boston,MA,USA'",'A; B; C',42.3450098,-71.0823065
Wahlburgers,"'132 Brookline Ave.,Boston,MA,USA'",'A; B; C',42.3450649,-71.100462
Cafe @ 1295,"'1295 Boylston St.,Boston,MA,USA'",'A; B; C',42.3450968,-71.0977681
Appleton Bakery & Cafe,"'75 Dartmouth St.,Boston,MA,USA'",'A; B; C',42.3451309,-71.0748786
Tony C's Sports Bar & Grill,"'1265 Boylston St.,Boston,MA,USA'",'A; B; C',42.3452876,-71.0963642
Hojoko,"'1271 Boylston St.,Boston,MA,USA'",'A; B; C',42.3453289,-71.0969344
Sushiemon,"'189 Massachusetts Ave.,Boston,MA,USA'",'A; B; C',42.3453815,-71.0871658
Laugh Boston,"'425 Summer St.,Boston,MA,USA'",'A; B; C',42.3457313,-71.0435238
Il Mondo Pizza,"'182 Massachusetts Ave.,Boston,MA,USA'",'A; B; C',42.3458009,-71.0866845
Inboston,"'175 Massachusetts Ave.,Boston,MA,USA'",'A; B; C',42.3458411,-71.0873796
Chutney's,"'173 Massachusetts Ave.,Boston,MA,USA'",'A; B; C',42.3458871,-71.0873977
Berklee College Of Music,"'160 Massachusetts Ave.,Boston,MA,USA'",'A; B; C',42.3462238,-71.0869209
Clery's,"'331 Columbus Ave.,Boston,MA,USA'",'A; B; C',42.346241,-71.075215
Coda Bar & Kitchen,"'329 Columbus Ave.,Boston,MA,USA'",'A; B; C',42.3462731,-71.0750553
The Best Sausage Co. Inc.,"'78 Brookline Ave.,Boston,MA,USA'",'A; B; C',42.346357,-71.0990209
Sheraton Boston (Apropos/R.S./Cafe),"'39 Dalton St.,Boston,MA,USA'",'A; B; C',42.3463836,-71.0840229
Sheraton Boston (Side Bar),"'39 Dalton St.,Boston,MA,USA'",'A; B; C',42.3463836,-71.0840229
Brownstone,"'111 Dartmouth St.,Boston,MA,USA'",'A; B; C',42.3464716,-71.0753024
Boston Back Bay Hilton,"'40 Dalton St.,Boston,MA,USA'",'A; B; C',42.3465008,-71.0854872
Masa,"'1 Appleton St.,Boston,MA,USA'",'A; B; C',42.3467174,-71.0694173
Crazy Dough's Pizza Company,"'1124 Boylston St.,Boston,MA,USA'",'A; B; C',42.3467175,-71.0889175
Pad Thai Cafe,"'1116 Boylston St.,Boston,MA,USA'",'A; B; C',42.3467319,-71.0887255
Berkeley Perk Cafe,"'69 Berkeley St.,Boston,MA,USA'",'A; B; C',42.3468079,-71.0706174
Rome Pizza,"'416 Tremont St.,Boston,MA,USA'",'A; B; C',42.3468149,-71.068674
Pavement Coffeehouse,"'1096 Boylston St.,Boston,MA,USA'",'A; B; C',42.3468203,-71.0883967
5 Napkin Burger,"'101 Huntington Ave.,Boston,MA,USA'",'A; B; C',42.3468751,-71.0811237
B. Good,"'131 Dartmouth St.,Boston,MA,USA'",'A; B; C',42.3469178,-71.0750402
Douzo Japanese Restaurant,"'131 Dartmouth St.,Boston,MA,USA'",'A; B; C',42.3469178,-71.0750402
Sapient Corp. Aramark Coffee Bar,"'131 Dartmouth St.,Boston,MA,USA'",'A; B; C',42.3469178,-71.0750402
Squeeze Juice Bar,"'131 Dartmouth St.,Boston,MA,USA'",'A; B; C',42.3469178,-71.0750402
Subway & Auntie Anne's,"'1120 Boylston St.,Boston,MA,USA'",'A; B; C',42.3469681,-71.0889397
Zest Mediterranean Grill,"'1076 Boylston St.,Boston,MA,USA'",'A; B; C',42.34698,-71.087976
Sal's Pizza,"'51 Brookline Ave.,Boston,MA,USA'",'A; B; C',42.3470223,-71.0988941
King's Lane Lounge & Billiards,"'50 Dalton St.,Boston,MA,USA'",'A; B; C',42.3470597,-71.0856588
Bleacher Bar,"'70 Lansdowne St.,Boston,MA,USA'",'A; B; C',42.3471765,-71.0973065
Game On Fenway Park,"'70 Lansdowne.,Boston,MA,USA'",'A; B; C',42.3471765,-71.0973065
Choice's By Au Bon Pain,"'100 Huntington Ave.,Boston,MA,USA'",'A; B; C',42.347334,-71.0788745
Mei Mei,"'506 Park Dr.,Boston,MA,USA'",'A; B; C',42.347672,-71.105963
Shaloh House,"'29 Chestnut Hill Ave.,Boston,MA,USA'",'A; B; C',42.3478686,-71.1544295
Dillon's,"'955 Boylston St.,Boston,MA,USA'",'A; B; C',42.3479567,-71.0859313
Trident Booksellers And Cafe,"'338 Newbury St.,Boston,MA,USA'",'A; B; C',42.3482376,-71.0866097
The Copley Square Hotel,"'47 Huntington Ave.,Boston,MA,USA'",'A; B; C',42.3482726,-71.0786234
Natalie's Pizza,"'1306 Commonwealth Ave.,Boston,MA,USA'",'A; B; C',42.348352,-71.134094
J.P. Licks At W.R. Inc.,"'661 V F W Pk.,Boston,MA,USA'",'A; B; C',42.3483642,-71.10599
Uno Chicago Grill,"'1 Brookline Ave.,Boston,MA,USA'",'A; B; C',42.3483711,-71.0977409
Fenmore American Bistro,"'645 Beacon St.,Boston,MA,USA'",'A; B; C',42.3484278,-71.0977677
Mcdonalds,"'540 Commonwealth Ave.,Boston,MA,USA'",'A; B; C',42.3484351,-71.0968478
Fogo De Chao - Churrascaria,"'10 Huntington Ave.,Boston,MA,USA'",'A; B; C',42.3484581,-71.0774606
Shabu Maru,"'10 Huntington Ave.,Boston,MA,USA'",'A; B; C',42.3484581,-71.0774606
Salvatore's,"'225 Northern Ave.,Boston,MA,USA'",'A; B; C',42.3484606,-71.0387957
The Lower Depths,"'476 Commonwealth Ave.,Boston,MA,USA'",'A; B; C',42.3484626,-71.0938491
Au Bon Pain Store No. 41,"'800 Boylston St.,Boston,MA,USA'",'A; B; C',42.348521,-71.0822975
Dunkin Donuts',"'800 Boylston St.,Boston,MA,USA'",'A; B; C',42.348521,-71.0822975
Fruitata Inc.,"'800 Boylston St.,Boston,MA,USA'",'A; B; C',42.348521,-71.0822975
Haru,"'800 Boylston St.,Boston,MA,USA'",'A; B; C',42.348521,-71.0822975
Pf Chang's China Bistro,"'800 Boylston St.,Boston,MA,USA'",'A; B; C',42.348521,-71.0822975
Sweetgreen,"'800 Boylston St.,Boston,MA,USA'",'A; B; C',42.348521,-71.0822975
Top Of The Hub,"'800 Boylston St.,Boston,MA,USA'",'A; B; C',42.348521,-71.0822975
Wagamama,"'800 Boylston St.,Boston,MA,USA'",'A; B; C',42.348521,-71.0822975
India Quality,"'484 Commonwealth Ave.,Boston,MA,USA'",'A; B; C',42.3485442,-71.0942306
Dosa Factory,"'316 Newbury St.,Boston,MA,USA'",'A; B; C',42.3485809,-71.0853988
Restaurant Clio,"'370 Commonwealth Ave.,Boston,MA,USA'",'A; B; C',42.3485902,-71.0886984
Harvard Club Of Boston,"'1 Federal St.,Boston,MA,USA'",'A; B; C',42.3485916,-71.0891056
Harvard Club Of Boston,"'374 Commonwealth Ave.,Boston,MA,USA'",'A; B; C',42.3485916,-71.0891056
Centerplate @ Blue Hills Bank Pavilion,"'290 Northern Ave.,Boston,MA,USA'",'A; B; C',42.3486041,-71.0360352
Whiskey's Steakhouse & Saloon,"'885 Boylston St.,Boston,MA,USA'",'A; B; C',42.3486115,-71.0836843
Viga,"'140 Clarendon St.,Boston,MA,USA'",'A; B; C',42.3486204,-71.0745635
Island Creek Oyster Bar,"'500 Commonwealth Ave.,Boston,MA,USA'",'A; B; C',42.3486282,-71.0952228
Cafe Jaffa,"'48 Gloucester.,Boston,MA,USA'",'A; B; C',42.3486637,-71.0841564
Back Bay Harry's,"'142 Berkeley St.,Boston,MA,USA'",'A; B; C',42.3487138,-71.0722817
Auntie Vie's Bakery & Cafe,"'480 Washington St.,Boston,MA,USA'",'A; B; C',42.3487191,-71.1603762
Double Tree Club Hotel,"'821 Washington St.,Boston,MA,USA'",'A; B; C',42.3487236,-71.0646454
Double Tree Club Hotel/Starbucks,"'821 Washington St.,Boston,MA,USA'",'A; B; C',42.3487236,-71.0646454
Post 390,"'406 Stuart St.,Boston,MA,USA'",'A; B; C',42.348731,-71.0746516
Back Bay Social Club,"'867 Boylston St.,Boston,MA,USA'",'A; B; C',42.3487423,-71.0834529
Mandarin Oriental Boston,"'776 Boylston St.,Boston,MA,USA'",'A; B; C',42.3487748,-71.0813479
Emack & Bolio's,"'290 Newbury St.,Boston,MA,USA'",'A; B; C',42.3488226,-71.0845696
Esperia Grill & Rotisserie,"'344 Washington St.,Boston,MA,USA'",'A; B; C',42.3488598,-71.152858
Pavement Coffee House,"'286 Newbury St.,Boston,MA,USA'",'A; B; C',42.3488639,-71.0844222
Devlin's Restaurant,"'332 Washington St.,Boston,MA,USA'",'A; B; C',42.348871,-71.1523252
L'Espalier,"'772 Boylston St.,Boston,MA,USA'",'A; B; C',42.3489274,-71.0809265
Samurai Boston,"'827 Boylston St.,Boston,MA,USA'",'A; B; C',42.3489405,-71.0825443
St. Elizabeth's Medical Center,"'736 Cambridge St.,Boston,MA,USA'",'A; B; C',42.3489582,-71.1476809
Copley Plaza Hotel,"'138 St James Ave.,Boston,MA,USA'",'A; B; C',42.3490507,-71.0761773
Liberty Mutual Berkeley Cafeteria (2Nd Fl),"'157 Berkeley St.,Boston,MA,USA'",'A; B; C',42.34911,-71.0718557
Beantown Pho & Grill,"'272 Newbury St.,Boston,MA,USA'",'A; B; C',42.3491216,-71.0834316
Loews Boston Hotel,"'350 Stuart St.,Boston,MA,USA'",'A; B; C',42.3491535,-71.0723748
Levi's Restaurant & Lounge,"'323 Washington St.,Boston,MA,USA'",'A; B; C',42.3492388,-71.1519505
Abe & Louie's,"'793 Boylston St.,Boston,MA,USA'",'A; B; C',42.3492427,-71.0816005
Bertucci's Brickoven Pizzeria,"'533 Commonwealth Ave.,Boston,MA,USA'",'A; B; C',42.3492583,-71.0966572
75 On Liberty Wharf,"'220 Northern Ave.,Boston,MA,USA'",'A; B; C',42.3492652,-71.0398056
Dragon Chef Chinese Rest.,"'411 Washington St.,Boston,MA,USA'",'A; B; C',42.3492717,-71.1554071
Little Pizza King,"'389 Washington St.,Boston,MA,USA'",'A; B; C',42.3493133,-71.154723
B.U. Warren Tower Cafe,"'700 Commonwealth Ave.,Boston,MA,USA'",'A; B; C',42.349341,-71.1039816
Bon Me No. 2 Dewey Sq. Parks,"'1 Citywide St.,Boston,MA,USA'",'A; B; C',42.3493824,-71.0777334
Chicken And Rice Guys,"'1 Citywide St.,Boston,MA,USA'",'A; B; C',42.3493824,-71.0777334
Chubby Chickpea Mobile,"'1 Citywide St.,Boston,MA,USA'",'A; B; C',42.3493824,-71.0777334
Clover Fast Food No. 3,"'1 Citywide St.,Boston,MA,USA'",'A; B; C',42.3493824,-71.0777334
Momogoose 2,"'1 Citywide St.,Boston,MA,USA'",'A; B; C',42.3493824,-71.0777334
Moyzilla,"'1 Citywide St.,Boston,MA,USA'",'A; B; C',42.3493824,-71.0777334
Roxy's Gourmet Grilled Cheese,"'1 Citywide St.,Boston,MA,USA'",'A; B; C',42.3493824,-71.0777334
Roxy's Gourmet Grilled Cheese No. 2,"'1 Citywide St.,Boston,MA,USA'",'A; B; C',42.3493824,-71.0777334
Sheherazad Food Inc.,"'1 Citywide St.,Boston,MA,USA'",'A; B; C',42.3493824,-71.0777334
Ter-Yummy,"'1 Citywide St.,Boston,MA,USA'",'A; B; C',42.3493824,-71.0777334
The Bacon Truck,"'1 Citywide St.,Boston,MA,USA'",'A; B; C',42.3493824,-71.0777334
The Dining Car,"'1 Citywide St.,Boston,MA,USA'",'A; B; C',42.3493824,-71.0777334
Yumm Bai Corp,"'1 Citywide St.,Boston,MA,USA'",'A; B; C',42.3493824,-71.0777334
Lenox Hotel (5 Food Serv. Loc.),"'704 Boylston St.,Boston,MA,USA'",'A; B; C',42.3493838,-71.0795532
Kashmir Indian Restaurant,"'279 Newbury St.,Boston,MA,USA'",'A; B; C',42.3494005,-71.0840573
Wich ! T,"'244 Newbury St.,Boston,MA,USA'",'A; B; C',42.3494069,-71.0823976
The Catered Affair @ Bos. Public Library(T.O.),"'700 Boylston St.,Boston,MA,USA'",'A; B; C',42.3494163,-71.0788285
Thai Dish Restaurant,"'636 Beacon St.,Boston,MA,USA'",'A; B; C',42.3495927,-71.0952724
Uburger,"'636 Beacon St.,Boston,MA,USA'",'A; B; C',42.3495927,-71.0952724
Blue State Coffee,"'155 Seaport Bl.,Boston,MA,USA'",'A; B; C',42.3496068,-71.042722
Sebastians (Seaport Blvd.),"'155 Seaport Bl.,Boston,MA,USA'",'A; B; C',42.3496068,-71.042722
Typhoon Restaurant,"'725 Boylston St.,Boston,MA,USA'",'A; B; C',42.349615,-71.0801753
Breadwinners/Starbuck's,"'595 Commonwealth Ave.,Boston,MA,USA'",'A; B; C',42.349626,-71.0995466
Conf. Ctr. School Of Mgment,"'595 Commonwealth Ave.,Boston,MA,USA'",'A; B; C',42.349626,-71.0995466
La Voile Brasserie,"'257 Newbury St.,Boston,MA,USA'",'A; B; C',42.3496556,-71.0831319
Roost Bistro On Newbury,"'257 Newbury St.,Boston,MA,USA'",'A; B; C',42.3496556,-71.0831319
Dunkin Donuts,"'715 Boylston St.,Boston,MA,USA'",'A; B; C',42.3496592,-71.0800079
Beijing Cafe,"'728 Commonwealth Ave.,Boston,MA,USA'",'A; B; C',42.3496909,-71.1064212
Boston Indian Kitchen Inc.,"'51A Massachusetts Ave.,Boston,MA,USA'",'A; B; C',42.3496934,-71.0892325
B.U.Dining Srvices-1St Fl.,"'100 Bay State Rd.,Boston,MA,USA'",'A; B; C',42.3497666,-71.0979066
Corporate Chefs @ Plaza Cafe (Tufts),"'274 Tremont St.,Boston,MA,USA'",'A; B; C',42.3497824,-71.0647222
Noodle Street Restaurant,"'627 Commonwealth Ave.,Boston,MA,USA'",'A; B; C',42.349813,-71.10158
Inbound Pizza & Restaurant,"'1232 Commonwealth Ave.,Boston,MA,USA'",'A; B; C',42.3498224,-71.1308995
Courtyard Boston Downtown,"'275 Tremont St.,Boston,MA,USA'",'A; B; C',42.3499198,-71.0655674
Mcdonald's,"'750 Atlantic Ave.,Boston,MA,USA'",'A; B; C',42.3499491,-71.0558458
Lucky's,"'355 Congress St.,Boston,MA,USA'",'A; B; C',42.3500551,-71.0484886
The Corner Tavern,"'421 Marlborough St.,Boston,MA,USA'",'A; B; C',42.3501564,-71.0894821
Stephanie's On Newbury,"'190 Newbury St.,Boston,MA,USA'",'A; B; C',42.3501756,-71.0794405
Sweetgreen,"'364 Congress St.,Boston,MA,USA'",'A; B; C',42.3502493,-71.0480773
Crave Mad For Chicken,"'75 Kneeland St.,Boston,MA,USA'",'A; B; C',42.3502805,-71.0607747
Pavement Coffeehouse,"'1243 Commonwealth Ave.,Boston,MA,USA'",'A; B; C',42.350361,-71.131933
Seoul Soulongtang,"'1243 Commonwealth Ave.,Boston,MA,USA'",'A; B; C',42.350361,-71.131933
New Hong Kong Restaurant,"'14 Tremont St.,Boston,MA,USA'",'A; B; C',42.350456,-71.1685823
Chef Chang's On Back Bay,"'30 Massachusetts Ave.,Boston,MA,USA'",'A; B; C',42.3504615,-71.0889789
Davio's,"'75 Arlington St.,Boston,MA,USA'",'A; B; C',42.3505077,-71.070443
Clay Pot Cafe,"'74 Kneeland St.,Boston,MA,USA'",'A; B; C',42.3505092,-71.0604557
Wing's Kitchen,"'23 Hudson St.,Boston,MA,USA'",'A; B; C',42.3505147,-71.060306
Chatime,"'18 Hudson St.,Boston,MA,USA'",'A; B; C',42.350582,-71.0599173
Hong Ze,"'21 Hudson St.,Boston,MA,USA'",'A; B; C',42.350599,-71.0602755
Joe's American Bar & Grill,"'26 Exeter St.,Boston,MA,USA'",'A; B; C',42.350638,-71.0797511
Boloco,"'569 Boylston St.,Boston,MA,USA'",'A; B; C',42.3506398,-71.0764819
Aramark At Houghton Mifflin,"'222 Berkeley St.,Boston,MA,USA'",'A; B; C',42.350667,-71.0731944
Globe Bar & Cafe,"'565 Boylston St.,Boston,MA,USA'",'A; B; C',42.3506784,-71.0763393
The Q,"'640 Washington St.,Boston,MA,USA'",'A; B; C',42.350682,-71.1691938
Jade Garden Restaurant,"'20 Tyler St.,Boston,MA,USA'",'A; B; C',42.3507412,-71.0605693
Wendy's Old Fashioned Hamburers,"'551 Boylston St.,Boston,MA,USA'",'A; B; C',42.3507558,-71.0760374
Hillel,"'213 Bay State Rd.,Boston,MA,USA'",'A; B; C',42.350804,-71.103111
W Boston Market By Jean George & Emp.Caf.,"'100 Stuart St.,Boston,MA,USA'",'A; B; C',42.3508154,-71.0655748
Finagle-A-Bagel,"'535 Boylston St.,Boston,MA,USA'",'A; B; C',42.3508157,-71.0756622
Mcdonald's,"'1223 Commonwealth Ave.,Boston,MA,USA'",'A; B; C',42.3508179,-71.1308899
Yamato Ii,"'545 Boylston St.,Boston,MA,USA'",'A; B; C',42.3508521,-71.0758962
Thai Basil,"'132 Newbury St.,Boston,MA,USA'",'A; B; C',42.3509029,-71.0767267
Papa Razzi,"'157 Newbury St.,Boston,MA,USA'",'A; B; C',42.350923,-71.078556
New Dong Khanh Restaurant,"'81 Harrison Ave.,Boston,MA,USA'",'A; B; C',42.3509338,-71.0615962
New Jumbo Seafood,"'5 Hudson St.,Boston,MA,USA'",'A; B; C',42.3509431,-71.0601915
Panera Bread No. 1449,"'490 Boylston St.,Boston,MA,USA'",'A; B; C',42.3509495,-71.0742066
Cafe Med,"'31 Saint James Ave.,Boston,MA,USA'",'A; B; C',42.3509525,-71.0715658
Park Sq Cafe,"'31 St James Ave.,Boston,MA,USA'",'A; B; C',42.3509525,-71.0715658
Samurai Express,"'31 Saint James Ave.,Boston,MA,USA'",'A; B; C',42.3509525,-71.0715658
Wonder Bar,"'186 Harvard Ave.,Boston,MA,USA'",'A; B; C',42.3509677,-71.1310647
Winsor Dimsum Cafe,"'10 Tyler St.,Boston,MA,USA'",'A; B; C',42.3509791,-71.0604631
Best Barbecue Kitchen,"'86 Beach.,Boston,MA,USA'",'A; B; C',42.3510043,-71.0589047
Au Bon Pain,"'26 Park Plaza.,Boston,MA,USA'",'A; B; C',42.3510123,-71.0679728
Boston Park Plaza (Main Kitchen/Room Serv.),"'50 Park Pz.,Boston,MA,USA'",'A; B; C',42.3510417,-71.0697049
Boston Park Plaza Employee Cafeteria(3Rdfl),"'50 Park Pz.,Boston,MA,USA'",'A; B; C',42.3510417,-71.0697049
Finale (Room For Dessert Llc),"'50 Park Pz.,Boston,MA,USA'",'A; B; C',42.3510417,-71.0697049
Mc Cormick & Schmick's Rest.,"'50 Park Pz.,Boston,MA,USA'",'A; B; C',42.3510417,-71.0697049
Irashai Sushi And Teriyaki,"'8 Kneeland St.,Boston,MA,USA'",'A; B; C',42.3510497,-71.0627006
Great Taste Bakery And Restaurant,"'61 Beach St.,Boston,MA,USA'",'A; B; C',42.35111,-71.060267
China Pearl Restaurant,"'9 Tyler St.,Boston,MA,USA'",'A; B; C',42.3511223,-71.060924
Tantric India Bistro,"'123 Stuart St.,Boston,MA,USA'",'A; B; C',42.3511482,-71.0656916
Pret A Manger,"'501 Boylston St.,Boston,MA,USA'",'A; B; C',42.3511519,-71.0745563
Dumpling Cafe Inc.,"'693 Washington St.,Boston,MA,USA'",'A; B; C',42.3511662,-71.0630012
Les Zygomates,"'129 South St.,Boston,MA,USA'",'A; B; C',42.3512067,-71.0575214
Bubor Cha Cha,"'41 Beach St.,Boston,MA,USA'",'A; B; C',42.3512648,-71.0608133
Snappy Sushi,"'108 Newbury St.,Boston,MA,USA'",'A; B; C',42.3513052,-71.0756733
Crazy Dough's Pizza,"'8 Park Pz.,Boston,MA,USA'",'A; B; C',42.3513467,-71.0661306
D'Angelo's Sandwich Shop,"'8 Park Pz.,Boston,MA,USA'",'A; B; C',42.3513467,-71.0661306
Osaka Express,"'8 Park Pz.,Boston,MA,USA'",'A; B; C',42.3513467,-71.0661306
P.F.Chang's China Bistro,"'8 Park Pz.,Boston,MA,USA'",'A; B; C',42.3513467,-71.0661306
East Ocean City,"'25 Beach St.,Boston,MA,USA'",'A; B; C',42.3513468,-71.0617888
O Ya Restaurant,"'9 East St.,Boston,MA,USA'",'A; B; C',42.3513521,-71.0569233
My Thai Cafe Vegetarian & Bubble Tea Bristro,"'3 Beach St.,Boston,MA,USA'",'A; B; C',42.351358,-71.062635
Rock Bottom Rest. & Brewery,"'115 Stuart St.,Boston,MA,USA'",'A; B; C',42.3514083,-71.0653801
Pasteur Restaurant I I,"'682 Washington St.,Boston,MA,USA'",'A; B; C',42.3514222,-71.0626816
China King Restaurant,"'60 Beach St.,Boston,MA,USA'",'A; B; C',42.3514633,-71.0601386
Bibim Restaurant,"'166 Harvard Ave.,Boston,MA,USA'",'A; B; C',42.3515054,-71.1314451
Hanmaru,"'164 Harvard Ave.,Boston,MA,USA'",'A; B; C',42.3515073,-71.1314179
Au Bon Pain,"'431 Boylston St.,Boston,MA,USA'",'A; B; C',42.3515392,-71.0729131
Susan's Deli Of Course,"'695 Atlantic Ave.,Boston,MA,USA'",'A; B; C',42.3515837,-71.0562695
Froyo World,"'157 Harvard Ave.,Boston,MA,USA'",'A; B; C',42.3516113,-71.1319492
Dumpling King,"'40 Harrison Ave.,Boston,MA,USA'",'A; B; C',42.3516622,-71.0608976
Wai Wai Ice Cream Shop,"'26 Oxford St.,Boston,MA,USA'",'A; B; C',42.3516767,-71.0602735
Chilton Club,"'150 Commonwealth Ave.,Boston,MA,USA'",'A; B; C',42.3517904,-71.0778494
Master Wok,"'650 Atlantic Ave.,Boston,MA,USA'",'A; B; C',42.3518144,-71.055222
Cookin Cafe & Grille,"'1096 Commonwealth Ave.,Boston,MA,USA'",'A; B; C',42.3518199,-71.1242958
Seller's Cafe@N.E. College Of Optometry,"'424 Beacon St.,Boston,MA,USA'",'A; B; C',42.3518462,-71.0868624
Thinking Cup Newbury,"'85 Newbury St.,Boston,MA,USA'",'A; B; C',42.351894,-71.074962
Asian Garden Restaurant Inc.,"'28 Harrison Ave.,Boston,MA,USA'",'A; B; C',42.3519404,-71.0610193
Bistro Du Midi,"'272 Boylston St.,Boston,MA,USA'",'A; B; C',42.3519657,-71.0694932
New Moon Villa Restaurant,"'15 Edinboro St.,Boston,MA,USA'",'A; B; C',42.3519999,-71.059911
Dunkin' Donuts/Baskin Robins,"'80 Boylston St.,Boston,MA,USA'",'A; B; C',42.3520126,-71.0649292
Tarboosh Pizza & Grill,"'2 Brighton Ave.,Boston,MA,USA'",'A; B; C',42.3520314,-71.1255678
Four Seasons Hotel Boston,"'200 Boylston St.,Boston,MA,USA'",'A; B; C',42.3520523,-71.0683194
Victoria Seafood,"'1029 Commonwealth Ave.,Boston,MA,USA'",'A; B; C',42.3521291,-71.1217221
Garlic 'N Lemons,"'133 Harvard Ave.,Boston,MA,USA'",'A; B; C',42.3521356,-71.1321379
Griddler's Burgers & Dogs,"'134 Boylston St.,Boston,MA,USA'",'A; B; C',42.3522751,-71.0661106
Gather,"'75 Northern Ave.,Boston,MA,USA'",'A; B; C',42.3522913,-71.0452839
Townsman,"'118 Kingston St.,Boston,MA,USA'",'A; B; C',42.3522982,-71.0593497
Korean Garden Restaurant,"'122 Harvard Ave.,Boston,MA,USA'",'A; B; C',42.3523726,-71.1317185
Geido Sushi,"'1 Brighton Ave.,Boston,MA,USA'",'A; B; C',42.3524485,-71.1254097
Kantin,"'1 Brighton Ave.,Boston,MA,USA'",'A; B; C',42.3524485,-71.1254097
Misono Grill,"'1 Brighton Ave.,Boston,MA,USA'",'A; B; C',42.3524485,-71.1254097
Kaze Shabu Shabu,"'41 Essex St.,Boston,MA,USA'",'A; B; C',42.3524728,-71.0614845
Garden Halls Dorms,"'125 Commonwealth Ave.,Boston,MA,USA'",'A; B; C',42.352514,-71.077606
Sleeper Street Cafe,"'51 Sleeper St.,Boston,MA,USA'",'A; B; C',42.3525249,-71.0484989
Pizzeria Regina Of So. Station,"'630 Atlantic Ave.,Boston,MA,USA'",'A; B; C',42.3525421,-71.05549
Chilipa Restaurant,"'1095 Commonwealth Ave.,Boston,MA,USA'",'A; B; C',42.3526374,-71.1254887
Pho Viets,"'1095 Commonwealth Ave.,Boston,MA,USA'",'A; B; C',42.3526374,-71.1254887
Sunset Grill,"'130 Brighton Ave.,Boston,MA,USA'",'A; B; C',42.3527462,-71.1315652
Babbo Pizzeria,"'11 Fan Pier Bl.,Boston,MA,USA'",'A; B; C',42.352915,-71.0460679
S & I To Go,"'168 Brighton Ave.,Boston,MA,USA'",'A; B; C',42.3529304,-71.1329437
Thai Place Restaurant,"'184 Brighton Ave.,Boston,MA,USA'",'A; B; C',42.3530103,-71.1337634
Bonchon Allston,"'101 Brighton Ave.,Boston,MA,USA'",'A; B; C',42.3530206,-71.1302597
La Mamma Pizza And More,"'190 Brighton Ave.,Boston,MA,USA'",'A; B; C',42.3530266,-71.1339451
Amelia's Taqueria,"'180 Brighton Ave.,Boston,MA,USA'",'A; B; C',42.3530424,-71.1336465
O Yummy Cuisine,"'182 Brighton Ave.,Boston,MA,USA'",'A; B; C',42.3530523,-71.1337016
Punjab Palace,"'109 Brighton Ave.,Boston,MA,USA'",'A; B; C',42.3530593,-71.1305102
Institute Of Contemporary Art/Water Cafe,"'70 Northern Ave.,Boston,MA,USA'",'A; B; C',42.353079,-71.043252
Ma La Restaurant,"'129 Brighton Ave.,Boston,MA,USA'",'A; B; C',42.3531153,-71.1310864
Nebo Ristorante/Enoteca,"'520 Atlantic Ave.,Boston,MA,USA'",'A; B; C',42.353206,-71.052519
Le's Restaurant,"'137 Brighton Ave.,Boston,MA,USA'",'A; B; C',42.3532439,-71.131189
Refuge Cafe,"'155 Brighton Ave.,Boston,MA,USA'",'A; B; C',42.353252,-71.131868
Tavern In The Square,"'161 Brighton Ave.,Boston,MA,USA'",'A; B; C',42.353275,-71.1326451
Totto Ramen,"'169 Brighton Ave.,Boston,MA,USA'",'A; B; C',42.3532861,-71.1329936
Oriental House,"'560 Washington St.,Boston,MA,USA'",'A; B; C',42.353378,-71.062006
Saints Diner,"'572 Washington St.,Boston,MA,USA'",'A; B; C',42.353378,-71.062006
Twin Donuts,"'501 Cambridge St.,Boston,MA,USA'",'A; B; C',42.3535275,-71.1379589
Bruegger's,"'91 Summer St.,Boston,MA,USA'",'A; B; C',42.3536654,-71.058573
The Barking Crab,"'88 Sleeper St.,Boston,MA,USA'",'A; B; C',42.3537972,-71.0486469
Sebastians Cafe,"'100 Summer St.,Boston,MA,USA'",'A; B; C',42.3538414,-71.0573659
Trio Cafe,"'0 Northern Ave.,Boston,MA,USA'",'A; B; C',42.3540034,-71.0481692
La Be Fana Pizzeria,"'15 N Beacon St.,Boston,MA,USA'",'A; B; C',42.3541199,-71.1378479
Viga,"'291 Devonshire St.,Boston,MA,USA'",'A; B; C',42.354151,-71.057967
Society On High,"'99 High St.,Boston,MA,USA'",'A; B; C',42.3541833,-71.0546962
Hoshi Japanese Restaurant,"'525 Washington St.,Boston,MA,USA'",'A; B; C',42.3542094,-71.062262
Boloco,"'133 Federal St.,Boston,MA,USA'",'A; B; C',42.3542676,-71.05661
Kaju Tofu House,"'56 Harvard Ave.,Boston,MA,USA'",'A; B; C',42.3543449,-71.1323106
Freshii,"'100 High St.,Boston,MA,USA'",'A; B; C',42.354474,-71.0554013
Siam Bistro,"'151 Pearl St.,Boston,MA,USA'",'A; B; C',42.3545586,-71.0536419
Scali Deli Cafe,"'147 Pearl St.,Boston,MA,USA'",'A; B; C',42.3545706,-71.0536984
Azama Grill,"'44 Harvard Ave.,Boston,MA,USA'",'A; B; C',42.3545725,-71.1322728
Biddy Earlys,"'141 Pearl St.,Boston,MA,USA'",'A; B; C',42.3546587,-71.0537456
China Maxim Iii,"'241 Market St.,Boston,MA,USA'",'A; B; C',42.3547091,-71.1504852
The Draft Bar & Grill,"'32 Harvard Ave.,Boston,MA,USA'",'A; B; C',42.354825,-71.1325786
Darbar Indo-Pak Rest.,"'130 N Beacon St.,Boston,MA,USA'",'A; B; C',42.354939,-71.1447639
Cafe De Boston,"'75 Federal St.,Boston,MA,USA'",'A; B; C',42.3550019,-71.0567528
Raphael Caribbean Cuisine,"'481 Washington St.,Boston,MA,USA'",'A; B; C',42.3550546,-71.0613035
Fan Fan Restaurant,"'15 Harvard Ave.,Boston,MA,USA'",'A; B; C',42.355165,-71.1326812
Fisher College,"'118 Beacon St.,Boston,MA,USA'",'A; B; C',42.35531,-71.07417
Fisher College Cafe,"'118 Beacon St.,Boston,MA,USA'",'A; B; C',42.35531,-71.07417
Cafe 26,"'26 Temple Pl.,Boston,MA,USA'",'A; B; C',42.3553891,-71.0620905
The Merchant,"'60 Franklin St.,Boston,MA,USA'",'A; B; C',42.3554384,-71.0580345
Goulston & Storrs,"'390 Atlantic Ave.,Boston,MA,USA'",'A; B; C',42.3556254,-71.0503844
Samurai Kuang Eatery,"'58 Franklin St.,Boston,MA,USA'",'A; B; C',42.3557295,-71.0584403
Bourbon St. Cafe,"'417 Washington St.,Boston,MA,USA'",'A; B; C',42.3558635,-71.0604975
Charley's Philly Steak,"'417 Washington St.,Boston,MA,USA'",'A; B; C',42.3558635,-71.0604975
Happy Lemon,"'417 Washington St.,Boston,MA,USA'",'A; B; C',42.3558635,-71.0604975
Metro Subway Inc.,"'417 Washington St.,Boston,MA,USA'",'A; B; C',42.3558635,-71.0604975
Salsas Mexican Grill,"'417 Washington St.,Boston,MA,USA'",'A; B; C',42.3558635,-71.0604975
Sushi Time,"'417 Washington St.,Boston,MA,USA'",'A; B; C',42.3558635,-71.0604975
Thai Accent,"'417 Washington St.,Boston,MA,USA'",'A; B; C',42.3558635,-71.0604975
Wongs,"'417 Washington St.,Boston,MA,USA'",'A; B; C',42.3558635,-71.0604975
Yum Yum Noodle,"'417 Washington St.,Boston,MA,USA'",'A; B; C',42.3558635,-71.0604975
Hampshire House Butcher Block,"'84 Beacon St.,Boston,MA,USA'",'A; B; C',42.3559392,-71.0712463
Squeeze Cafe & Juice Bar,"'225 Franklin St.,Boston,MA,USA'",'A; B; C',42.3560286,-71.0540513
Regina Pizza Of Allston,"'353 Cambridge St.,Boston,MA,USA'",'A; B; C',42.3561329,-71.1324581
Harvard Gardens,"'310 Cambridge St.,Boston,MA,USA'",'A; B; C',42.3563578,-71.1274812
Elephant & Castle Pub And Restaurant,"'161 Devonshire St.,Boston,MA,USA'",'A; B; C',42.3563767,-71.0575545
Langham Hotel,"'250 Franklin St.,Boston,MA,USA'",'A; B; C',42.3564331,-71.0547923
Brandy Petes,"'267 Franklin.,Boston,MA,USA'",'A; B; C',42.3565179,-71.0532202
Side Bar Food & Sprits,"'14 Bromfield St.,Boston,MA,USA'",'A; B; C',42.3566133,-71.0599998
Ud Kitchen,"'184 High St.,Boston,MA,USA'",'A; B; C',42.3566489,-71.0526247
The Upper Crust,"'20 Charles St.,Boston,MA,USA'",'A; B; C',42.3566637,-71.0699582
Beantown Pub,"'100 Tremont St.,Boston,MA,USA'",'A; B; C',42.3568438,-71.0615914
Cafe Marliave,"'10 Bosworth St.,Boston,MA,USA'",'A; B; C',42.356858,-71.0602762
Mediterranean Grill,"'281 Franklin St.,Boston,MA,USA'",'A; B; C',42.3569571,-71.0530011
Barracuda Tavern,"'53 Bromfield St.,Boston,MA,USA'",'A; B; C',42.357039,-71.0606422
Somerset Club,"'42 Beacon St.,Boston,MA,USA'",'A; B; C',42.357076,-71.0668154
Mast' Restaurant,"'45 Province St.,Boston,MA,USA'",'A; B; C',42.3572816,-71.0599532
Paramount,"'44 Charles St.,Boston,MA,USA'",'A; B; C',42.3572829,-71.0701784
Hilton Boston Financial District,"'89 Broad St.,Boston,MA,USA'",'A; B; C',42.3573324,-71.0532338
Nix's Mate,"'89 Broad St.,Boston,MA,USA'",'A; B; C',42.3573324,-71.0532338
Nine Zero Hotel,"'90 Tremont St.,Boston,MA,USA'",'A; B; C',42.3573448,-71.0607035
Chipotle Mexican Grille,"'283 Washington St.,Boston,MA,USA'",'A; B; C',42.3575319,-71.0584096
Joshua's Deli,"'42 Batterymarch St.,Boston,MA,USA'",'A; B; C',42.3575599,-71.0538225
Lanta Asian Cuisine,"'38 Batterymarch St.,Boston,MA,USA'",'A; B; C',42.3575943,-71.0539181
Mr. Dooleys Boston Tavern,"'77 Broad St.,Boston,MA,USA'",'A; B; C',42.357643,-71.0536578
Cafe Hemsin,"'10 City Hall Ave.,Boston,MA,USA'",'A; B; C',42.3577403,-71.0593263
Vintage Lounge,"'72 Broad St.,Boston,MA,USA'",'A; B; C',42.3577465,-71.0529824
Omni Parker House,"'56 School St.,Boston,MA,USA'",'A; B; C',42.3577765,-71.0599116
Vanderbilt,"'4 Liberty Sq.,Boston,MA,USA'",'A; B; C',42.3579927,-71.0545358
Emmets Irish Pub,"'6 Beacon St.,Boston,MA,USA'",'A; B; C',42.3579992,-71.0616161
Sakuraabana Inc,"'57 Broad St.,Boston,MA,USA'",'A; B; C',42.358001,-71.0542613
Bean & Leaf Cafe,"'20 Custom House St.,Boston,MA,USA'",'A; B; C',42.3581038,-71.0533603
Potbelly Sandwich Shop (275 Washington St.),"'275 Washington St.,Boston,MA,USA'",'A; B; C',42.3581466,-71.0581732
Viga Italian Eatery,"'275 Washington St.,Boston,MA,USA'",'A; B; C',42.3581466,-71.0581732
Scollay Square,"'21 Beacon St.,Boston,MA,USA'",'A; B; C',42.3581491,-71.0625318
Zen Restaurant,"'21 Beacon St.,Boston,MA,USA'",'A; B; C',42.3581491,-71.0625318
Beantown Hoagie,"'102 Water St.,Boston,MA,USA'",'A; B; C',42.3581726,-71.0549454
Coogan's Bluff,"'171 Milk St.,Boston,MA,USA'",'A; B; C',42.3582517,-71.0533884
Seven's Ale House,"'77 Charles St.,Boston,MA,USA'",'A; B; C',42.3582895,-71.0705892
Dunkin Donuts (219 Cambridge),"'219 Cambridge St.,Boston,MA,USA'",'A; B; C',42.3583446,-71.1263543
Espresso Love Cafe,"'33 Broad St.,Boston,MA,USA'",'A; B; C',42.3583857,-71.0544765
Piperi Restaurant,"'1 Beacon St.,Boston,MA,USA'",'A; B; C',42.3584444,-71.0608393
Rebecca's Cafe Inc.,"'1 Beacon St.,Boston,MA,USA'",'A; B; C',42.3584444,-71.0608393
Carrie Nation,"'11 Beacon St.,Boston,MA,USA'",'A; B; C',42.3584916,-71.0617564
Cosi,"'53 State St.,Boston,MA,USA'",'A; B; C',42.3584972,-71.0561757
Crush Pizza,"'107 State St.,Boston,MA,USA'",'A; B; C',42.358934,-71.0549472
Hyatt Conf. & Hotel (Fs),"'101 Harborside Dr.,Boston,MA,USA'",'A; B; C',42.3591952,-71.0271992
Al's State St. Cafe,"'112 State.,Boston,MA,USA'",'A; B; C',42.3593207,-71.0548687
Sultan's Kitchen,"'112 State St.,Boston,MA,USA'",'A; B; C',42.3593207,-71.0548687
Legal Seafoods,"'255 State St.,Boston,MA,USA'",'A; B; C',42.3593804,-71.051295
Bertucci's Brick Oven Pizza,"'22 Merchants Ro.,Boston,MA,USA'",'A; B; C',42.3593983,-71.0558269
Black Rose,"'160 State St.,Boston,MA,USA'",'A; B; C',42.359437,-71.0537795
Cocobeet,"'100 City Hall Pz.,Boston,MA,USA'",'A; B; C',42.3594493,-71.0588576
Aris Barbeque,"'200 Faneuil Hall Market Pl.,Boston,MA,USA'",'A; B; C',42.3597994,-71.0544602
Durgin Park Restaurant,"'300 Faneuil Hall Marketplace.,Boston,MA,USA'",'A; B; C',42.3597994,-71.0544602
Jen Lai Noodle And Rice Co.,"'1 Faneuil Hall Mkt Pl Pl.,Boston,MA,USA'",'A; B; C',42.3597994,-71.0544602
Mccormick & Schmick,"'300 Faneuil Hall Market Pl.,Boston,MA,USA'",'A; B; C',42.3597994,-71.0544602
Philadelphia Steak & Hoagie,"'200 Faneuil Hall Market Pl.,Boston,MA,USA'",'A; B; C',42.3597994,-71.0544602
Quincy's Place,"'100-199 Faneuil Hall Market Pl.,Boston,MA,USA'",'A; B; C',42.3597994,-71.0544602
Regina's (Up),"'1 Faneuil Hall Mkt Pl Pl.,Boston,MA,USA'",'A; B; C',42.3597994,-71.0544602
Wagamama Restaurant,"'200 Faneuil Hall Market Pl.,Boston,MA,USA'",'A; B; C',42.3597994,-71.0544602
Zumas Tex-Mex Grill,"'100-199 Faneuil Hall Market Pl.,Boston,MA,USA'",'A; B; C',42.3597994,-71.0544602
The Charles River Bistro,"'0 David G Mugar Wy.,Boston,MA,USA'",'A; B; C',42.3598609,-71.0720547
J P Licks @ Charles Street,"'144 Charles St.,Boston,MA,USA'",'A; B; C',42.3598814,-71.0709344
Panificio,"'144 Charles St.,Boston,MA,USA'",'A; B; C',42.3598814,-71.0709344
Clover Fast Food L M A No. 4,"'.,Boston,MA,USA'",'A; B; C',42.3600825,-71.0588801
City Hall Deli (8Th Fl.),"'1 City Hall Plaza.,Boston,MA,USA'",'A; B; C',42.360331,-71.057996
Panera Bread,"'1 Union St.,Boston,MA,USA'",'A; B; C',42.3605884,-71.0566478
Grandes Ligas Restaurant Inc.,"'14 Hancock St.,Boston,MA,USA'",'A; B; C',42.360618,-71.064267
Griddler's Burgers & Dogs,"'204 Cambridge St.,Boston,MA,USA'",'A; B; C',42.3608818,-71.0658869
Felcaro Pizzeria,"'276 Cambridge St.,Boston,MA,USA'",'A; B; C',42.360923,-71.0680196
Anna's Taqueria,"'242 Cambridge St.,Boston,MA,USA'",'A; B; C',42.3609297,-71.0671098
Bruegger's Bagel Bakery,"'370 Western Ave.,Boston,MA,USA'",'A; B; C',42.3609676,-71.1375155
The Hill Tavern,"'228 Cambridge St.,Boston,MA,USA'",'A; B; C',42.3609803,-71.0666693
Fin's Sushi & Grill,"'240 Cambridge St.,Boston,MA,USA'",'A; B; C',42.3609958,-71.0668239
Antonio's Italiano Cucina,"'286 Cambridge St.,Boston,MA,USA'",'A; B; C',42.3609998,-71.0681511
Blue Fuji,"'106 Cambridge St.,Boston,MA,USA'",'A; B; C',42.3610448,-71.0631847
Down Home Delivery & Catering,"'2 Bowdoin St.,Boston,MA,USA'",'A; B; C',42.3611467,-71.0628943
Savory Food Truck No. 3 (P-33-235),"'0 Blossom St.,Boston,MA,USA'",'A; B; C',42.3612411,-71.0669541
Union Oyster House,"'41 Union St.,Boston,MA,USA'",'A; B; C',42.3612599,-71.0568805
Finagle A Bagel,"'275 Cambridge St.,Boston,MA,USA'",'A; B; C',42.3613671,-71.0681858
Green Dragon Tavern,"'11 Marshall St.,Boston,MA,USA'",'A; B; C',42.361468,-71.056849
The Living Room,"'101 Atlantic Ave.,Boston,MA,USA'",'A; B; C',42.3617246,-71.0523308
Plaza Deli Ii,"'7 Bulfinch Pl.,Boston,MA,USA'",'A; B; C',42.3618034,-71.0612901
Mother Juice,"'100 Hanover St.,Boston,MA,USA'",'A; B; C',42.3620005,-71.0569411
Whole Foods Market(Cambridge St.),"'181 Cambridge St.,Boston,MA,USA'",'A; B; C',42.3620497,-71.0653595
The Liberty Hotel,"'215 Charles St.,Boston,MA,USA'",'A; B; C',42.3620694,-71.070207
The Cafe On New Chardon St.,"'25 New Chardon St.,Boston,MA,USA'",'A; B; C',42.3621233,-71.061748
Boston Sail Loft,"'80 Atlantic Ave.,Boston,MA,USA'",'A; B; C',42.3624726,-71.0505386
Mother Anna's,"'211 Hanover St.,Boston,MA,USA'",'A; B; C',42.3626826,-71.0552861
Jimmy John's,"'380 Western Ave.,Boston,MA,USA'",'A; B; C',42.3627213,-71.1377086
Mcdonalds,"'360 Western Ave.,Boston,MA,USA'",'A; B; C',42.3627848,-71.1369091
Cobblestones,"'227 Hanover St.,Boston,MA,USA'",'A; B; C',42.3629612,-71.0549931
Shriners' Hosp. For Children,"'51 Blossom St.,Boston,MA,USA'",'A; B; C',42.3630966,-71.0664573
Bishop's Mediterranean,"'70 Staniford St.,Boston,MA,USA'",'A; B; C',42.3631455,-71.0643402
Bus Stop Pub,"'252 Western Ave.,Boston,MA,USA'",'A; B; C',42.3631683,-71.1327969
Parla,"'230 Hanover St.,Boston,MA,USA'",'A; B; C',42.3632455,-71.0552327
Spagnoulos,"'240 Hanover St.,Boston,MA,USA'",'A; B; C',42.3633255,-71.0551035
Villa Francesca,"'150 Richmond St.,Boston,MA,USA'",'A; B; C',42.3633662,-71.0545254
Monica's Restaurant,"'143 Richmond St.,Boston,MA,USA'",'A; B; C',42.3634098,-71.054222
Rabia's Restaurant,"'73 Salem St.,Boston,MA,USA'",'A; B; C',42.3634291,-71.0557996
Limoncello,"'190 North St.,Boston,MA,USA'",'A; B; C',42.3635067,-71.0540766
The Skating Club Of Boston,"'1240 Soldiers Field Rd.,Boston,MA,USA'",'A; B; C',42.3635167,-71.136864
Urban Cantina,"'76 Salem St.,Boston,MA,USA'",'A; B; C',42.363604,-71.0560163
Johnnies On The Side,"'138 Portland St.,Boston,MA,USA'",'A; B; C',42.3636756,-71.061344
Joyful Garden @ Days Hotel,"'1234 Soldiers Field Rd.,Boston,MA,USA'",'A; B; C',42.3636954,-71.1363879
Quattro Ristorante Grill & Pizzeria,"'264 Hanover St.,Boston,MA,USA'",'A; B; C',42.3636992,-71.0548319
Il Panino Restaurant,"'7 Parmenter St.,Boston,MA,USA'",'A; B; C',42.3637647,-71.0547965
Pagliuca's Restaurant,"'14 Parmenter St.,Boston,MA,USA'",'A; B; C',42.3637686,-71.0549511
Antico Forno,"'93 Salem St.,Boston,MA,USA'",'A; B; C',42.3637779,-71.0555443
Boston Common Coffee Co.,"'97 Salem St.,Boston,MA,USA'",'A; B; C',42.3638446,-71.0554967
Billy Tse Restaurant,"'240 Commercial St.,Boston,MA,USA'",'A; B; C',42.363856,-71.0514454
O'saraceno,"'284 Hanover St.,Boston,MA,USA'",'A; B; C',42.363983,-71.054559
Bella Vista,"'288 Hanover St.,Boston,MA,USA'",'A; B; C',42.3640379,-71.0544931
Pellinos Ristorante,"'2 Prince St.,Boston,MA,USA'",'A; B; C',42.3640601,-71.0536564
Daily Catch,"'319 Hanover St.,Boston,MA,USA'",'A; B; C',42.364066,-71.053976
Artu,"'6 Prince.,Boston,MA,USA'",'A; B; C',42.3641456,-71.0537493
Bonne Chance Cafe,"'77 Canal St.,Boston,MA,USA'",'A; B; C',42.3641619,-71.059661
Caffe Vittoria,"'290 Hanover St.,Boston,MA,USA'",'A; B; C',42.3641859,-71.054484
Dip It Sweet,"'94 Endicott St.,Boston,MA,USA'",'A; B; C',42.364199,-71.057288
Landmark Pizza @ North Station,"'0 Causeway St.,Boston,MA,USA'",'A; B; C',42.3641993,-71.0633536
Al Dente Ristorante,"'109 Salem St.,Boston,MA,USA'",'A; B; C',42.3642076,-71.0553658
China House,"'331 Hanover St.,Boston,MA,USA'",'A; B; C',42.3642098,-71.0538148
Florentine Caffe,"'333 Hanover St.,Boston,MA,USA'",'A; B; C',42.3642825,-71.0536989
Boston Common Coffee Co.,"'99 Canal St.,Boston,MA,USA'",'A; B; C',42.364341,-71.0598742
Caffe Dello Sport,"'308 Hanover.,Boston,MA,USA'",'A; B; C',42.364349,-71.0542
Boston Beer Works,"'112 Canal.,Boston,MA,USA'",'A; B; C',42.364407,-71.0604379
Nonno's,"'252 Friend St.,Boston,MA,USA'",'A; B; C',42.3644949,-71.0613345
Cosi (Pier B) Air Canada,"'200 Logan Airport Trmnl B.,Boston,MA,USA'",'A; B; C',42.3645818,-71.0195813
Sbarro Restaurant,"'200 Logan Airport Trmnl B.,Boston,MA,USA'",'A; B; C',42.3645818,-71.0195813
La Galleria 33,"'123 Salem St.,Boston,MA,USA'",'A; B; C',42.364662,-71.055359
Metro Subway Inc.,"'203 Portland St.,Boston,MA,USA'",'A; B; C',42.3646763,-71.0619196
Strega,"'379 Hanover St.,Boston,MA,USA'",'A; B; C',42.364954,-71.0530257
Trattoria Di Monica,"'67 Prince.,Boston,MA,USA'",'A; B; C',42.3651597,-71.0550584
Pizzeria Regina,"'11H Thacher St.,Boston,MA,USA'",'A; B; C',42.3655706,-71.057102
Nico Restaurant,"'417 Hanover St.,Boston,MA,USA'",'A; B; C',42.3656557,-71.052669
Boston Beer Works (Pier C),"'300 Logan Airport Trmnl C.,Boston,MA,USA'",'A; B; C',42.3660751,-71.020461
Lucky's Lounge,"'100 Logan Airport Trmnl A.,Boston,MA,USA'",'A; B; C',42.3660751,-71.020461
Theo's Cozy Corner Restaurant,"'162 Salem St.,Boston,MA,USA'",'A; B; C',42.3660936,-71.0550942
Caffe Lil Italy,"'178 Salem St.,Boston,MA,USA'",'A; B; C',42.3665574,-71.0547908
Filippo's,"'283 Causeway St.,Boston,MA,USA'",'A; B; C',42.3668889,-71.0584533
Rocco's Cucina & Bar,"'450 Commercial St.,Boston,MA,USA'",'A; B; C',42.3673305,-71.0533728
Super Stop & Shop,"'60 Everett St.,Boston,MA,USA'",'A; B; C',42.368084,-71.035494
El Rinconcito,"'226 Sumner St.,Boston,MA,USA'",'A; B; C',42.3687394,-71.0390337
Taco Mex,"'65 Maverick Sq.,Boston,MA,USA'",'A; B; C',42.3696603,-71.0386469
Maverick Marketplace,"'154 Maverick St.,Boston,MA,USA'",'A; B; C',42.369914,-71.0379108
La Sultana Bakery,"'40 Maverick Sq.,Boston,MA,USA'",'A; B; C',42.3700726,-71.0391772
Cactus Grill,"'42 Maverick Sq.,Boston,MA,USA'",'A; B; C',42.370153,-71.039199
Embassy Suites Boston (Fs),"'207 Porter St.,Boston,MA,USA'",'A; B; C',42.3701536,-71.0319121
Taxi Pool Cafeteria,"'226 Porter St.,Boston,MA,USA'",'A; B; C',42.3704633,-71.0316092
Harbor Walk Cafe,"'1 Constitution Pz.,Boston,MA,USA'",'A; B; C',42.3706239,-71.0604922
Bunker Hill Community College,"'2 Rutherford Ave.,Boston,MA,USA'",'A; B; C',42.370973,-71.0620028
Sorelle City Square,"'1 Chelsea.,Boston,MA,USA'",'A; B; C',42.3711683,-71.0613888
Dough East Boston,"'20 Maverick St.,Boston,MA,USA'",'A; B; C',42.3716536,-71.0420494
La Abundancia Bakery Corporation,"'59 Meridian St.,Boston,MA,USA'",'A; B; C',42.371769,-71.0387876
Side Street Cafe,"'79 Meridian St.,Boston,MA,USA'",'A; B; C',42.3721844,-71.0387713
Santarpio's Cafe Inc.,"'111 Chelsea St.,Boston,MA,USA'",'A; B; C',42.3726652,-71.0352715
Pier 6 Restaurant,"'1 Eighth St.,Boston,MA,USA'",'A; B; C',42.37332,-71.0502201
Style Cafe,"'197 Eighth St.,Boston,MA,USA'",'A; B; C',42.3734152,-71.0519314
Sorelle,"'65 Main St.,Boston,MA,USA'",'A; B; C',42.373568,-71.0625146
Fig's,"'67 Main St.,Boston,MA,USA'",'A; B; C',42.3735899,-71.0625463
Rosticeria Cancun,"'143 Meridian St.,Boston,MA,USA'",'A; B; C',42.373679,-71.0388268
Tangierino,"'83 Main St.,Boston,MA,USA'",'A; B; C',42.373896,-71.0626871
Mcdonald's,"'178 Border St.,Boston,MA,USA'",'A; B; C',42.374449,-71.0402679
Casa Colombia Rest. Ice Cream & Bakery,"'14 William C Kelly Sq.,Boston,MA,USA'",'A; B; C',42.3746301,-71.0387562
Pollo Campero,"'188 Border St.,Boston,MA,USA'",'A; B; C',42.3748549,-71.0407684
99 Restaurant And Pub,"'29 Austin St.,Boston,MA,USA'",'A; B; C',42.3749116,-71.0670168
El Paisa Ii,"'215 Border St.,Boston,MA,USA'",'A; B; C',42.3755913,-71.0395952
El Penol Restaurant,"'54 Bennington St.,Boston,MA,USA'",'A; B; C',42.375787,-71.037132
Dem & Ted Inc. Pizza Shuttle,"'239 Meridian St.,Boston,MA,USA'",'A; B; C',42.3757958,-71.0391163
Harbor Pacific,"'235 Meridian.,Boston,MA,USA'",'A; B; C',42.3758375,-71.0389029
Papa Gino's,"'19 Austin St.,Boston,MA,USA'",'A; B; C',42.3759097,-71.065471
Pueblo Viejo Pupuseria & Mexican Grill,"'170 Marion St.,Boston,MA,USA'",'A; B; C',42.3760297,-71.0355205
Chow Thai Cafe,"'185 Main.,Boston,MA,USA'",'A; B; C',42.3760344,-71.0646328
Sweet Rice,"'187 Main St.,Boston,MA,USA'",'A; B; C',42.3760366,-71.064704
La Reina,"'80 Bennington St.,Boston,MA,USA'",'A; B; C',42.3760892,-71.0361064
East Boston House Of Pizza,"'271 Meridian St.,Boston,MA,USA'",'A; B; C',42.3762785,-71.0389397
Zume's Coffee House,"'219 Main St.,Boston,MA,USA'",'A; B; C',42.3765225,-71.0654843
Afc Sushi @ Walgreens No. 15390,"'10 School St.,Boston,MA,USA'",'A; B; C',42.376948,-71.0655669
Walgreens,"'10 School St.,Boston,MA,USA'",'A; B; C',42.376948,-71.0655669
Oliveira's Restaurant,"'297 Chelsea St.,Boston,MA,USA'",'A; B; C',42.3769982,-71.0302318
Domino's Pizza (277 Main St. Chasn.),"'277 Main St.,Boston,MA,USA'",'A; B; C',42.3775163,-71.0666607
Kipo's Pizzeria Restaurant,"'106 Bunker Hill St.,Boston,MA,USA'",'A; B; C',42.3776365,-71.0586838
Toni Ann's,"'283 Main St.,Boston,MA,USA'",'A; B; C',42.3776376,-71.0668405
Donut-N-Donuts Inc.,"'1 Sullivan St.,Boston,MA,USA'",'A; B; C',42.3777726,-71.0672792
Rino's Place,"'256 Saratoga.,Boston,MA,USA'",'A; B; C',42.3781831,-71.0321164
D'Rafas Restaurant,"'156 Bunker Hill St.,Boston,MA,USA'",'A; B; C',42.3782584,-71.0608269
Taqueria Jalisco,"'291 Bennington St.,Boston,MA,USA'",'A; B; C',42.3787141,-71.0282424
The Family Kitchen,"'198 Bunker Hill.,Boston,MA,USA'",'A; B; C',42.3787392,-71.0622236
Tu Metapan Restaurant,"'295 Bennington St.,Boston,MA,USA'",'A; B; C',42.378745,-71.0281206
El Pollo Doreno,"'309 Bennington St.,Boston,MA,USA'",'A; B; C',42.378876,-71.0278534
Mi Pueblito Restaurant,"'333 Border St.,Boston,MA,USA'",'A; B; C',42.3790406,-71.039835
Grasshopper Cafe,"'229 Bunker Hill St.,Boston,MA,USA'",'A; B; C',42.3794732,-71.0633032
Great Chef,"'390 Chelsea St.,Boston,MA,USA'",'A; B; C',42.3794977,-71.0279145
El Chalan,"'405 Chelsea St.,Boston,MA,USA'",'A; B; C',42.3797966,-71.0270318
Hilton Boston Logan Airport,"'85 Terminal.,Boston,MA,USA'",'A; B; C',42.3819896,-71.0569923
Tavern At End Of The World,"'108 Cambridge St.,Boston,MA,USA'",'A; B; C',42.3821833,-71.0793873
Prescott,"'50 Terminal St.,Boston,MA,USA'",'A; B; C',42.3823675,-71.0605165
Asian House,"'99 Cambridge St.,Boston,MA,USA'",'A; B; C',42.3825388,-71.0791988
Sammy Carlo's Delicatessen & Catering Inc.,"'567 Bennington St.,Boston,MA,USA'",'A; B; C',42.3825813,-71.0183773
Royal Roast Beef & Seafood,"'752 Bennington St.,Boston,MA,USA'",'A; B; C',42.3855817,-71.0108158
Mama Blanca Restaurant,"'1041 Saratoga St.,Boston,MA,USA'",'A; B; C',42.3858864,-71.0050386
New Saigon Restaurant,"'985 Bennington St.,Boston,MA,USA'",'A; B; C',42.3862632,-71.0073254
Donna's Restaurant,"'978 Saratoga St.,Boston,MA,USA'",'A; B; C',42.387026,-71.0074001
El Paisa Restaurante,"'1012 Bennington St.,Boston,MA,USA'",'A; B; C',42.3870999,-71.006316
Charlestown Cafe,"'78 Arlington Ave.,Boston,MA,USA'",'A; B; C',42.3871868,-71.0750047
Courtyard By Marriott,"'225 William F Mcclellan Hw.,Boston,MA,USA'",'A; B; C',42.3873694,-71.0163297
M & M Ribs,"'1 Citywide.,Boston,MA,USA'",'A; B',42.331171,-71.067365
Misono Restaurant,"'669 Vfw Pw.,Boston,MA,USA'",'A; B',42.2964023,-71.1571555
Paddy O's,"'33 Union Pr.,Boston,MA,USA'",'A; B',42.3611244,-71.0568148
Dunkin Donuts/Hyde Pk Ave,"'1800 Hyde Park Ave.,Boston,MA,USA'",'A; B',42.2378805,-71.1321118
Mcdonald's No. 4845,"'1312 Hyde Park Ave.,Boston,MA,USA'",'A; B',42.2529031,-71.1245572
Dempsey's Bar & Grille,"'1185 River St.,Boston,MA,USA'",'A; B',42.2561799,-71.121499
Cottage Tavern,"'1227 Hyde Park Ave.,Boston,MA,USA'",'A; B',42.257205,-71.124056
Back Deck,"'10 West St.,Boston,MA,USA'",'A; B',42.2576521,-71.1163652
Dunkin Donuts,"'1200 Hyde Park Ave.,Boston,MA,USA'",'A; B',42.2578332,-71.1232254
Kentucky Fried Chicken,"'5318 Washington St.,Boston,MA,USA'",'A; B',42.2578713,-71.160803
Dunkin Donuts (West Roxbury),"'5305 Washington St.,Boston,MA,USA'",'A; B',42.2586136,-71.1607022
Los Antojitos Restaurant,"'5272 Washington St.,Boston,MA,USA'",'A; B',42.2591865,-71.1592274
Target Pizza,"'5200 Washington St.,Boston,MA,USA'",'A; B',42.261129,-71.156808
Yellowbird Chicken,"'239 Grove St.,Boston,MA,USA'",'A; B',42.261558,-71.1573839
Maryann's Breakfast & Lunch,"'223 Grove St.,Boston,MA,USA'",'A; B',42.261821,-71.157524
Birch Street Bistro,"'14 Birch Rd.,Boston,MA,USA'",'A; B',42.2636287,-71.1585826
Bagelville West Roxbury,"'1630 Vfw Pw.,Boston,MA,USA'",'A; B',42.2650381,-71.1676653
Burger King No. 3483,"'1610 Vfw Pw.,Boston,MA,USA'",'A; B',42.2659123,-71.1678795
Pizza Hut,"'950 Hyde Park Ave.,Boston,MA,USA'",'A; B',42.2669683,-71.1205415
The Wright Grill @ Geo. Wright Golf Course,"'420 West St.,Boston,MA,USA'",'A; B',42.267391,-71.133501
Dunkin' Donuts,"'2290 Dorchester Ave.,Boston,MA,USA'",'A; B',42.2724389,-71.0677522
Foley Senior Residences,"'249 River St.,Boston,MA,USA'",'A; B',42.2729007,-71.081728
Lower Mills Tavern,"'2269 Dorchester Ave.,Boston,MA,USA'",'A; B',42.2729782,-71.0680677
Dunkin Donuts(Station Donuts),"'4610 Washington St.,Boston,MA,USA'",'A; B',42.2752092,-71.1395695
Dunkin' Donuts(C.A. Donuts),"'155 Spring St.,Boston,MA,USA'",'A; B',42.2764577,-71.1667873
Dunkin Donuts (Carney),"'2100 Dorchester Ave.,Boston,MA,USA'",'A; B',42.2774856,-71.0657391
Safari African Restaurant,"'1336 Blue Hill Ave.,Boston,MA,USA'",'A; B',42.2779721,-71.0931254
Pleasant Cafe,"'4511 Washington St.,Boston,MA,USA'",'A; B',42.278783,-71.136801
Anna Hand Cut Donuts,"'2056 Centre St.,Boston,MA,USA'",'A; B',42.280071,-71.158124
Deno's Subs & Pizza,"'2040 Centre St.,Boston,MA,USA'",'A; B',42.2802297,-71.158013
Corrib Pub And Restaurant,"'2030 Centre St.,Boston,MA,USA'",'A; B',42.280819,-71.1578725
Stefano's Pizza,"'863 Washington St.,Boston,MA,USA'",'A; B',42.2816054,-71.0713391
Morning Star Baptist Church,"'1257 Blue Hill Ave.,Boston,MA,USA'",'A; B',42.2822825,-71.0925053
Erie Pub,"'791 Adams St.,Boston,MA,USA'",'A; B',42.2831441,-71.0559646
Molinari's,"'789 Adams St.,Boston,MA,USA'",'A; B',42.2832473,-71.0559502
West Napoli Pizza,"'1946 Centre St.,Boston,MA,USA'",'A; B',42.2835279,-71.156761
Dunkin' Donuts (Legion Donuts),"'684 American Legion Hw.,Boston,MA,USA'",'A; B',42.2835935,-71.112507
P S Gourmet Coffee,"'758 Adams St.,Boston,MA,USA'",'A; B',42.2838039,-71.0554793
Regal,"'686 Morton St.,Boston,MA,USA'",'A; B',42.2847475,-71.0920679
Eurest Dining Services@Mass Biologic Cafe,"'460 Walk Hill St.,Boston,MA,USA'",'A; B',42.2847694,-71.1007823
Kentucky Fried Chicken,"'625 American Legion Hw.,Boston,MA,USA'",'A; B',42.2856156,-71.1109177
El Recreo Coffee & Roastene,"'1872 Centre St.,Boston,MA,USA'",'A; B',42.2857725,-71.1553976
Subway (1868 Centre St.),"'1868 Centre St.,Boston,MA,USA'",'A; B',42.285836,-71.1550357
Stash's Roslindale,"'330 Belgrade Ave.,Boston,MA,USA'",'A; B',42.285871,-71.145228
Effie's Kitchen,"'37 Poplar St.,Boston,MA,USA'",'A; B',42.2860762,-71.1288537
Rustica Pizza,"'146 Belgrade Ave.,Boston,MA,USA'",'A; B',42.2862653,-71.1367285
Seven Star Street Bistro,"'153 Belgrade Ave.,Boston,MA,USA'",'A; B',42.2864431,-71.1369946
Frosty Freeze,"'530 Amer Legion Hw.,Boston,MA,USA'",'A; B',42.2872187,-71.1065745
Wendy's Properties,"'530 Amer Legion Hw.,Boston,MA,USA'",'A; B',42.2872187,-71.1065745
Checkmate Cafe,"'900 South St.,Boston,MA,USA'",'A; B',42.2884426,-71.1348398
Friturilandia & Grill,"'962 Blue Hill Ave.,Boston,MA,USA'",'A; B',42.2908986,-71.0889468
The Proper Slice,"'547 Washington St.,Boston,MA,USA'",'A; B',42.2925772,-71.0720474
The Centre Bar,"'1664 Dorchester Ave.,Boston,MA,USA'",'A; B',42.2935139,-71.0619516
Dunkin Donuts,"'855 Wm T Morrissey Bl.,Boston,MA,USA'",'A; B',42.29366,-71.048166
Swiss House,"'820 Wm T Morrissey Bl.,Boston,MA,USA'",'A; B',42.293875,-71.0462414
Harry's All American Breakfast,"'1410 Centre St.,Boston,MA,USA'",'A; B',42.2939385,-71.1361877
Kelleher's Bar And Grille,"'1410 Centre St.,Boston,MA,USA'",'A; B',42.2939385,-71.1361877
A & N Pizza,"'1409 Centre St.,Boston,MA,USA'",'A; B',42.2941396,-71.13673
J. P. Roti Shop,"'482 Washington St.,Boston,MA,USA'",'A; B',42.2946741,-71.0716932
Puritan Restaurant,"'735 William T Morrissey Bl.,Boston,MA,USA'",'A; B',42.295404,-71.0488881
Bruegger's,"'667 Vfw Pk.,Boston,MA,USA'",'A; B',42.2964126,-71.1570581
Hebrew Rehab Center,"'1200 Centre St.,Boston,MA,USA'",'A; B',42.2967906,-71.1309782
Fireside Tavern,"'26 Hyde Park Ave.,Boston,MA,USA'",'A; B',42.2992329,-71.1137328
Boston Burger,"'1493 Dorchester Ave.,Boston,MA,USA'",'A; B',42.2996337,-71.0605523
Spring House,"'44 Allandale St.,Boston,MA,USA'",'A; B',42.2997991,-71.1309048
Dogwood Cafe,"'3712 Washington St.,Boston,MA,USA'",'A; B',42.3001659,-71.1131702
Eugene O' Neills,"'3700 Washington St.,Boston,MA,USA'",'A; B',42.3005197,-71.1127788
Grass Fed Forest Hills,"'3698 Washington St.,Boston,MA,USA'",'A; B',42.300553,-71.11269
The Atrium Cafe@Brigham & Womens Faulkner Hosp.,"'1153 Centre St.,Boston,MA,USA'",'A; B',42.3016411,-71.1287817
Dunkin' Donuts,"'235 Washington St.,Boston,MA,USA'",'A; B',42.3016569,-71.0773961
Mikes Donut Shop,"'500 Arborway.,Boston,MA,USA'",'A; B',42.302555,-71.109556
Santo Domingo Restaurant,"'179 Washington St.,Boston,MA,USA'",'A; B',42.3034393,-71.0787559
Freeport Street Cafeteria,"'179 Freeport St.,Boston,MA,USA'",'A; B',42.3043458,-71.0555201
Jeanie Johnston Pub,"'144 South St.,Boston,MA,USA'",'A; B',42.3050821,-71.1143964
Drinking Fountain,"'3520 Washington St.,Boston,MA,USA'",'A; B',42.3055343,-71.108178
Peggy O'Neil's Pub & Grille,"'1310 Dorchester Ave.,Boston,MA,USA'",'A; B',42.3058945,-71.0588191
James's Gate,"'5 Mcbride St.,Boston,MA,USA'",'A; B',42.3059505,-71.1144618
United House Of Prayer,"'206 Seaver.,Boston,MA,USA'",'A; B',42.3078803,-71.0882584
Fish-N-Thingz,"'491B Blue Hill Ave.,Boston,MA,USA'",'A; B',42.3082989,-71.0833996
Dbar,"'1236 Dorchester Ave.,Boston,MA,USA'",'A; B',42.3083887,-71.0580296
Dunkin' Donuts,"'1236 Dorchester Ave.,Boston,MA,USA'",'A; B',42.3083887,-71.0580296
Cafe 1221,"'1221 Dorchester Ave.,Boston,MA,USA'",'A; B',42.30908,-71.05851
Savin Hill Yacht Club,"'400 William T Morrissey Bl.,Boston,MA,USA'",'A; B',42.309645,-71.0436287
J P House Of Pizza,"'775 Centre St.,Boston,MA,USA'",'A; B',42.3100826,-71.1155049
La Rana Rossa,"'154 Green St.,Boston,MA,USA'",'A; B',42.3104844,-71.1065318
Edward Kennedy Museum Cafe,"'210 William T Morrissey Bl.,Boston,MA,USA'",'A; B',42.3111548,-71.0455223
Van's Restaurant & Bar,"'1154 Dorchester Ave.,Boston,MA,USA'",'A; B',42.3112111,-71.0573049
Dunkin Donuts (Bay Road),"'684 Centre St.,Boston,MA,USA'",'A; B',42.3118453,-71.1140659
Centre Street Cafe,"'669 Centre St.,Boston,MA,USA'",'A; B',42.3125036,-71.1143365
Fort Hill Jerk Chicken,"'195 Quincy St.,Boston,MA,USA'",'A; B',42.3129671,-71.0752416
Cafe Beirut,"'650 Centre St.,Boston,MA,USA'",'A; B',42.3131029,-71.1139257
Samosaman Exotic Food,"'196 Quincy St.,Boston,MA,USA'",'A; B',42.3132151,-71.0743782
Coco's,"'3171 Washington St.,Boston,MA,USA'",'A; B',42.3134754,-71.1008112
St. Mary's Ctr. For Women & Children,"'90 Cushing Ave.,Boston,MA,USA'",'A; B',42.3139038,-71.0634264
St. Mary's Women And Children's Ctr.,"'90 Cushing Ave.,Boston,MA,USA'",'A; B',42.3139038,-71.0634264
Ula Cafe,"'284 Amory St.,Boston,MA,USA'",'A; B',42.3145192,-71.10371
Boston Globe Cafeteria,"'135 William T Morrissey Bl.,Boston,MA,USA'",'A; B',42.3155726,-71.0488811
Boston Globe Kiosk No. 2,"'135 William T Morrissey Bl.,Boston,MA,USA'",'A; B',42.3155726,-71.0488811
Afc Sushi Bar @ Umass Boston,"'100 Wm T Morrissey Bl.,Boston,MA,USA'",'A; B',42.315672,-71.0479068
Quinn Bldg./Umass Boston,"'100 Wm T Morrissey Bl.,Boston,MA,USA'",'A; B',42.315672,-71.0479068
Sodexo U Mass Faculty Club,"'100 Wm T Morrissey Bl.,Boston,MA,USA'",'A; B',42.315672,-71.0479068
B C High School (Faculty Food Serv.),"'150 William T Morrissey Bl.,Boston,MA,USA'",'A; B',42.31609,-71.0466842
Dunkin' Donuts,"'1926 Columbus Ave.,Boston,MA,USA'",'A; B',42.3167607,-71.0978896
Paraiso Restaurant,"'750 Dudley St.,Boston,MA,USA'",'A; B',42.3178508,-71.0663865
Yanet Restaurant,"'734 Dudley St.,Boston,MA,USA'",'A; B',42.3179263,-71.0671403
Tom English Cafe,"'957 Dorchester Ave.,Boston,MA,USA'",'A; B',42.3181589,-71.0568862
Popeyes,"'300 Martin Luther King Jr Bl.,Boston,MA,USA'",'A; B',42.3189447,-71.0853126
The Banshee,"'934 Dorchester Ave.,Boston,MA,USA'",'A; B',42.3189721,-71.0564697
Tres Gatos Cafe,"'470 Centre St.,Boston,MA,USA'",'A; B',42.3190914,-71.1116234
Zesto's Pizza,"'460 Centre St.,Boston,MA,USA'",'A; B',42.3193571,-71.1115644
Kentucky Fried Chicken,"'695 Columbia Rd.,Boston,MA,USA'",'A; B',42.3200321,-71.0617616
Restaurant Laura,"'688 Columbia Rd.,Boston,MA,USA'",'A; B',42.3200857,-71.0626605
Marketplace Cafe & Take Away,"'240 Mount Vernon St.,Boston,MA,USA'",'A; B',42.3202692,-71.0479171
Caffe Aromi,"'403 Centre St.,Boston,MA,USA'",'A; B',42.3216066,-71.1103051
Backwoods Pizza,"'539 Dudley St.,Boston,MA,USA'",'A; B',42.3217544,-71.0725234
Dunkin' Donuts,"'847 Dorchester Ave.,Boston,MA,USA'",'A; B',42.3218314,-71.0569886
Seaside Cafe,"'0 William J Day Bl.,Boston,MA,USA'",'A; B',42.3219886,-71.0510651
Dot Tavern,"'840 Dorchester Ave.,Boston,MA,USA'",'A; B',42.3221502,-71.0565928
Il Panino Cafe And Grill,"'268 Centre St.,Boston,MA,USA'",'A; B',42.3226912,-71.1008393
Rizzo's Pizza,"'347 Centre St.,Boston,MA,USA'",'A; B',42.3227676,-71.1064205
Kalihari Grill,"'1 Circuit Sq.,Boston,MA,USA'",'A; B',42.3232362,-71.0864418
The Olive Garden Italian Restaurant No. 1674,"'1118 Massachusetts Ave.,Boston,MA,USA'",'A; B',42.3249562,-71.0653281
Target Store T-1898,"'7 Allstate Rd.,Boston,MA,USA'",'A; B',42.3258375,-71.0633599
Applebee's Neighborhood Grill,"'11A Allstate Rd.,Boston,MA,USA'",'A; B',42.3260447,-71.0636198
Super Stop & Shop,"'1100 Massachusetts Ave.,Boston,MA,USA'",'A; B',42.3265749,-71.0650725
Liberty Diner,"'1003 Massachusetts Ave.,Boston,MA,USA'",'A; B',42.3280589,-71.0682988
Suya Joint,"'185 Dudley St.,Boston,MA,USA'",'A; B',42.3283291,-71.0819783
El Mondonguito,"'219 Dudley St.,Boston,MA,USA'",'A; B',42.3283681,-71.080654
Stop & Taste,"'235 Dudley St.,Boston,MA,USA'",'A; B',42.3284574,-71.0798723
Joe's Subs,"'140 Dudley St.,Boston,MA,USA'",'A; B',42.328906,-71.0838383
Silver Slipper,"'2387 Washington St.,Boston,MA,USA'",'A; B',42.3291737,-71.0850676
Dunkin' Donuts,"'2360 Washington St.,Boston,MA,USA'",'A; B',42.3293674,-71.0844591
Sate Asian Grill - Roxbury,"'1234 Columbus Ave.,Boston,MA,USA'",'A; B',42.3294427,-71.0956497
Supreme House Of Pizza,"'313 Old Colony Ave.,Boston,MA,USA'",'A; B',42.3295392,-71.0528959
Dunkin Donuts,"'510 Southampton St.,Boston,MA,USA'",'A; B',42.3297575,-71.0574266
Andrew Square House Of Pizza,"'395 Dorchester St.,Boston,MA,USA'",'A; B',42.330057,-71.0565387
Ipizza And Grill,"'283 Old Colony Ave.,Boston,MA,USA'",'A; B',42.3303362,-71.052891
Tasty Burger,"'2296 Washington St.,Boston,MA,USA'",'A; B',42.3304325,-71.0837531
Domino's Pizza,"'1400 Tremont St.,Boston,MA,USA'",'A; B',42.3314003,-71.0947153
Joseph's Pizza & Subs,"'8 S Huntington Ave.,Boston,MA,USA'",'A; B',42.331821,-71.1117898
Telegraph Hill,"'289 Dorchester St.,Boston,MA,USA'",'A; B',42.3320345,-71.0527522
Mikes Donuts,"'1524A Tremont St.,Boston,MA,USA'",'A; B',42.332222,-71.099975
Massachusetts Eye & Ear@ Longwood,"'800 Huntington Ave.,Boston,MA,USA'",'A; B',42.3328579,-71.1075
Mama's Place,"'764A Huntington Ave.,Boston,MA,USA'",'A; B',42.3333554,-71.1059571
Alumni 1,"'2597 Beacon St.,Boston,MA,USA'",'A; B',42.3334381,-71.1675375
Silvio O. Conte Forum East Roof 2A,"'2597 Beacon St.,Boston,MA,USA'",'A; B',42.3334381,-71.1675375
Jp Licks @ Brigham Circle,"'1618 Tremont St.,Boston,MA,USA'",'A; B',42.3337013,-71.1041401
Kwik E Pizza,"'738 Huntington Ave.,Boston,MA,USA'",'A; B',42.3337036,-71.1054181
Quality Eats,"'1199 Tremont St.,Boston,MA,USA'",'A; B',42.3337513,-71.0909021
Station 10 Cafe,"'1199 Tremont St.,Boston,MA,USA'",'A; B',42.3337513,-71.0909021
T.G.I. Friday's Inc.,"'1622 Tremont St.,Boston,MA,USA'",'A; B',42.333849,-71.1039049
Domino's Pizza,"'163 Old Colony Ave.,Boston,MA,USA'",'A; B',42.3340337,-71.0550235
Soul Fire,"'737 Huntington Ave.,Boston,MA,USA'",'A; B',42.334035,-71.1054561
Yawkey Cafe,"'850 Harrison Ave.,Boston,MA,USA'",'A; B',42.3345876,-71.0739339
Yo Berry,"'124 Dorchester St.,Boston,MA,USA'",'A; B',42.3348678,-71.0464464
Grille 705,"'705 Massachusetts Ave.,Boston,MA,USA'",'A; B',42.3349805,-71.0755248
Pizza Pie-Er,"'138 Old Colony Ave.,Boston,MA,USA'",'A; B',42.3350878,-71.0550235
The Junction,"'110 Dorchester St.,Boston,MA,USA'",'A; B',42.335101,-71.0459875
Northeastern University/Parcel 18 Cafe,"'1155 Tremont St.,Boston,MA,USA'",'A; B',42.335196,-71.089061
Boston Medical Center (Shapiro Bldg.),"'830 Harrison Ave.,Boston,MA,USA'",'A; B',42.3352024,-71.0727322
Dunkin' Donuts,"'1131 Tremont St.,Boston,MA,USA'",'A; B',42.3352141,-71.0882958
Gavin Foundation Inc.,"'535 E Broadway.,Boston,MA,USA'",'A; B',42.3352408,-71.0426641
The Urban Art Bar,"'709 E Broadway.,Boston,MA,USA'",'A; B',42.3355406,-71.0369706
Dunkin' Donuts,"'482 W Broadway.,Boston,MA,USA'",'A; B',42.3356422,-71.0455098
Cafe Quattro,"'60 E Springfield St.,Boston,MA,USA'",'A; B',42.335656,-71.074444
Dunkin Donuts At Old Colony,"'75 Old Colony Ave.,Boston,MA,USA'",'A; B',42.335747,-71.0559935
Dunkin Donuts,"'1955 Beacon St.,Boston,MA,USA'",'A; B',42.3357688,-71.1499597
Moko,"'674 E Broadway.,Boston,MA,USA'",'A; B',42.3357717,-71.0375744
Cafe Porto Bello,"'672 East Broadway.,Boston,MA,USA'",'A; B',42.3357739,-71.0376067
Subway,"'805 Harrison Ave.,Boston,MA,USA'",'A; B',42.3359523,-71.0742394
Cityside,"'1958 Beacon St.,Boston,MA,USA'",'A; B',42.3360822,-71.1503162
Brigham & Women Hospital Or Lounge,"'75 Francis St.,Boston,MA,USA'",'A; B',42.3360887,-71.1067067
Brigham & Womens Coffee Kiosk,"'75 Francis St.,Boston,MA,USA'",'A; B',42.3360887,-71.1067067
Pike Mezzanine Construction Cafe,"'75 Francis St.,Boston,MA,USA'",'A; B',42.3360887,-71.1067067
Lincoln Tavern,"'425 W Broadway.,Boston,MA,USA'",'A; B',42.3363271,-71.0476249
Jade Monkey,"'1952 Beacon St.,Boston,MA,USA'",'A; B',42.3363451,-71.1502821
Chequers Express,"'100 E Newton St.,Boston,MA,USA'",'A; B',42.3363993,-71.0701495
Chequers Coffee Express,"'72 E Concord St.,Boston,MA,USA'",'A; B',42.3364013,-71.072408
Teranga,"'1746 Washington St.,Boston,MA,USA'",'A; B',42.3364427,-71.0765851
Kung Fu Tea,"'1916B Beacon St.,Boston,MA,USA'",'A; B',42.3365586,-71.1490459
Bangkok Pinto,"'1041 Tremont St.,Boston,MA,USA'",'A; B',42.3365999,-71.0857766
Northeastern Univ. Ryder Hall,"'11 Leon.,Boston,MA,USA'",'A; B',42.3366027,-71.090675
Ali Roti Restaurant,"'1035 Tremont St.,Boston,MA,USA'",'A; B',42.336649,-71.085666
Mass. College Of Pharmacy,"'179 Longwood Ave.,Boston,MA,USA'",'A; B',42.336788,-71.101209
Atrium Cafe/Harvard Med.School,"'260 Longwood Ave.,Boston,MA,USA'",'A; B',42.3369359,-71.1041431
Dunkin Donuts,"'616 Massachusetts Ave.,Boston,MA,USA'",'A; B',42.3369919,-71.0772416
Noble Roman's Pizza & Tuscano's Subs,"'249 Ruggles St.,Boston,MA,USA'",'A; B',42.337226,-71.08813
Thirst,"'645 E Second St.,Boston,MA,USA'",'A; B',42.3372826,-71.0374675
Childrens Hospital Main Caf,"'300 Longwood Ave.,Boston,MA,USA'",'A; B',42.3373982,-71.104968
Dana Farber Cancer Institute Cafeteria,"'450 Brookline Ave.,Boston,MA,USA'",'A; B',42.3374895,-71.1081414
Northeastern Univ-716 Columbus,"'716 Columbus Ave.,Boston,MA,USA'",'A; B',42.3376006,-71.0851677
Boloco,"'283 Longwood Ave.,Boston,MA,USA'",'A; B',42.3379044,-71.1045525
Starbucks Coffee No. 7804,"'283 Longwood Ave.,Boston,MA,USA'",'A; B',42.3379044,-71.1045525
The Daily Squeeze,"'357 W Broadway.,Boston,MA,USA'",'A; B',42.3379076,-71.0497259
N.E. Deaconess Hospital Cafe,"'1 Deaconess Rd.,Boston,MA,USA'",'A; B',42.3379108,-71.1091456
Future Chefs,"'545 Albany St.,Boston,MA,USA'",'A; B',42.33805,-71.0671039
Chicken Lou's,"'50 Forsyth St.,Boston,MA,USA'",'A; B',42.3382292,-71.0899015
Dunkin Donuts/Galleria,"'340 Longwood Ave.,Boston,MA,USA'",'A; B',42.3382421,-71.1063943
Mcdonald's,"'340 Longwood Ave.,Boston,MA,USA'",'A; B',42.3382421,-71.1063943
Clock Tavern,"'342 W Broadway.,Boston,MA,USA'",'A; B',42.3383446,-71.0496797
Shenanagans Bar,"'332 W Broadway.,Boston,MA,USA'",'A; B',42.3383941,-71.0498008
Simmons College-Meyers Cafe,"'Ave Louis Pasteur.,Boston,MA,USA'",'A; B',42.3384264,-71.1022834
Elements Cafe & Conference,"'77 Ave Louis Pasteur.,Boston,MA,USA'",'A; B',42.338445,-71.103142
Flour Bakery & Cafe,"'1595 Washington St.,Boston,MA,USA'",'A; B',42.3385012,-71.0746609
Charley's Philly Steaks,"'350 Longwood Ave.,Boston,MA,USA'",'A; B',42.3386237,-71.1072353
Sakura Japan,"'350 Longwood Ave.,Boston,MA,USA'",'A; B',42.3386237,-71.1072353
Au Bon Pain (Joslin Pl.),"'1 Joslin Pl.,Boston,MA,USA'",'A; B',42.3386398,-71.1082998
Caffe Nero,"'354 Longwood Ave.,Boston,MA,USA'",'A; B',42.3389228,-71.1072958
Java City @ Simmons College,"'300 Fenway.,Boston,MA,USA'",'A; B',42.3390832,-71.1000654
Lower Dining Corcoran Dining Facility,"'60 St Thomas More Rd.,Boston,MA,USA'",'A; B',42.339166,-71.166002
Croke Park,"'268 W Broadway.,Boston,MA,USA'",'A; B',42.3391767,-71.0514094
Northeastern Univ Ell Ctn,"'360 Huntington Ave.,Boston,MA,USA'",'A; B',42.339348,-71.0881734
Museum Of Fine Arts Bravo Restaurant,"'465 Huntington Ave.,Boston,MA,USA'",'A; B',42.3394567,-71.0941429
Museum Of Fine Arts-Taste D/B/A No. 19285,"'465 Huntington Ave.,Boston,MA,USA'",'A; B',42.3394567,-71.0941429
Dunkin Donuts @ Hayden Hall,"'330 Huntington Ave.,Boston,MA,USA'",'A; B',42.3398867,-71.0871843
Shea's Tavern,"'222 W Broadway.,Boston,MA,USA'",'A; B',42.3398952,-71.0525257
Chartwells @ Snell Library,"'376 Huntington Ave.,Boston,MA,USA'",'A; B',42.3399186,-71.0897388
A K's Take Out,"'305 D St.,Boston,MA,USA'",'A; B',42.3399364,-71.0492161
Boloco,"'359 Huntington Ave.,Boston,MA,USA'",'A; B',42.3401489,-71.0902509
New York Sub Shop,"'433 Massachusetts Ave.,Boston,MA,USA'",'A; B',42.3405047,-71.0821254
Simmons College-Bartol,"'84 Pilgrim Rd.,Boston,MA,USA'",'A; B',42.340982,-71.1067597
Mashawi Grill,"'157 Sutherland Rd.,Boston,MA,USA'",'A; B',42.3410625,-71.1468213
Boston Shawarma,"'315 Huntington Ave.,Boston,MA,USA'",'A; B',42.3411296,-71.0877804
N.U. Stetson Hall East,"'11 Speare Pl.,Boston,MA,USA'",'A; B',42.3411856,-71.0898525
N.U. Stetson Hall West,"'11 Speare Pl.,Boston,MA,USA'",'A; B',42.3411856,-71.0898525
Amelia's Taqueria,"'309 Huntington Ave.,Boston,MA,USA'",'A; B',42.3412152,-71.0875429
New England Conservatory,"'33 Gainsborough St.,Boston,MA,USA'",'A; B',42.3412598,-71.0859443
Harry O's,"'1405 Washington St.,Boston,MA,USA'",'A; B',42.3413139,-71.070355
Pavement Coffeehouse,"'44 Gainsborough St.,Boston,MA,USA'",'A; B',42.3416076,-71.0870745
Moonshine 152,"'152 Dorchester Ave.,Boston,MA,USA'",'A; B',42.3417236,-71.0567736
Mobidick,"'269 Huntington Ave.,Boston,MA,USA'",'A; B',42.3420972,-71.0861123
Susan Bailis Assisted Living,"'352 Massachusetts Ave.,Boston,MA,USA'",'A; B',42.3421016,-71.0835227
Caffe Bene,"'333 Massachusetts Ave.,Boston,MA,USA'",'A; B',42.3422041,-71.0847558
Five Guys Burgers & Fries,"'261 Huntington Ave.,Boston,MA,USA'",'A; B',42.3422265,-71.0857483
Cafe @Mohr & Mcpherson,"'458 Harrison Ave.,Boston,MA,USA'",'A; B',42.3422276,-71.0642421
Tremont 647,"'647 Tremont St.,Boston,MA,USA'",'A; B',42.3422409,-71.0754317
Starbucks Coffee Company,"'11 W Broadway.,Boston,MA,USA'",'A; B',42.3423347,-71.056551
Stephis In Southie,"'11 W Broadway.,Boston,MA,USA'",'A; B',42.3423347,-71.056551
Coppersmith Hall,"'30 W Third St.,Boston,MA,USA'",'A; B',42.3424074,-71.0542987
K O Catering And Pies,"'87 A St.,Boston,MA,USA'",'A; B',42.3424374,-71.0545769
Tapestry,"'69 Kilmarnock St.,Boston,MA,USA'",'A; B',42.3424681,-71.0994874
Dunkin Donuts (48 W Broadway),"'48 W Broadway.,Boston,MA,USA'",'A; B',42.3425742,-71.0561205
Lucy Ethopian Cafe,"'334 Massachusetts Ave.,Boston,MA,USA'",'A; B',42.3425943,-71.0841727
Starbucks Coffee Inc.,"'627 Tremont St.,Boston,MA,USA'",'A; B',42.3426494,-71.0746778
Dunkin Donuts (V.F.W. Pkwy.),"'1435 V F W Pk.,Boston,MA,USA'",'A; B',42.3429041,-71.1022158
Sodexo Wheelock College Longfellow Cafe 1St Fl.,"'150 Riverway.,Boston,MA,USA'",'A; B',42.3429727,-71.1051802
Dunkin' Donuts,"'1420 Boylston.,Boston,MA,USA'",'A; B',42.3430898,-71.1019436
Fiouna's,"'90 Peterborough St.,Boston,MA,USA'",'A; B',42.3431041,-71.099021
El Pelon Taqueria,"'84 Peterborough St.,Boston,MA,USA'",'A; B',42.3431397,-71.0988372
Gyro City,"'84 Peterborough St.,Boston,MA,USA'",'A; B',42.3431397,-71.0988372
Milano Pizzeria & Pasta,"'60 Washington St.,Boston,MA,USA'",'A; B',42.3432611,-71.1423615
Tasca Restaurant,"'1612 Commonwealth Ave.,Boston,MA,USA'",'A; B',42.3433526,-71.1426453
The Restaurant @ Boston Athletic Club,"'653 Summer St.,Boston,MA,USA'",'A; B',42.3433788,-71.037642
Dunkin Donuts/1138 Washington St.,"'1138 Washington St.,Boston,MA,USA'",'A; B',42.3437321,-71.0658319
Providence House Senior Comm.,"'180 Corey Rd.,Boston,MA,USA'",'A; B',42.3437684,-71.1393443
Project Place Gatehouse,"'1143 Washington St.,Boston,MA,USA'",'A; B',42.343808,-71.0663243
Dunkin Donuts,"'405 D St.,Boston,MA,USA'",'A; B',42.3438535,-71.0449421
Charlie's,"'429 Columbus Ave.,Boston,MA,USA'",'A; B',42.3441143,-71.0777405
Brighton Cafe,"'1597 Commonwealth Ave.,Boston,MA,USA'",'A; B',42.3442008,-71.1432874
Mei Mei By Design,"'21 Dry Dock Ave.,Boston,MA,USA'",'A; B',42.3442246,-71.0310844
Au Bon Pain No. 518,"'1 Design Center Pl.,Boston,MA,USA'",'A; B',42.3442688,-71.0305676
Dry Dock Cafe,"'7 Dry Dock Ave.,Boston,MA,USA'",'A; B',42.3442767,-71.0360397
Boston Market,"'245 Massachusetts Ave.,Boston,MA,USA'",'A; B',42.344442,-71.086859
Channel Center Cafe,"'1 Iron St.,Boston,MA,USA'",'A; B',42.344538,-71.0522314
Fomu Ice Cream,"'201 Brookline Ave.,Boston,MA,USA'",'A; B',42.3445717,-71.1016796
Panera Bread,"'201 Brookline Ave.,Boston,MA,USA'",'A; B',42.3445717,-71.1016796
Panera Bread Bakery/Cafe,"'201 Brookline Ave.,Boston,MA,USA'",'A; B',42.3445717,-71.1016796
Starbucks,"'1341 Boylston St.,Boston,MA,USA'",'A; B',42.3446572,-71.0995726
Boston Eagle,"'520 Tremont St.,Boston,MA,USA'",'A; B',42.3447084,-71.0700763
Emack & Bolio,"'144 Brookline Ave.,Boston,MA,USA'",'A; B',42.3447204,-71.100834
Mixx Frozen Yogurt,"'1258 Boylston St.,Boston,MA,USA'",'A; B',42.3447239,-71.0959598
Sweet Caroline's,"'1260 Boylston St.,Boston,MA,USA'",'A; B',42.3447579,-71.0959193
Saturday Afternoon,"'1256 Boylston St.,Boston,MA,USA'",'A; B',42.345001,-71.095963
The Inn @ St. Botolph,"'99 Saint Botolph St.,Boston,MA,USA'",'A; B',42.345032,-71.080845
Hennessy's Of Boston,"'25 Union St.,Boston,MA,USA'",'A; B',42.3451006,-71.1483865
Yard House,"'122 Brookline Ave.,Boston,MA,USA'",'A; B',42.345245,-71.0999889
Nourish Your Soul,"'15 Channel Center St.,Boston,MA,USA'",'A; B',42.3456546,-71.0511046
Co3/Bo3/Yo3,"'4 Yawkey.,Boston,MA,USA'",'A; B',42.3458436,-71.0987819
Emc Inseat,"'4 Yawkey.,Boston,MA,USA'",'A; B',42.3458436,-71.0987819
Geb - 2,"'4 Yawkey Wa.,Boston,MA,USA'",'A; B',42.3458436,-71.0987819
Jordan's Bar,"'4 Yawkey Wy.,Boston,MA,USA'",'A; B',42.3458436,-71.0987819
Lc2/Ly1,"'4 Yawkey Wy.,Boston,MA,USA'",'A; B',42.3458436,-71.0987819
Ly4/Lb4,"'4 Yawkey Wy.,Boston,MA,USA'",'A; B',42.3458436,-71.0987819
Media,"'4 Yawkey Wy.,Boston,MA,USA'",'A; B',42.3458436,-71.0987819
Rf Roof,"'4 Yawkey Wy.,Boston,MA,USA'",'A; B',42.3458436,-71.0987819
Right Field Inseat,"'4 Yawkey Wy.,Boston,MA,USA'",'A; B',42.3458436,-71.0987819
Wheels Up Club,"'4 Yawkey Wy.,Boston,MA,USA'",'A; B',42.3458436,-71.0987819
Cafe 24,"'24 Fenway.,Boston,MA,USA'",'A; B',42.345889,-71.0900722
Bar Louie,"'121 Brookline Ave.,Boston,MA,USA'",'A; B',42.3459035,-71.1006082
The Cheesecake Factory,"'115 Huntington Ave.,Boston,MA,USA'",'A; B',42.3459428,-71.0816638
Copperfields,"'96 Brookline Ave.,Boston,MA,USA'",'A; B',42.346112,-71.099276
Blackbird Doughnuts,"'460 Tremont St.,Boston,MA,USA'",'A; B',42.346195,-71.0693244
Sheraton Boston (Starbucks),"'39 Dalton St.,Boston,MA,USA'",'A; B',42.3463836,-71.0840229
The Delux Cafe,"'100 Chandler St.,Boston,MA,USA'",'A; B',42.3463908,-71.073125
Dunkin Donuts,"'153 Massachusetts Ave.,Boston,MA,USA'",'A; B',42.3464447,-71.087661
Wendy's,"'153 Massachusetts Ave.,Boston,MA,USA'",'A; B',42.3464447,-71.087661
Barlows Restaurant,"'241 A St.,Boston,MA,USA'",'A; B',42.3465492,-71.0511082
Lucca Back Bay,"'116 Huntington Ave.,Boston,MA,USA'",'A; B',42.3465572,-71.079765
Kindred Hospital Boston,"'1515 Commonwealth Ave.,Boston,MA,USA'",'A; B',42.3465945,-71.1418557
Licks Cafe,"'1140 Boylston St.,Boston,MA,USA'",'A; B',42.3466121,-71.0894325
Starbucks Coffee No. 7234,"'147 Massachusetts Ave.,Boston,MA,USA'",'A; B',42.346635,-71.087789
Salty Pig,"'130 Dartmouth St.,Boston,MA,USA'",'A; B',42.3466598,-71.0760021
Little Steve's Pizza,"'1114 Boylston St.,Boston,MA,USA'",'A; B',42.3467399,-71.0885406
J P Licks@Boylston St.,"'1106 Boylston St.,Boston,MA,USA'",'A; B',42.346773,-71.0885802
Boston Burger,"'1100 Boylston St.,Boston,MA,USA'",'A; B',42.346801,-71.0884698
Blue Cross Blue Sheild Of Ma. Cafe,"'101 Huntington Ave.,Boston,MA,USA'",'A; B',42.3468751,-71.0811237
Paul,"'201 Washington St.,Boston,MA,USA'",'A; B',42.346901,-71.14758
Boloco - Berklee,"'1080 Boylston St.,Boston,MA,USA'",'A; B',42.3469792,-71.0881125
Marriott Hotel-Copley Place,"'110 Huntington Ave.,Boston,MA,USA'",'A; B',42.3470204,-71.0792887
Ellis Memorial Adult Day Health,"'95 Berkeley St.,Boston,MA,USA'",'A; B',42.347285,-71.0705
Legal Seafood,"'100 Huntington Ave.,Boston,MA,USA'",'A; B',42.347334,-71.0788745
Capital Grille,"'880 Boylston St.,Boston,MA,USA'",'A; B',42.34739,-71.084357
Dunkin Donuts @ Mbta Station,"'145 Dartmouth St.,Boston,MA,USA'",'A; B',42.3474193,-71.0753102
Dunkin' Donuts Express,"'145 Darthmouth.,Boston,MA,USA'",'A; B',42.3474193,-71.0753102
Juice Boston @ Mbta,"'145 Dartmouth St.,Boston,MA,USA'",'A; B',42.3474193,-71.0753102
Crispy Crepes Cafe,"'512 Park Dr.,Boston,MA,USA'",'A; B',42.3476539,-71.1059326
Jimmy John's,"'512 Park Dr.,Boston,MA,USA'",'A; B',42.3476539,-71.1059326
Dunkin Donuts,"'53 Huntington Ave.,Boston,MA,USA'",'A; B',42.3478393,-71.0794375
Brick House Pizza & Grille,"'256 Washington St.,Boston,MA,USA'",'A; B',42.3478894,-71.1497264
Starbucks Coffee Co. No. 872,"'350 Newbury St.,Boston,MA,USA'",'A; B',42.3481139,-71.0871581
Porto,"'780 Boylston St.,Boston,MA,USA'",'A; B',42.348156,-71.080817
Cafe 939,"'939 Boylston St.,Boston,MA,USA'",'A; B',42.3482685,-71.0850061
Harry's Bar & Grill,"'1430 Commonwealth Ave.,Boston,MA,USA'",'A; B',42.3483424,-71.1399057
Bertucci's,"'683 V F W Pk.,Boston,MA,USA'",'A; B',42.3483642,-71.10599
Flour Bakery & Cafe,"'131 Clarendon St.,Boston,MA,USA'",'A; B',42.3483676,-71.0737735
Dunkin' Donuts,"'430 Stuart St.,Boston,MA,USA'",'A; B',42.3483971,-71.0750227
Popeyes,"'645 Beacon St.,Boston,MA,USA'",'A; B',42.3484278,-71.0977677
Qdoba Mexican Eats,"'540 Commonwealth Ave.,Boston,MA,USA'",'A; B',42.3484351,-71.0968478
The Westin Copley-Bar 10,"'10 Huntington Ave.,Boston,MA,USA'",'A; B',42.3484581,-71.0774606
Westin Hotel,"'10 Huntington Ave.,Boston,MA,USA'",'A; B',42.3484581,-71.0774606
Santouka,"'66 Hereford St.,Boston,MA,USA'",'A; B',42.3484779,-71.0853432
University Club Of Boston,"'426 Stuart St.,Boston,MA,USA'",'A; B',42.348479,-71.0747559
Club Cafe,"'209 Columbus Ave.,Boston,MA,USA'",'A; B',42.3484831,-71.0724411
Lir,"'903 Boylston St.,Boston,MA,USA'",'A; B',42.3484965,-71.0842443
Barnes & Noble Booksellers (R),"'800 Boylston St.,Boston,MA,USA'",'A; B',42.348521,-71.0822975
Boston Chowda Co.,"'800 Boylston St.,Boston,MA,USA'",'A; B',42.348521,-71.0822975
California Pizza Kitchen,"'800 Boylston St.,Boston,MA,USA'",'A; B',42.348521,-71.0822975
Cheeseboy: Grilled Cheese To Go (Kiosk),"'800 Boylston St.,Boston,MA,USA'",'A; B',42.348521,-71.0822975
Crazy Dough Pizza,"'800 Boylston St.,Boston,MA,USA'",'A; B',42.348521,-71.0822975
Panda Express No. 208,"'800 Boylston St.,Boston,MA,USA'",'A; B',42.348521,-71.0822975
Pinkberry,"'800 Boylston St.,Boston,MA,USA'",'A; B',42.348521,-71.0822975
Qdoba Mexican Grill No. 2179,"'800 Boylston St.,Boston,MA,USA'",'A; B',42.348521,-71.0822975
Ropes & Gray L L P,"'800 Boylston St.,Boston,MA,USA'",'A; B',42.348521,-71.0822975
Josephine,"'468 Commonwealth Ave.,Boston,MA,USA'",'A; B',42.3485452,-71.0934812
Dunkin Donuts (Kenmore Sq. Donuts),"'530 Commonwealth Ave.,Boston,MA,USA'",'A; B',42.3485511,-71.0961356
Courtyard Marriott Copley,"'88 Exeter St.,Boston,MA,USA'",'A; B',42.3485573,-71.0788088
Smoothie King,"'314 Newbury St.,Boston,MA,USA'",'A; B',42.3486145,-71.0853333
The Hawthorne,"'500 Commonwealth Ave.,Boston,MA,USA'",'A; B',42.3486282,-71.0952228
Freshii Back Bay,"'441 Stuart St.,Boston,MA,USA'",'A; B',42.3486448,-71.076066
Nourish Your Soul,"'441 Stuart St.,Boston,MA,USA'",'A; B',42.3486448,-71.076066
Sorellina Restaurant,"'1 Huntington Ave.,Boston,MA,USA'",'A; B',42.3486664,-71.0782238
Domino's Pizza,"'464 Washington St.,Boston,MA,USA'",'A; B',42.3487613,-71.159035
Sonsie,"'327 Newbury St.,Boston,MA,USA'",'A; B',42.3488013,-71.086229
Green Briar,"'304 Washington St.,Boston,MA,USA'",'A; B',42.3488196,-71.1512769
Pinkberry,"'288 Newbury St.,Boston,MA,USA'",'A; B',42.3488454,-71.0844961
Porter Belly's,"'338 Washington St.,Boston,MA,USA'",'A; B',42.3488958,-71.1525073
Cosi No. 687,"'2 Seaport La.,Boston,MA,USA'",'A; B',42.3489287,-71.0408431
Morton's Of Chicago,"'2 Seaport La.,Boston,MA,USA'",'A; B',42.3489287,-71.0408431
Courtyard Cafe,"'77 Warren St.,Boston,MA,USA'",'A; B',42.3489571,-71.1426625
Abbott's Frozen Custard,"'362 Washington St.,Boston,MA,USA'",'A; B',42.3489795,-71.1535835
Los Amigos,"'366 Washington St.,Boston,MA,USA'",'A; B',42.3489906,-71.1538177
Barrington Coffee Roasting Co.,"'305 Newbury St.,Boston,MA,USA'",'A; B',42.3489937,-71.0855495
Liberty Mutual Berkeley (1St Fl.),"'157 Berkeley St.,Boston,MA,USA'",'A; B',42.34911,-71.0718557
Kentucky Fried Chicken,"'465 Washington St.,Boston,MA,USA'",'A; B',42.3491517,-71.1588502
Precinct Kitchen & Bar,"'350 Stuart St.,Boston,MA,USA'",'A; B',42.3491535,-71.0723748
Trattoria Newbury,"'264 Newbury St.,Boston,MA,USA'",'A; B',42.3492059,-71.083126
Su Su Gourmet,"'70 Tyler St.,Boston,MA,USA'",'A; B',42.3492137,-71.0612624
Seaport Hotel,"'1 Seaport Ln.,Boston,MA,USA'",'A; B',42.3492209,-71.0414338
Mdm Noodle,"'351 Washington St.,Boston,MA,USA'",'A; B',42.3492215,-71.1527995
Cafe At Barnes And Noble,"'660 Beacon St.,Boston,MA,USA'",'A; B',42.3492582,-71.0962487
Bangkok Bistro,"'433 Washington St.,Boston,MA,USA'",'A; B',42.3493447,-71.1567986
Wired Puppy,"'250 Newbury St.,Boston,MA,USA'",'A; B',42.3493482,-71.0826097
Atlantic Fish Company,"'761 Boylston St.,Boston,MA,USA'",'A; B',42.3493673,-71.0812029
Asaki,"'418 Market St.,Boston,MA,USA'",'A; B',42.3493804,-71.1531418
Baja Taco Truck,"'1 Citywide St.,Boston,MA,USA'",'A; B',42.3493824,-71.0777334
Bon Me,"'1 Citywide St.,Boston,MA,USA'",'A; B',42.3493824,-71.0777334
Bon Me 4,"'1 Citywide St.,Boston,MA,USA'",'A; B',42.3493824,-71.0777334
Boston Projuice Llc,"'1 Citywide St.,Boston,MA,USA'",'A; B',42.3493824,-71.0777334
Food Lakay,"'1 Citywide St.,Boston,MA,USA'",'A; B',42.3493824,-71.0777334
Mei Mei Street Kitchen,"'1 Citywide St.,Boston,MA,USA'",'A; B',42.3493824,-71.0777334
Morockin Infusion,"'1 Citywide St.,Boston,MA,USA'",'A; B',42.3493824,-71.0777334
North East Of The Border,"'1 Citywide St.,Boston,MA,USA'",'A; B',42.3493824,-71.0777334
Pennypackers 2,"'1 Citywide St.,Boston,MA,USA'",'A; B',42.3493824,-71.0777334
Redbones Barbecue Food Truck,"'1 Citywide St.,Boston,MA,USA'",'A; B',42.3493824,-71.0777334
Savory Food Truckno. 2,"'1 Citywide St.,Boston,MA,USA'",'A; B',42.3493824,-71.0777334
Slide By Food Truck,"'1 Citywide St.,Boston,MA,USA'",'A; B',42.3493824,-71.0777334
Tasty Burger Three,"'1 Citywide St.,Boston,MA,USA'",'A; B',42.3493824,-71.0777334
Zinneken's,"'1 Citywide St.,Boston,MA,USA'",'A; B',42.3493824,-71.0777334
Starbucks Coffee No. 7544,"'755 Boylston St.,Boston,MA,USA'",'A; B',42.3493917,-71.0810374
Cornwall's Restaurant,"'654 Beacon St.,Boston,MA,USA'",'A; B',42.3494107,-71.095846
The Catered Affair @ Boston Public Library,"'700 Boylston St.,Boston,MA,USA'",'A; B',42.3494163,-71.0788285
Dash Cafe,"'1 Henshaw St.,Boston,MA,USA'",'A; B',42.3494255,-71.1495674
Amsterdam Falafel,"'642 Beacon St.,Boston,MA,USA'",'A; B',42.349488,-71.095561
Umai,"'412A Market St.,Boston,MA,USA'",'A; B',42.3495147,-71.1531174
Max Brenner,"'745 Boylston St.,Boston,MA,USA'",'A; B',42.3495194,-71.0805865
Insomnia Cookies,"'708 Commonwealth Ave.,Boston,MA,USA'",'A; B',42.3495377,-71.1054077
Dug Out Cafe Inc,"'722 Commonwealth Ave.,Boston,MA,USA'",'A; B',42.3495454,-71.1061267
Row 34,"'381 Congress St.,Boston,MA,USA'",'A; B',42.349549,-71.047644
University Grill & Pizza,"'712 Commonwealth Ave.,Boston,MA,USA'",'A; B',42.3495587,-71.1055772
Deuxave,"'371 Commonwealth Ave.,Boston,MA,USA'",'A; B',42.349561,-71.0891
Rosa Mexicano,"'155 Seaport Bl.,Boston,MA,USA'",'A; B',42.3496068,-71.042722
B.U. School Of Management,"'595 Commonwealth Ave.,Boston,MA,USA'",'A; B',42.349626,-71.0995466
Bfresh,"'214 Harvard Ave.,Boston,MA,USA'",'A; B',42.3496803,-71.1299891
Guckenheimer @ Berkeley Cafe,"'200 Berkeley St.,Boston,MA,USA'",'A; B',42.3496809,-71.0729229
Dunkin Donuts,"'750 Washington St.,Boston,MA,USA'",'A; B',42.3497633,-71.0634235
Fresh Life Cafe @ Tuft's Medical Ctr.,"'750 Washington St.,Boston,MA,USA'",'A; B',42.3497633,-71.0634235
B U-100 Baystate Dining Cafe/Multi Purpose,"'100 Bay State Rd.,Boston,MA,USA'",'A; B',42.3497666,-71.0979066
Papagayo,"'281 Summer St.,Boston,MA,USA'",'A; B',42.3497666,-71.0500192
Boloco (247 Newbury St.),"'247 Newbury St.,Boston,MA,USA'",'A; B',42.3497799,-71.0827211
Wens Rice Noodle & Ramen,"'247 Newbury St.,Boston,MA,USA'",'A; B',42.3497799,-71.0827211
Shanghai Social Club,"'1277 Commonwealth Ave.,Boston,MA,USA'",'A; B',42.3498159,-71.133425
South St. Diner,"'178 Kneeland St.,Boston,MA,USA'",'A; B',42.3498315,-71.0577633
Au Bon Pain,"'800 Washington St.,Boston,MA,USA'",'A; B',42.3498323,-71.0632709
West End House/Boys-Girls Club,"'105 Allston St.,Boston,MA,USA'",'A; B',42.3498852,-71.1371068
Dunkin Donuts,"'179 Brighton Ave.,Boston,MA,USA'",'A; B',42.3499053,-71.1303007
Courtyard Cafe,"'275 Tremont St.,Boston,MA,USA'",'A; B',42.3499198,-71.0655674
Guilt Nightclub/Underbar,"'275 Tremont St.,Boston,MA,USA'",'A; B',42.3499198,-71.0655674
Campus Trolley,"'665 Commonwealth Ave.,Boston,MA,USA'",'A; B',42.3499555,-71.1028565
The Charles Playhouse,"'74 Warrenton St.,Boston,MA,USA'",'A; B',42.3499795,-71.0661826
Royale,"'279 Tremont St.,Boston,MA,USA'",'A; B',42.3499958,-71.0656288
Wingz Xpress,"'563 Washington St.,Boston,MA,USA'",'A; B',42.3500424,-71.1644033
Liberty Mutual Grab & Go,"'175 Berkeley St.,Boston,MA,USA'",'A; B',42.3500587,-71.0718044
Milner Hotel,"'71 Charles St South.,Boston,MA,USA'",'A; B',42.350122,-71.0666612
Kneeland Cafe,"'75 Kneeland St.,Boston,MA,USA'",'A; B',42.3502805,-71.0607747
Emerald Lounge,"'196 Stuart St.,Boston,MA,USA'",'A; B',42.3503922,-71.0674745
Abby Lane,"'253 Tremont St.,Boston,MA,USA'",'A; B',42.3505065,-71.0653879
Dunkin' Donuts,"'268 Summer St.,Boston,MA,USA'",'A; B',42.3505691,-71.050191
Drink,"'348 Congress St.,Boston,MA,USA'",'A; B',42.3506068,-71.0485054
Sportello,"'348 Congress St.,Boston,MA,USA'",'A; B',42.3506068,-71.0485054
The Whiskey Priest,"'148 Northern Ave.,Boston,MA,USA'",'A; B',42.3506159,-71.0429985
Pastoral,"'341 Congress St.,Boston,MA,USA'",'A; B',42.3506237,-71.0488517
Barrington Coffee,"'346 Congress St.,Boston,MA,USA'",'A; B',42.3506369,-71.0484323
Panera Bread,"'222 Berkeley St.,Boston,MA,USA'",'A; B',42.350667,-71.0731944
Chipotle Mexican Grill,"'553 Boylston St.,Boston,MA,USA'",'A; B',42.3507278,-71.0761492
Great Barbecu Inc.,"'15 Hudson St.,Boston,MA,USA'",'A; B',42.3507414,-71.0602242
Flik @ Skadden Arps Slate,"'500 Boylston St.,Boston,MA,USA'",'A; B',42.350742,-71.074378
Rebecca's Cafe,"'500 Boylston St.,Boston,MA,USA'",'A; B',42.350742,-71.074378
China Gourmet Restaurant,"'23 Tyler St.,Boston,MA,USA'",'A; B',42.3507606,-71.0609684
Tunnel,"'100 Stuart St.,Boston,MA,USA'",'A; B',42.3508154,-71.0655748
W Boston Banquet Rooms & Kitchen,"'100 Stuart St.,Boston,MA,USA'",'A; B',42.3508154,-71.0655748
W Boston Library Bar,"'100 Stuart St.,Boston,MA,USA'",'A; B',42.3508154,-71.0655748
Starbucks Coffee No. 870,"'165 Newbury St.,Boston,MA,USA'",'A; B',42.3508236,-71.078834
B.U. Pub,"'225 Bay State Rd.,Boston,MA,USA'",'A; B',42.3509056,-71.1036254
Metro Subway,"'31 Saint James Ave.,Boston,MA,USA'",'A; B',42.3509525,-71.0715658
Basho Japanese Sushi@B.U.(G.S.U.),"'775 Commonwealth Ave.,Boston,MA,USA'",'A; B',42.3509605,-71.1088587
B.U. School Of Law Cart,"'765 Commonwealth Ave.,Boston,MA,USA'",'A; B',42.3509792,-71.1070231
Hong Kong Eatery,"'79 Harrison Ave.,Boston,MA,USA'",'A; B',42.3510105,-71.0616268
Legal Seafoods,"'26 Park Sq.,Boston,MA,USA'",'A; B',42.3510123,-71.0679728
Shojo,"'11 Tyler St.,Boston,MA,USA'",'A; B',42.3510388,-71.0609194
Boston Kitchen Pizza,"'707 Washington St.,Boston,MA,USA'",'A; B',42.3510872,-71.0632505
Trattoria Andiamo,"'104 South St.,Boston,MA,USA'",'A; B',42.3510882,-71.0570821
Mcdonald's,"'702 Washington St.,Boston,MA,USA'",'A; B',42.3511448,-71.062697
Dunkin Donut,"'16 Kneeland.,Boston,MA,USA'",'A; B',42.3511879,-71.0623724
Dunkin Donut,"'326 Congress St.,Boston,MA,USA'",'A; B',42.351209,-71.049332
Jacob Wirth Restaurant,"'31 Stuart St.,Boston,MA,USA'",'A; B',42.3512183,-71.0638715
New Saigon Sandwich Inc.,"'696 Washington St.,Boston,MA,USA'",'A; B',42.3512233,-71.062696
L.A. Burdick Chocolate,"'224 Clarendon St.,Boston,MA,USA'",'A; B',42.3512239,-71.0756507
Subway,"'230 Tremont St.,Boston,MA,USA'",'A; B',42.3512868,-71.0646341
Five Spices House,"'58 Beach St.,Boston,MA,USA'",'A; B',42.3513198,-71.0603162
Dunkin Donuts (City Place),"'8 Park Pz.,Boston,MA,USA'",'A; B',42.3513467,-71.0661306
Jimmy John's,"'8 Park Pz.,Boston,MA,USA'",'A; B',42.3513467,-71.0661306
Sandella's Flatbread Cafe,"'8 Park Pz.,Boston,MA,USA'",'A; B',42.3513467,-71.0661306
Hot Pot Buffet,"'70 Beach St.,Boston,MA,USA'",'A; B',42.3513504,-71.0598321
Algonquin Club Of Boston,"'217 Commonwealth Ave.,Boston,MA,USA'",'A; B',42.3513938,-71.081861
Panera Bread,"'115 Stuart St.,Boston,MA,USA'",'A; B',42.3514083,-71.0653801
Panera Bread Bakery Cafe (Stuart St.),"'115 Stuart St.,Boston,MA,USA'",'A; B',42.3514083,-71.0653801
Dunkin Donuts (Wtc),"'200 Seaport La.,Boston,MA,USA'",'A; B',42.3514764,-71.0404699
Spirit Of Boston,"'200 Seaport La.,Boston,MA,USA'",'A; B',42.3514764,-71.0404699
World Trade Center,"'200 Seaport La.,Boston,MA,USA'",'A; B',42.3514764,-71.0404699
Subway,"'162 Harvard Ave.,Boston,MA,USA'",'A; B',42.3515612,-71.1314024
St Botolph Club Inc,"'199 Commonwealth Ave.,Boston,MA,USA'",'A; B',42.3516375,-71.0809427
Avana Express Bar,"'40 Harrison Ave.,Boston,MA,USA'",'A; B',42.3516622,-71.0608976
Chatime,"'27 Harrison Ave.,Boston,MA,USA'",'A; B',42.3517705,-71.0615619
Limelight Stage & Studios Inc.,"'204 Tremont St.,Boston,MA,USA'",'A; B',42.3518343,-71.0645073
Boloco,"'48 Congress St.,Boston,MA,USA'",'A; B',42.3518485,-71.0510462
D'Angelo's,"'700 Atlantic Ave.,Boston,MA,USA'",'A; B',42.351854,-71.0551404
Pinkberry,"'700 Atlantic Ave.,Boston,MA,USA'",'A; B',42.351854,-71.0551404
Raising Cane's,"'949 Commonwealth Ave.,Boston,MA,USA'",'A; B',42.3519161,-71.1187125
Sodexo@Emerson's Cafe(1St Fl.),"'80 Boylston St.,Boston,MA,USA'",'A; B',42.3520126,-71.0649292
Dumpling Kingdom Inc.,"'137 Harvard Ave.,Boston,MA,USA'",'A; B',42.3520136,-71.1320382
Sweet Kingdom,"'145 Harvard Ave.,Boston,MA,USA'",'A; B',42.3520385,-71.1321139
Paradise,"'963 Commonwealth Ave.,Boston,MA,USA'",'A; B',42.352051,-71.11935
Au Bon Pain,"'310 Congress St.,Boston,MA,USA'",'A; B',42.3521088,-71.049538
Sodexo @ Emerson - Max Cafe,"'150 Boylston St.,Boston,MA,USA'",'A; B',42.3521413,-71.0664369
Stage,"'120 Boylston St.,Boston,MA,USA'",'A; B',42.3522216,-71.06581
Boloco Inspired Burritos,"'2 Park Pz.,Boston,MA,USA'",'A; B',42.3522696,-71.0670277
Rock City Pizza,"'568 Cambridge St.,Boston,MA,USA'",'A; B',42.3522956,-71.1405002
Nile Lounge,"'66 Brighton Ave.,Boston,MA,USA'",'A; B',42.3524164,-71.1285501
Dolphin Bay,"'72 Brighton Ave.,Boston,MA,USA'",'A; B',42.3524364,-71.1287488
Au Bon Pain Store 511,"'640 Atlantic Ave.,Boston,MA,USA'",'A; B',42.3524481,-71.0555559
Cajun Cajun,"'640 Atlantic Ave.,Boston,MA,USA'",'A; B',42.3524481,-71.0555559
Dunkin Donuts Kiosk,"'640 Atlantic Ave.,Boston,MA,USA'",'A; B',42.3524481,-71.0555559
Mcdonald's,"'640 Atlantic Ave.,Boston,MA,USA'",'A; B',42.3524481,-71.0555559
Surf City Squeeze,"'640 Atlantic Ave.,Boston,MA,USA'",'A; B',42.3524481,-71.0555559
Dim Sum Chef Inc.,"'1 Brighton Ave.,Boston,MA,USA'",'A; B',42.3524485,-71.1254097
J.M.P. Fine Indian Cuisine,"'1 Brighton Ave.,Boston,MA,USA'",'A; B',42.3524485,-71.1254097
Lollicup Tea Zone,"'1 Brighton Ave.,Boston,MA,USA'",'A; B',42.3524485,-71.1254097
Pikaichi,"'1 Brighton Ave.,Boston,MA,USA'",'A; B',42.3524485,-71.1254097
"Cheeseboy Grilled Cheese To Go""""""heeseboy ""Grilled Che""""eeseboy ""Gr""""es""","'630 Atlantic Ave.,Boston,MA,USA'",'A; B',42.3525421,-71.05549
Cosi South Station,"'630 Atlantic Ave.,Boston,MA,USA'",'A; B',42.3525421,-71.05549
Infusions Tea Spa,"'108 Brighton Ave.,Boston,MA,USA'",'A; B',42.3526408,-71.1304113
Spike's Junkyard Dogs,"'108 Brighton Ave.,Boston,MA,USA'",'A; B',42.3526408,-71.1304113
Star Market No. 7588,"'1065 Commonwealth Ave.,Boston,MA,USA'",'A; B',42.3527057,-71.1235515
College Club,"'44 Commonwealth Ave.,Boston,MA,USA'",'A; B',42.3527312,-71.0732864
Patron's Mexican Kitchen,"'138 Brighton Ave.,Boston,MA,USA'",'A; B',42.3527496,-71.1317175
Thai Dish Restaurant,"'270 Babcock St.,Boston,MA,USA'",'A; B',42.3527679,-71.1217919
Chicken & Rice Guys,"'1 Lincoln St.,Boston,MA,USA'",'A; B',42.352773,-71.058609
Extreme Pita,"'275 Babcock St.,Boston,MA,USA'",'A; B',42.3527767,-71.1201541
The Last Drop,"'596 Washington.,Boston,MA,USA'",'A; B',42.3527849,-71.0625733
Iron Kitchen,"'164 Brighton Ave.,Boston,MA,USA'",'A; B',42.3529113,-71.1327632
Fish Market,"'170 Brighton Ave.,Boston,MA,USA'",'A; B',42.3529528,-71.1329989
Sabor Do Brasil,"'174 Brighton Ave.,Boston,MA,USA'",'A; B',42.3529579,-71.1330728
Coreanos,"'172 Brighton Ave.,Boston,MA,USA'",'A; B',42.3529601,-71.1330635
Pizza Days,"'101 Brighton Ave.,Boston,MA,USA'",'A; B',42.3530206,-71.1302597
Blu,"'4 Avery St.,Boston,MA,USA'",'A; B',42.3530525,-71.0631123
Pita (Raa Eatery),"'125 Summer St.,Boston,MA,USA'",'A; B',42.3531001,-71.0574039
Ritz-Carlton Boston Common,"'10 Avery St.,Boston,MA,USA'",'A; B',42.3531023,-71.0633401
Amc Theatres Boston Common 19,"'175 Tremont St.,Boston,MA,USA'",'A; B',42.3531263,-71.0639154
Beard Papa's And Chatime,"'145 Brighton Ave.,Boston,MA,USA'",'A; B',42.353252,-71.131868
Subway,"'560 Washington St.,Boston,MA,USA'",'A; B',42.353378,-71.062006
Committee,"'50 Northern Ave.,Boston,MA,USA'",'A; B',42.3534302,-71.0462
Dunkin Donuts (Allston),"'509 Cambridge St.,Boston,MA,USA'",'A; B',42.353455,-71.138529
Pret A Manger,"'265 Purchase St.,Boston,MA,USA'",'A; B',42.353499,-71.055841
Dunkin'Donuts/Watermark,"'101 Summer St.,Boston,MA,USA'",'A; B',42.3535299,-71.058131
Smith & Wollensky Atlantic Wharf,"'280 Congress St.,Boston,MA,USA'",'A; B',42.3535679,-71.0525522
Sorelle Cafe,"'280 Congress St.,Boston,MA,USA'",'A; B',42.3535679,-71.0525522
Caffe Nero,"'558 Washington St.,Boston,MA,USA'",'A; B',42.3536141,-71.0621006
Alfredo's,"'229 Brighton Ave.,Boston,MA,USA'",'A; B',42.3536317,-71.1355603
Salvatore's,"'543 Washington St.,Boston,MA,USA'",'A; B',42.3536539,-71.062338
Roxys Grilled Cheese,"'485 Cambridge St.,Boston,MA,USA'",'A; B',42.3537316,-71.1370224
Hyatt Regency Boston,"'1 Avenue De Lafayette.,Boston,MA,USA'",'A; B',42.3538065,-71.0605953
Domino's Pizza,"'7 Craftsman St.,Boston,MA,USA'",'A; B',42.3538257,-71.1358889
J J Foley's Grill Inc.,"'19 Kingston.,Boston,MA,USA'",'A; B',42.353844,-71.059215
B. Good,"'84 Summer St.,Boston,MA,USA'",'A; B',42.3538684,-71.0580491
Eagle Cafe 7Th Fl,"'160 Federal St.,Boston,MA,USA'",'A; B',42.3540746,-71.0558504
Subway (76 Summer St.),"'76 Summer St.,Boston,MA,USA'",'A; B',42.354088,-71.0581886
Wendy's,"'71 Summer St.,Boston,MA,USA'",'A; B',42.3540909,-71.058993
Wok N Talk,"'525 Washington St.,Boston,MA,USA'",'A; B',42.3542094,-71.062262
Street Food Revolution,"'48 Harvard Ave.,Boston,MA,USA'",'A; B',42.3544998,-71.1322574
Kwench Juice Bar,"'230 Congress St.,Boston,MA,USA'",'A; B',42.3545523,-71.0540872
Asia Wok,"'44 Harvard Ave.,Boston,MA,USA'",'A; B',42.3545725,-71.1322728
Dunkin' Donuts/Watermark,"'1 Summer St.,Boston,MA,USA'",'A; B',42.3546992,-71.0602708
Fajitas & Ritas Inc.,"'25 West St.,Boston,MA,USA'",'A; B',42.3548466,-71.0624136
Sal's Pizza/Bakery,"'150 Tremont St.,Boston,MA,USA'",'A; B',42.3549236,-71.0631608
Grass Roots Cafe,"'101 Arch St.,Boston,MA,USA'",'A; B',42.3549739,-71.0588044
Archie's New York Deli,"'93 Arch St.,Boston,MA,USA'",'A; B',42.355041,-71.059135
Petit Robert Central,"'93 Arch St.,Boston,MA,USA'",'A; B',42.355041,-71.059135
A @ Time,"'417 Cambridge St.,Boston,MA,USA'",'A; B',42.3551582,-71.134061
Allston Diner,"'417 Cambridge St.,Boston,MA,USA'",'A; B',42.3551582,-71.134061
J M Curley,"'21 Temple Pl.,Boston,MA,USA'",'A; B',42.3551825,-71.062377
O'Brien's Pub,"'1 Harvard Ave.,Boston,MA,USA'",'A; B',42.3552607,-71.1329402
Subway,"'144 Tremont St.,Boston,MA,USA'",'A; B',42.355297,-71.06281
Crystal/Gorage Lounge,"'20 Linden St.,Boston,MA,USA'",'A; B',42.3555393,-71.130792
Hale & Hearty,"'185 Franklin St.,Boston,MA,USA'",'A; B',42.3556623,-71.0551085
Ziti's Express,"'140 Tremont St.,Boston,MA,USA'",'A; B',42.3556656,-71.0625775
Papa Gino's,"'204 N Beacon St.,Boston,MA,USA'",'A; B',42.3558035,-71.1486719
Sarku Japan,"'417 Washington St.,Boston,MA,USA'",'A; B',42.3558635,-71.0604975
Zermatt Gelatria Llc,"'417 Washington St.,Boston,MA,USA'",'A; B',42.3558635,-71.0604975
Guru The Caterer,"'185 Devonshire St.,Boston,MA,USA'",'A; B',42.3559643,-71.0574616
Palm Restaurant (1 International Place),"'90 Oliver St.,Boston,MA,USA'",'A; B',42.3559861,-71.0531144
Banh Mi House,"'48 Winter St.,Boston,MA,USA'",'A; B',42.3560722,-71.0618626
Rebecca's Cafe,"'33 Arch St.,Boston,MA,USA'",'A; B',42.3562466,-71.0585848
Starbucks Coffee No. 807,"'12 Charles St.,Boston,MA,USA'",'A; B',42.3566192,-71.0696591
Mike's Cafe,"'190 High St.,Boston,MA,USA'",'A; B',42.3567024,-71.0522221
75 Chestnut,"'75 Chestnut St.,Boston,MA,USA'",'A; B',42.3569399,-71.0710063
Milk St Cafe,"'50 Milk St.,Boston,MA,USA'",'A; B',42.3569998,-71.0575881
Umbria Ristorante,"'295 Franklin St.,Boston,MA,USA'",'A; B',42.3570312,-71.052752
Mcdonalds,"'315 Washington St.,Boston,MA,USA'",'A; B',42.3570387,-71.0589067
Flame Cafe,"'2 Oliver St.,Boston,MA,USA'",'A; B',42.3571721,-71.0543269
Shawarma Falafel,"'26 Province St.,Boston,MA,USA'",'A; B',42.3572087,-71.0596282
The Hub Pub,"'18 Province St.,Boston,MA,USA'",'A; B',42.357281,-71.059575
Taste Of The Town,"'10 Post Office Sq.,Boston,MA,USA'",'A; B',42.3573784,-71.05573
The Littlest Bar,"'102 Broad St.,Boston,MA,USA'",'A; B',42.3574214,-71.0521544
Peet's Coffee & Tea,"'62 Charles St.,Boston,MA,USA'",'A; B',42.3575715,-71.0704638
Subway,"'153 Milk St.,Boston,MA,USA'",'A; B',42.3577188,-71.0541608
Falafel King,"'262 Washington St.,Boston,MA,USA'",'A; B',42.3577323,-71.0578469
Subway,"'262 Washington St.,Boston,MA,USA'",'A; B',42.3577323,-71.0578469
Stockyard,"'135 Market St.,Boston,MA,USA'",'A; B',42.3577779,-71.1484191
Casa Razbora,"'115 Water St.,Boston,MA,USA'",'A; B',42.3580278,-71.0546494
Flat Black Coffee Co. Ltd.,"'50 Broad St.,Boston,MA,USA'",'A; B',42.3580361,-71.0536022
High Spot Deli,"'8 Beacon St.,Boston,MA,USA'",'A; B',42.358127,-71.061782
21 St. Amendment,"'150 Bowdoin St.,Boston,MA,USA'",'A; B',42.3583993,-71.0626497
Warehouse Bar & Grille,"'40 Broad St.,Boston,MA,USA'",'A; B',42.358413,-71.0538438
Saladworks,"'18 Tremont St.,Boston,MA,USA'",'A; B',42.3586079,-71.059572
Mcdonalds,"'1750 Soldiers Field Rd.,Boston,MA,USA'",'A; B',42.3586744,-71.1549143
Suffolk University Cafe,"'8 Ashburton Pl.,Boston,MA,USA'",'A; B',42.3588616,-71.0618449
Capitol Coffee House,"'122 Bowdoin St.,Boston,MA,USA'",'A; B',42.3588865,-71.0625935
Flik International,"'60 State St.,Boston,MA,USA'",'A; B',42.35903,-71.05646
Hillstone Restaurant,"'60 State St.,Boston,MA,USA'",'A; B',42.35903,-71.05646
Starbucks Coffee No. 9463,"'84 State St.,Boston,MA,USA'",'A; B',42.3591464,-71.0556455
Zo,"'92 State St.,Boston,MA,USA'",'A; B',42.3592347,-71.055331
Starbucks Coffee No. 883,"'63 Court St.,Boston,MA,USA'",'A; B',42.3592721,-71.0590014
Clarke's,"'21 Merchants Ro.,Boston,MA,USA'",'A; B',42.3594001,-71.055403
Panera Bread No. 1636,"'3 Center Pz.,Boston,MA,USA'",'A; B',42.3594139,-71.0601613
Zo,"'3 Center Plaza.,Boston,MA,USA'",'A; B',42.3594139,-71.0601613
Boston News Cafe,"'28 State St.,Boston,MA,USA'",'A; B',42.3594435,-71.0574647
Great Taste Italian & Mexican,"'38 Cornhill.,Boston,MA,USA'",'A; B',42.359504,-71.058783
Ashburton Cafe,"'1 Ashburton Pl.,Boston,MA,USA'",'A; B',42.3595948,-71.0621929
Hissho Sushi @ Suffolk Univ.,"'20 Somerset St.,Boston,MA,USA'",'A; B',42.3596924,-71.0617928
Bagelville Inc.,"'200 Faneuil Hall Market Pl.,Boston,MA,USA'",'A; B',42.3597994,-71.0544602
Boston & Maine Fish Co.,"'200 Faneuil Hall Market Pl.,Boston,MA,USA'",'A; B',42.3597994,-71.0544602
Boston Chowda Co.,"'300 Faneuil Hall Market Pl.,Boston,MA,USA'",'A; B',42.3597994,-71.0544602
Dick's Last Resort,"'100-199 Faneuil Hall Market Pl.,Boston,MA,USA'",'A; B',42.3597994,-71.0544602
El Paso Enchiladas,"'1 Faneuil Hall Mkt Pl Pl.,Boston,MA,USA'",'A; B',42.3597994,-71.0544602
Ghirardelli Chocolate Co.,"'100 Faneuil Hall Marketplace.,Boston,MA,USA'",'A; B',42.3597994,-71.0544602
Joey's Fun Foods,"'100-199 Faneuil Hall Market Pl.,Boston,MA,USA'",'A; B',42.3597994,-71.0544602
Ned Devine's,"'200 Faneuil Hall Market Pl.,Boston,MA,USA'",'A; B',42.3597994,-71.0544602
Sprinkle's Ice Cream,"'100-199 Faneuil Hall Market Pl.,Boston,MA,USA'",'A; B',42.3597994,-71.0544602
Starbucks Coffee No. 862,"'1 Faneuil Hall Mkt Pl Pl.,Boston,MA,USA'",'A; B',42.3597994,-71.0544602
Ueno Sushi,"'1 Faneuil Hall Mkt Pl Pl.,Boston,MA,USA'",'A; B',42.3597994,-71.0544602
The Landing,"'6 Long Wh.,Boston,MA,USA'",'A; B',42.3599671,-71.0498288
Burger King,"'1 Center Plaza.,Boston,MA,USA'",'A; B',42.3600953,-71.0604624
Finagle A Bagel,"'1 Center Plaza.,Boston,MA,USA'",'A; B',42.3600953,-71.0604624
Grasshopper Creamery,"'1 Faneuil Hall Sq.,Boston,MA,USA'",'A; B',42.3601334,-71.055555
Steve's Greek Cuisine Inc.,"'1 Faneuil Hall Sq.,Boston,MA,USA'",'A; B',42.3601334,-71.055555
Blackstone Grill,"'1 Union St.,Boston,MA,USA'",'A; B',42.3605884,-71.0566478
Seafood El Buchu,"'14 Hancock St.,Boston,MA,USA'",'A; B',42.360618,-71.064267
The Tap,"'17 Union St.,Boston,MA,USA'",'A; B',42.360847,-71.0568196
Tip Tap Room,"'138 Cambridge St.,Boston,MA,USA'",'A; B',42.361006,-71.0639386
Durty Nellie's,"'108 Blackstone St.,Boston,MA,USA'",'A; B',42.3617713,-71.0564643
Joe's American Bar & Grill,"'100 Atlantic Ave.,Boston,MA,USA'",'A; B',42.3619639,-71.0506231
Bon Me,"'100 Hanover St.,Boston,MA,USA'",'A; B',42.3620005,-71.0569411
Swissbakers,"'100 Hanover St.,Boston,MA,USA'",'A; B',42.3620005,-71.0569411
Big Daddy's Pizza,"'436 Western Ave.,Boston,MA,USA'",'A; B',42.3622619,-71.1409442
Eric Lindeman,"'25 Staniford St.,Boston,MA,USA'",'A; B',42.3625855,-71.0636025
Mezzanine Coffee Shop,"'25 Staniford St.,Boston,MA,USA'",'A; B',42.3625855,-71.0636025
Dolce Vita,"'215 Hanover St.,Boston,MA,USA'",'A; B',42.3627443,-71.0552428
Swissbakers,"'168 Western Ave.,Boston,MA,USA'",'A; B',42.3629048,-71.1284878
Taranta,"'210 Hanover St.,Boston,MA,USA'",'A; B',42.3629263,-71.055595
Harvard Business School Cafete,"'230 Western Ave.,Boston,MA,USA'",'A; B',42.3629405,-71.1318491
Stone Hearth Pizza Co.,"'182 Western Ave.,Boston,MA,USA'",'A; B',42.3629709,-71.1293692
Viva Burrito,"'66 Staniford St.,Boston,MA,USA'",'A; B',42.3631164,-71.0643572
Lucca North End,"'226 Hanover St.,Boston,MA,USA'",'A; B',42.3631799,-71.0554643
Thinking Cup,"'234 Hanover St.,Boston,MA,USA'",'A; B',42.3632274,-71.0550304
Ristorante Fiore,"'250 Hanover.,Boston,MA,USA'",'A; B',42.3635605,-71.05509
Pinkberry,"'283 Hanover St.,Boston,MA,USA'",'A; B',42.3637158,-71.054557
Scopa,"'319 Hanover St.,Boston,MA,USA'",'A; B',42.364066,-71.053976
Ruby Room,"'155 Portland.,Boston,MA,USA'",'A; B',42.3641932,-71.061358
L'Osteria Restaurant,"'104 Salem St.,Boston,MA,USA'",'A; B',42.3642226,-71.0557308
Rodey Pizza & Pasta,"'55 Causeway St.,Boston,MA,USA'",'A; B',42.3643192,-71.0628708
Ko Catering And Pies,"'256 Marginal St.,Boston,MA,USA'",'A; B',42.3644235,-71.0334794
Pushcart Cafe,"'117 Salem St.,Boston,MA,USA'",'A; B',42.3644992,-71.0555031
Ristorante Euno,"'119 Salem St.,Boston,MA,USA'",'A; B',42.3645558,-71.0554149
Au Bon Pain (Food Court U S Air),"'200 Logan Airport Trmnl B.,Boston,MA,USA'",'A; B',42.3645818,-71.0195813
Cisco Brew Pub Of Nantucket,"'200 Logan Airport Trmnl B.,Boston,MA,USA'",'A; B',42.3645818,-71.0195813
Legal C Bar (Space Ba-Lo6),"'200 Logan Airport Trmnl B.,Boston,MA,USA'",'A; B',42.3645818,-71.0195813
Mcdonalds Restaurant,"'200 Logan Airport Trmnl B.,Boston,MA,USA'",'A; B',42.3645818,-71.0195813
Sodexo @Admirals Club American Airlines Inc.,"'200 Logan Airport Trmnl B.,Boston,MA,USA'",'A; B',42.3645818,-71.0195813
U S Airways Club Boston,"'200 Logan Airport Trmnl B.,Boston,MA,USA'",'A; B',42.3645818,-71.0195813
Locontes Restaurant,"'116 Salem St.,Boston,MA,USA'",'A; B',42.3646818,-71.0556217
Sports Grille,"'132 Canal St.,Boston,MA,USA'",'A; B',42.3646904,-71.0606485
Cantina Italiana,"'344 Hanover St.,Boston,MA,USA'",'A; B',42.3649637,-71.0534338
Four's Boston,"'162 Canal St.,Boston,MA,USA'",'A; B',42.364982,-71.060986
Dunkin Donuts (Canal St.),"'168 Canal St.,Boston,MA,USA'",'A; B',42.365011,-71.061185
Sullivan's Tap,"'168 Canal St.,Boston,MA,USA'",'A; B',42.365011,-71.061185
Dino's Cafe,"'141 Salem St.,Boston,MA,USA'",'A; B',42.365057,-71.055358
Jimmy John's,"'96 Beverly St.,Boston,MA,USA'",'A; B',42.3653207,-71.0595029
Au Bon Pain (Space 49),"'300 Logan Airport Trmnl C.,Boston,MA,USA'",'A; B',42.3660751,-71.020461
Harpoon Tap Room,"'100 Logan Airport Trmnl A.,Boston,MA,USA'",'A; B',42.3660751,-71.020461
Legal Sea Food,"'100 Logan Airport Trmnl A.,Boston,MA,USA'",'A; B',42.3660751,-71.020461
Remy's,"'300 Logan Airport Trmnl C.,Boston,MA,USA'",'A; B',42.3660751,-71.020461
Ryo Asian Fusion,"'300 Logan Airport Trmnl C.,Boston,MA,USA'",'A; B',42.3660751,-71.020461
Wendy's (Logan Airport T-A),"'Logan Airport Trmnl A.,Boston,MA,USA'",'A; B',42.3660751,-71.020461
Causeway Cafe,"'239 Causeway St.,Boston,MA,USA'",'A; B',42.3660988,-71.0594128
Dunkin Donuts North Station,"'100 Legends Wa.,Boston,MA,USA'",'A; B',42.3664872,-71.0621057
Emack & Bolio,"'100 Legends Wa.,Boston,MA,USA'",'A; B',42.3664872,-71.0621057
T D Garden Banner Restaurant,"'100 Legends Wa.,Boston,MA,USA'",'A; B',42.3664872,-71.0621057
T D Garden Premium Club,"'100 Legends Wy.,Boston,MA,USA'",'A; B',42.3664872,-71.0621057
Massiminos Cucina,"'207 Endicott St.,Boston,MA,USA'",'A; B',42.3665953,-71.0579268
Battery Wharf Hotel,"'2 Battery Wharf.,Boston,MA,USA'",'A; B',42.3668761,-71.0514032
Ducali Pizzeria & Bar,"'289 Causeway St.,Boston,MA,USA'",'A; B',42.3670723,-71.0580596
Dunkin Donuts/Waldwin Group,"'500 Logan Airport Trmnl E.,Boston,MA,USA'",'A; B',42.3685769,-71.0228005
Earl Of Sandwich,"'300 Logan Airport Trmnl E.,Boston,MA,USA'",'A; B',42.3685769,-71.0228005
Market Cafe,"'20 Maverick Sq.,Boston,MA,USA'",'A; B',42.3697197,-71.0395642
Salamanders Coffee Place,"'154 Maverick St.,Boston,MA,USA'",'A; B',42.369914,-71.0379108
Eddie C's,"'34 Maverick Sq.,Boston,MA,USA'",'A; B',42.369961,-71.039351
Nfarra 2,"'127 Maverick St.,Boston,MA,USA'",'A; B',42.3701802,-71.0393919
Emack & Bolio's,"'1 Chelsea St.,Boston,MA,USA'",'A; B',42.3711683,-71.0613888
Mi Rancho Restaurant,"'45 Meridian St.,Boston,MA,USA'",'A; B',42.3715149,-71.0387903
Undine Cafe @ Caturano Co.,"'80 City Sq.,Boston,MA,USA'",'A; B',42.3715497,-71.0608595
Latinos Restaurant,"'88 Chelsea St.,Boston,MA,USA'",'A; B',42.3721229,-71.0363835
Legal Oysteria,"'10 City Sq.,Boston,MA,USA'",'A; B',42.3723514,-71.0616236
Ecco,"'107 Porter St.,Boston,MA,USA'",'A; B',42.3729821,-71.0361314
Sully's Pub,"'85 Main St.,Boston,MA,USA'",'A; B',42.373777,-71.0628717
Saus Boston,"'31 Union St.,Boston,MA,USA'",'A; B',42.3740288,-71.0650366
La Terraza Restaurant,"'19 Bennington St.,Boston,MA,USA'",'A; B',42.3750651,-71.0379225
Billares Colombia,"'16 Bennington St.,Boston,MA,USA'",'A; B',42.3753183,-71.0383507
Punto Rojo,"'16 Bennington St.,Boston,MA,USA'",'A; B',42.3753183,-71.0383507
Bohemio's Restaurant,"'30 Bennington St.,Boston,MA,USA'",'A; B',42.3754004,-71.0379654
Brewer's Fork,"'29 Bunker Hill St.,Boston,MA,USA'",'A; B',42.3763144,-71.0566444
Barney's Grill,"'299 Havre St.,Boston,MA,USA'",'A; B',42.376482,-71.033733
Paolo's,"'247 Main St.,Boston,MA,USA'",'A; B',42.3767332,-71.0660663
Slush King,"'211 Bennington.,Boston,MA,USA'",'A; B',42.3777676,-71.0311997
Mario's Restaurant,"'347 Chelsea.,Boston,MA,USA'",'A; B',42.3781298,-71.0288653
Tutti Frutti,"'382 Chelsea St.,Boston,MA,USA'",'A; B',42.3794265,-71.0279655
Rincon Limeno,"'409 Chelsea St.,Boston,MA,USA'",'A; B',42.3798613,-71.0268813
Dunkin Donuts (Trmnl-C Baggage Area),"'300 Terminal Rd.,Boston,MA,USA'",'A; B',42.3816454,-71.0553531
Dunkin Donuts Space No. 86,"'300 Terminal Rd.,Boston,MA,USA'",'A; B',42.3816454,-71.0553531
Pinkberry (Trmnl C Pier B Side),"'300 Terminal Rd.,Boston,MA,USA'",'A; B',42.3816454,-71.0553531
Uptown Cafe,"'116 Cambridge.,Boston,MA,USA'",'A; B',42.3821338,-71.079529
Vivian's Cafe,"'50 Terminal St.,Boston,MA,USA'",'A; B',42.3823675,-71.0605165
Dunkin' Donuts,"'99 Cambridge St.,Boston,MA,USA'",'A; B',42.3825388,-71.0791988
Honey Dew Donuts,"'470 Meridian St.,Boston,MA,USA'",'A; B',42.3828793,-71.0396943
Sbarro Restaurant,"'100 Terminal Rd.,Boston,MA,USA'",'A; B',42.3828972,-71.0553676
Berkshire Farms Market,"'200 Terminal Rd.,Boston,MA,USA'",'A; B',42.3831476,-71.0499464
Fuel America,"'200 Terminal Rd.,Boston,MA,USA'",'A; B',42.3831476,-71.0499464
Stephanie's,"'200 Terminal Rd.,Boston,MA,USA'",'A; B',42.3831476,-71.0499464
The United Club,"'200 Terminal Rd.,Boston,MA,USA'",'A; B',42.3831476,-71.0499464
Vineyard Grille Br-02,"'200 Terminal Rd.,Boston,MA,USA'",'A; B',42.3831476,-71.0499464
Schraffts Center Cafe,"'529 Main St.,Boston,MA,USA'",'A; B',42.3848424,-71.071451
Dunkin' Donuts(Rmg Donuts Llc),"'951 Bennington St.,Boston,MA,USA'",'A; B',42.3858866,-71.008327
Great Chef Orient Heights,"'965 Bennington St.,Boston,MA,USA'",'A; B',42.3860678,-71.0079849
Burger King,"'944 Bennington St.,Boston,MA,USA'",'A; B',42.3862922,-71.0096337
Milano's Deli,"'978 Saratoga St.,Boston,MA,USA'",'A; B',42.387026,-71.0074001
Jessica's Table,"'78 Arlington Ave.,Boston,MA,USA'",'A; B',42.3871868,-71.0750047
Suffolk Downs-Legends Turf Club,"'111 Waldemar Ave.,Boston,MA,USA'",'A; B',42.392316,-71.0029964
Mcdonald's,"'1650 Vfw Pw.,Boston,MA,USA'",'A; C',42.2644855,-71.1677864
Pasta Beach,"'30 Rowes Wh.,Boston,MA,USA'",'A; C',42.3566931,-71.0502273
Destino's Pizza,"'1505 Hyde Park Ave.,Boston,MA,USA'",'A; C',42.2474357,-71.1280642
Cavan Cafe,"'1406 Hyde Park Ave.,Boston,MA,USA'",'A; C',42.2506177,-71.1257549
Bean And Cream Co.,"'676 Truman Pw.,Boston,MA,USA'",'A; C',42.2522088,-71.1183164
The Briar Rose,"'1300 Hyde Park Ave.,Boston,MA,USA'",'A; C',42.2540941,-71.1240994
The Fairmount Grille,"'81 Fairmount Ave.,Boston,MA,USA'",'A; C',42.2544699,-71.1201691
Tommy's Pizzeria,"'10 Fairmount Ave.,Boston,MA,USA'",'A; C',42.2557648,-71.1208532
Wingz N Tingz,"'10 Fairmount Ave.,Boston,MA,USA'",'A; C',42.2557648,-71.1208532
Papa Gino's,"'1270 River St.,Boston,MA,USA'",'A; C',42.255831,-71.1239756
Talk And Wok Cafe,"'1277 River St.,Boston,MA,USA'",'A; C',42.2559973,-71.1243452
New York Fried Chicken (1251 River St.),"'1251 River St.,Boston,MA,USA'",'A; C',42.2560177,-71.1234738
Salamander's Cafe,"'1231 River St.,Boston,MA,USA'",'A; C',42.2560654,-71.1229331
20Th Centry Bowling Lanes,"'1231 Hyde Park Ave.,Boston,MA,USA'",'A; C',42.256814,-71.124124
Little Haiti International Cusine,"'1184 Hyde Park Ave.,Boston,MA,USA'",'A; C',42.2583765,-71.1233495
Common Ground,"'83 Harvard Ave.,Boston,MA,USA'",'A; C',42.2593578,-71.1222014
D Coal Pot,"'984 Hyde Park Ave.,Boston,MA,USA'",'A; C',42.2661882,-71.1210382
Papa John Pizza,"'522 River St.,Boston,MA,USA'",'A; C',42.2672641,-71.0943402
Right Taste Jamaican Restaurant,"'522 River St.,Boston,MA,USA'",'A; C',42.2672641,-71.0943402
Dunkin Donuts(Wolcott Sq. Llc),"'942 Hyde Park Ave.,Boston,MA,USA'",'A; C',42.2675117,-71.1198082
Burger King,"'885 Cummins Hw.,Boston,MA,USA'",'A; C',42.2682237,-71.0957798
La Belle Creole Cuisine,"'473 River St.,Boston,MA,USA'",'A; C',42.2682553,-71.0929787
Las Vegas Express Restaurant,"'1592 Blue Hill Ave.,Boston,MA,USA'",'A; C',42.269582,-71.092955
Chinatown Express Inc.,"'79 River St.,Boston,MA,USA'",'A; C',42.2712867,-71.073871
River Street Grill,"'73 River St.,Boston,MA,USA'",'A; C',42.2715688,-71.0736552
Spukies Pizza Restaurant,"'1159 Washington St.,Boston,MA,USA'",'A; C',42.2722234,-71.0688659
Kapow,"'2257 Dorchester Ave.,Boston,MA,USA'",'A; C',42.2733888,-71.0679964
Boston House Of Pizza,"'940 Amer Legion Hw.,Boston,MA,USA'",'A; C',42.275699,-71.1144068
Nick's,"'4590 Washington St.,Boston,MA,USA'",'A; C',42.2762785,-71.1388756
Al-Wadi Restaurant,"'1249 Vfw Pw.,Boston,MA,USA'",'A; C',42.2772399,-71.1726342
Carney Hospital,"'2100 Dorchester Ave.,Boston,MA,USA'",'A; C',42.2774856,-71.0657391
Top Of The Hill,"'1357 Blue Hill Ave.,Boston,MA,USA'",'A; C',42.2774936,-71.0937194
Delicia Dominicanas,"'635 Hyde Park Ave.,Boston,MA,USA'",'A; C',42.2785883,-71.1194591
La Lechonera Restaurant,"'342 Cummins Hw.,Boston,MA,USA'",'A; C',42.2788124,-71.1160201
Mandarin House Restaurant,"'633 Hyde Park Ave.,Boston,MA,USA'",'A; C',42.2788202,-71.1194125
No. 1 Chinese Restaurant,"'914 Morton St.,Boston,MA,USA'",'A; C',42.280738,-71.0832208
La Belle Capoise Restaurant,"'884 Morton St.,Boston,MA,USA'",'A; C',42.2810398,-71.0847844
Golden House (Washington St.),"'4403 Washington St.,Boston,MA,USA'",'A; C',42.2816479,-71.133677
Irie Jamaican Style Restaurant,"'851 Washington St.,Boston,MA,USA'",'A; C',42.2818924,-71.0714153
Florian Restaurant,"'55 Hallet St.,Boston,MA,USA'",'A; C',42.282408,-71.0476681
China Sky Restaurant,"'782 Adams St.,Boston,MA,USA'",'A; C',42.2830526,-71.0556179
Popeyes Chicken & Biscuit,"'690 American Legion Hw.,Boston,MA,USA'",'A; C',42.2831756,-71.1123491
Handy's Cafe,"'781 Adams St.,Boston,MA,USA'",'A; C',42.2833223,-71.05575
Five Star Pizza & Grill,"'614 Gallivan Bl.,Boston,MA,USA'",'A; C',42.2835929,-71.0507928
Dunkin Donuts/Gallivan,"'719 Gallivan Bl.,Boston,MA,USA'",'A; C',42.2838949,-71.0462486
Sonny's Restaurant,"'750 Adams St.,Boston,MA,USA'",'A; C',42.2839564,-71.0552601
Flat Black Coffee Company,"'1906 Dorchester Ave.,Boston,MA,USA'",'A; C',42.2842699,-71.064477
Masona Grill,"'2 Corey St.,Boston,MA,USA'",'A; C',42.2845521,-71.1551746
Perla Del Sur Quintanilla,"'454 Hyde Park Ave.,Boston,MA,USA'",'A; C',42.2849922,-71.1186896
Dunkin Donuts,"'1931 Dorchester Ave.,Boston,MA,USA'",'A; C',42.2849977,-71.0648438
Little Caesars,"'628 American Legion Hw.,Boston,MA,USA'",'A; C',42.2851238,-71.1099606
Flames Restaurant,"'663 Morton St.,Boston,MA,USA'",'A; C',42.2852152,-71.0933008
Sticky Rice Cafe,"'1894 Centre St.,Boston,MA,USA'",'A; C',42.2853807,-71.1558482
Nick's Pizza And Seafood,"'1143 Blue Hill Ave.,Boston,MA,USA'",'A; C',42.285507,-71.0913105
Eat With Jack O'Neill,"'1883 Centre St.,Boston,MA,USA'",'A; C',42.285955,-71.155876
Westbury Restaurant,"'1836 Centre St.,Boston,MA,USA'",'A; C',42.2862754,-71.1537772
Sophia's Grotto,"'18 Corinth St.,Boston,MA,USA'",'A; C',42.2864206,-71.1301665
Dragon Chef East,"'4198 Washington St.,Boston,MA,USA'",'A; C',42.2868612,-71.1273403
Nu Flav Restaurant,"'1098 Blue Hill Ave.,Boston,MA,USA'",'A; C',42.286903,-71.0902009
Napper Tandys,"'4187 Washington St.,Boston,MA,USA'",'A; C',42.2873883,-71.1271248
Himayalan Bistro,"'1735 Centre St.,Boston,MA,USA'",'A; C',42.2874107,-71.1497721
The Porter Cafe,"'1723 Centre St.,Boston,MA,USA'",'A; C',42.2874218,-71.1492162
Stalex Restaurant,"'140 Norfolk St.,Boston,MA,USA'",'A; C',42.287737,-71.0779412
Roslindale House Of Pizza,"'4168 Washington St.,Boston,MA,USA'",'A; C',42.2878541,-71.1264285
Checkmate Cafe,"'900 South.,Boston,MA,USA'",'A; C',42.2884426,-71.1348398
Taste Of Eden,"'38 Norfolk St.,Boston,MA,USA'",'A; C',42.2892175,-71.0728645
Dimitrios House Of Pizza,"'1750 Dorchester Ave.,Boston,MA,USA'",'A; C',42.2901719,-71.0628744
Charlie's House Of Pizza,"'1740 Dorchester Ave.,Boston,MA,USA'",'A; C',42.2907069,-71.0626885
Canton House Restaurant,"'1728 Dorchester Ave.,Boston,MA,USA'",'A; C',42.2909786,-71.0626544
Stop & Shop/Dunkin Donuts,"'535 Freeport St.,Boston,MA,USA'",'A; C',42.2922568,-71.0480383
El Fongon Del La Morena,"'262 Hyde Park Ave.,Boston,MA,USA'",'A; C',42.292523,-71.1175263
Venezia Restaurant (Harbor Lights),"'20 R Ericsson St.,Boston,MA,USA'",'A; C',42.2928028,-71.0400309
Billy's Texas B.B.Q.,"'530 Washington St.,Boston,MA,USA'",'A; C',42.2929558,-71.0716503
China Station Restaurant,"'530 Washington St.,Boston,MA,USA'",'A; C',42.2929558,-71.0716503
Subway,"'875 William T Morrissey Bl.,Boston,MA,USA'",'A; C',42.2935411,-71.0479786
Tri Seafood Restaurant,"'1616 Dorchester Ave.,Boston,MA,USA'",'A; C',42.2953893,-71.0613919
Phillips Old Colony House Inc.,"'780 Wm T Morrissey Bl.,Boston,MA,USA'",'A; C',42.2954607,-71.0471616
Dunkin' Donuts,"'7 Walk Hill St.,Boston,MA,USA'",'A; C',42.2955725,-71.1161003
Tostado Llc,"'3878 Washington St.,Boston,MA,USA'",'A; C',42.29578,-71.1182165
Big Bites,"'10 Walk Hill St.,Boston,MA,USA'",'A; C',42.2958609,-71.1157992
Natif Natal Restaurant,"'830 Blue Hill Ave.,Boston,MA,USA'",'A; C',42.2962219,-71.0871959
Subway,"'1576 Dorchester Ave.,Boston,MA,USA'",'A; C',42.2972238,-71.0604413
Chau Chow,"'699 Wm T Morrissey Bl.,Boston,MA,USA'",'A; C',42.297874,-71.0498958
Mcdonald's Rest,"'500 Geneva Ave.,Boston,MA,USA'",'A; C',42.2991211,-71.0621446
Anh Hong Restaurant Llc,"'291 Adams St.,Boston,MA,USA'",'A; C',42.299193,-71.058168
Red Hat Cafe,"'9 Bowdoin St.,Boston,MA,USA'",'A; C',42.2993992,-71.0729456
Golden Star Restaurant,"'1493 Dorchester Ave.,Boston,MA,USA'",'A; C',42.2996337,-71.0605523
Hien Vuong Restaurant,"'1487 Dorchester Ave.,Boston,MA,USA'",'A; C',42.2999809,-71.0604396
Fazenda Cafe,"'3710 Washington St.,Boston,MA,USA'",'A; C',42.300249,-71.113075
Corp. Chefs/U. Mass. Med. School,"'305 South St.,Boston,MA,USA'",'A; C',42.3004362,-71.1168113
Nevilles Bakery & Restaurant,"'422 Geneva Ave.,Boston,MA,USA'",'A; C',42.3007736,-71.0669922
Dot Cafe,"'1459 Dorchester Ave.,Boston,MA,USA'",'A; C',42.3009365,-71.0601233
Ironside Grille,"'23 Park St.,Boston,MA,USA'",'A; C',42.3017745,-71.0540773
Domino's Pizza,"'205 Adams St.,Boston,MA,USA'",'A; C',42.3018687,-71.0601258
Pho 2000,"'198 Adams St.,Boston,MA,USA'",'A; C',42.3022662,-71.0599151
Island Style Inc.,"'183 Washington St.,Boston,MA,USA'",'A; C',42.3033309,-71.0787506
Expressway Motors Inc./Camry Cafe,"'650 Wm T Morrissey Bl.,Boston,MA,USA'",'A; C',42.3037442,-71.0477931
Pho Le,"'1356 Dorchester Ave.,Boston,MA,USA'",'A; C',42.3044132,-71.0589829
Chung Wah,"'199 Bowdoin St.,Boston,MA,USA'",'A; C',42.305075,-71.068138
Thao Ngoc Restaurant,"'1331 Dorchester Ave.,Boston,MA,USA'",'A; C',42.30525,-71.059195
Pete's Seafood,"'267 Bowdoin St.,Boston,MA,USA'",'A; C',42.3065584,-71.0663945
Ashley's Breakfast Shoppe,"'260 Bowdoin St.,Boston,MA,USA'",'A; C',42.3068012,-71.0666751
Showa Womens Institution,"'414 Pond St.,Boston,MA,USA'",'A; C',42.307476,-71.131317
Mi Casa Tu Casa,"'299 Hancock St.,Boston,MA,USA'",'A; C',42.3081374,-71.0587093
New York Fried Chicken,"'442 Blue Hill Ave.,Boston,MA,USA'",'A; C',42.3096297,-71.0822953
El Dugout,"'122 Seaver St.,Boston,MA,USA'",'A; C',42.3099298,-71.0915446
Super Fusion Express,"'779 Centre St.,Boston,MA,USA'",'A; C',42.3100026,-71.115621
Vee Vee,"'763 Centre St.,Boston,MA,USA'",'A; C',42.3102579,-71.1152319
Caffe Nero,"'725 Centre St.,Boston,MA,USA'",'A; C',42.3111527,-71.1147977
Costello's Tavern Inc,"'717 Centre St.,Boston,MA,USA'",'A; C',42.3112013,-71.114518
Bukhara Indian Bistro,"'701 Centre St.,Boston,MA,USA'",'A; C',42.311639,-71.1146727
Wonder Spice Cafe,"'695 Centre St.,Boston,MA,USA'",'A; C',42.3118326,-71.1143272
Purple Cactus,"'674 Centre St.,Boston,MA,USA'",'A; C',42.3121523,-71.113891
Prieto El Rey De Las Empanadas,"'196 Humboldt Ave.,Boston,MA,USA'",'A; C',42.3126498,-71.0896643
Pin Bochinche Restaurant,"'3160 Washington St.,Boston,MA,USA'",'A; C',42.313622,-71.1001977
D & D Restaurant,"'3141 Washington St.,Boston,MA,USA'",'A; C',42.3141334,-71.1001404
Bale Restaurant,"'1052 Dorchester Ave.,Boston,MA,USA'",'A; C',42.3147438,-71.0566217
Ten Tables,"'597 Centre St.,Boston,MA,USA'",'A; C',42.3149085,-71.1143085
Sodexo @ Umass Jazzman,"'100 Wm T Morrissey Bl.,Boston,MA,USA'",'A; C',42.315672,-71.0479068
Chilacates,"'222 Amory St.,Boston,MA,USA'",'A; C',42.3163444,-71.1031497
Robinwood Cafe & Grille,"'536 Centre St.,Boston,MA,USA'",'A; C',42.3168819,-71.1132676
Las Brisas Del Caribe,"'194 Blue Hill Ave.,Boston,MA,USA'",'A; C',42.3179577,-71.0776653
Crown Fried Chicken And Pizza,"'344 Warren St.,Boston,MA,USA'",'A; C',42.3184854,-71.0817038
Fiskie's Cafe,"'40 Westwind Rd.,Boston,MA,USA'",'A; C',42.3185161,-71.0416633
Warren Tavern,"'2 Pleasant St.,Boston,MA,USA'",'A; C',42.318537,-71.058548
Hong Kong Chef,"'889 Dorchester Ave.,Boston,MA,USA'",'A; C',42.3200435,-71.0568994
Singh's Roti Shop,"'692 Columbia Rd.,Boston,MA,USA'",'A; C',42.3202397,-71.0624748
Mcdonalds (Warren St.),"'301 Warren St.,Boston,MA,USA'",'A; C',42.3203563,-71.0822151
Great Wok,"'1284 Massachusetts Ave.,Boston,MA,USA'",'A; C',42.3210414,-71.061732
Villa Sombrero Cafe,"'554A Dudley St.,Boston,MA,USA'",'A; C',42.3213103,-71.0719831
Home Run Cafe,"'1269 Massachusetts Ave.,Boston,MA,USA'",'A; C',42.3215004,-71.0626292
The Avenue Grille,"'856 Dorchester Ave.,Boston,MA,USA'",'A; C',42.3215305,-71.0565687
Ideal Sub Shop,"'522 Dudley St.,Boston,MA,USA'",'A; C',42.3222535,-71.0726102
224 Boston Street,"'224 Boston St.,Boston,MA,USA'",'A; C',42.3222638,-71.0608758
Food Wall Chinese,"'387 Centre St.,Boston,MA,USA'",'A; C',42.3223129,-71.1095052
Aurum,"'377 Centre St.,Boston,MA,USA'",'A; C',42.3223843,-71.109111
Yong Kong,"'300 Centre St.,Boston,MA,USA'",'A; C',42.3227915,-71.1031217
Nos Casa Cafe,"'475 Dudley St.,Boston,MA,USA'",'A; C',42.323227,-71.0737345
Rita's Catering,"'5 Spectacle Island.,Boston,MA,USA'",'A; C',42.3244907,-70.985886
Priel's Restaurant Pizza & More,"'11 Blue Hill Ave.,Boston,MA,USA'",'A; C',42.3248554,-71.0755353
Ugi's Pizza,"'69 Heath St.,Boston,MA,USA'",'A; C',42.3265557,-71.1005364
Ugis Subs,"'62 Warren St.,Boston,MA,USA'",'A; C',42.3284871,-71.0831535
Roxbury Pizza And Sub Shop,"'258 Dudley St.,Boston,MA,USA'",'A; C',42.3286292,-71.0790261
Dudley Sq. Grill,"'152 Dudley St.,Boston,MA,USA'",'A; C',42.3287733,-71.0833525
Cafe Polonia,"'611 Dorchester Ave.,Boston,MA,USA'",'A; C',42.3288102,-71.0571358
Chinese Noodle,"'49 Warren St.,Boston,MA,USA'",'A; C',42.3291303,-71.0837041
Mario's Subs & Salad,"'28 Warren St.,Boston,MA,USA'",'A; C',42.329829,-71.083093
Landmark @ Longwood,"'63 Parker Hill Ave.,Boston,MA,USA'",'A; C',42.330361,-71.1091778
Deria Express Cafe,"'1127 Harrison Ave.,Boston,MA,USA'",'A; C',42.3304739,-71.0822502
Sports Connection Bar & Grill,"'560 Dorchester Ave.,Boston,MA,USA'",'A; C',42.330477,-71.056726
Butterfly Coffee,"'1420 Tremont St.,Boston,MA,USA'",'A; C',42.3309948,-71.0957835
Mirisola's,"'200 L Street St.,Boston,MA,USA'",'A; C',42.3313787,-71.0350207
L Street Tavern,"'195 L St.,Boston,MA,USA'",'A; C',42.3314779,-71.0352658
Mcdonalds,"'870 Massachusetts Ave.,Boston,MA,USA'",'A; C',42.3315457,-71.0703777
A K's Take Out & Delivery@Reggie Lewis Track,"'1350 Tremont St.,Boston,MA,USA'",'A; C',42.332043,-71.092873
Chacho's Pizza,"'1502 Tremont St.,Boston,MA,USA'",'A; C',42.3320856,-71.0992832
Dayib Cafe,"'722 Shawmut Ave.,Boston,MA,USA'",'A; C',42.3328079,-71.0832694
New Ho Toy,"'218 Old Colony Ave.,Boston,MA,USA'",'A; C',42.3328223,-71.0533779
Sushi Station,"'1562 Tremont St.,Boston,MA,USA'",'A; C',42.3329193,-71.1016992
Halal Indian Cuisine,"'724 Huntington Ave.,Boston,MA,USA'",'A; C',42.3338138,-71.1050647
Mission Bar & Grill,"'724 Huntington Ave.,Boston,MA,USA'",'A; C',42.3338138,-71.1050647
Flann O'Briens,"'1619 Tremont St.,Boston,MA,USA'",'A; C',42.3338714,-71.1033342
L Street Diner,"'108 L St.,Boston,MA,USA'",'A; C',42.3340503,-71.0350774
Penguin Pizza,"'735 Huntington Ave.,Boston,MA,USA'",'A; C',42.3341096,-71.1055062
Pizza Stop,"'851 Harrison Ave.,Boston,MA,USA'",'A; C',42.334734,-71.0756849
Squealing Pig,"'134 Smith St.,Boston,MA,USA'",'A; C',42.3347407,-71.1020904
Salsa's Mexican Grilled,"'118 Dorchester St.,Boston,MA,USA'",'A; C',42.3349683,-71.0461314
Pat's Place,"'15 Francis St.,Boston,MA,USA'",'A; C',42.3350583,-71.104784
Northeastern University/Cafe Crossing,"'1175 Tremont St.,Boston,MA,USA'",'A; C',42.33508,-71.0890631
The Paramount,"'667 E Broadway.,Boston,MA,USA'",'A; C',42.3354267,-71.0378526
Dunkin' Donuts No. 0311,"'818 Harrison Ave.,Boston,MA,USA'",'A; C',42.3357599,-71.0741126
Playwright Cafe',"'658 E Broadway.,Boston,MA,USA'",'A; C',42.3357924,-71.0380302
Stats Bar & Grille,"'77 Dorchester St.,Boston,MA,USA'",'A; C',42.3358155,-71.0453399
Andre's Cafe,"'809 Harrison Ave.,Boston,MA,USA'",'A; C',42.3358249,-71.0742595
Windmill Food Factory,"'429 W Broadway.,Boston,MA,USA'",'A; C',42.336264,-71.0474681
Peet's Coffee Shop,"'625 Huntington Ave.,Boston,MA,USA'",'A; C',42.3363287,-71.1004229
Boloco,"'1940 Beacon St.,Boston,MA,USA'",'A; C',42.3364038,-71.1500163
Chipotle Mexican Grill,"'1924 Beacon St.,Boston,MA,USA'",'A; C',42.3364626,-71.1497956
Shannon's Tavern Inc,"'558 East Third.,Boston,MA,USA'",'A; C',42.3364683,-71.0373222
Sunrise Restaurant,"'1033 Tremont.,Boston,MA,USA'",'A; C',42.336757,-71.085455
Good Eats Pizza,"'1002 Tremont St.,Boston,MA,USA'",'A; C',42.3368162,-71.0845822
Roggie's Pizzeria Inc.,"'356 Chestnut Hill Ave.,Boston,MA,USA'",'A; C',42.3368366,-71.1515823
Savory Truck,"'221 Longwood Ave.,Boston,MA,USA'",'A; C',42.3372871,-71.102142
Papa Johns Pizza,"'971 Tremont St.,Boston,MA,USA'",'A; C',42.3375105,-71.0840783
Dunkin Donuts,"'115 Forsyth.,Boston,MA,USA'",'A; C',42.3376143,-71.0902737
Hillside Cafe,"'21 St Thomas More Rd.,Boston,MA,USA'",'A; C',42.3380689,-71.1645259
Tsushi Inc.,"'340 Longwood Ave.,Boston,MA,USA'",'A; C',42.3382421,-71.1063943
Broadway's Best Pizza,"'321 W Broadway.,Boston,MA,USA'",'A; C',42.3382588,-71.0504274
Estragon,"'700 Harrison Ave.,Boston,MA,USA'",'A; C',42.3384294,-71.070359
Hidden Kitchen,"'535 Albany St.,Boston,MA,USA'",'A; C',42.3385421,-71.0670012
El Centro,"'474 Shawmut Ave.,Boston,MA,USA'",'A; C',42.3385858,-71.0761644
Gardner Museum Cafe,"'2 Palace Rd.,Boston,MA,USA'",'A; C',42.3386407,-71.0992243
Pret A Manger,"'354 Longwood Ave.,Boston,MA,USA'",'A; C',42.3389228,-71.1072958
Sepal,"'354 Longwood Av Ave.,Boston,MA,USA'",'A; C',42.3389228,-71.1072958
Souper Salad,"'364 Brookline Ave.,Boston,MA,USA'",'A; C',42.3389359,-71.1062813
Cluckit!,"'782A Tremont St.,Boston,MA,USA'",'A; C',42.3389495,-71.0805707
Discovery Cafe,"'3 Blackfan Ci.,Boston,MA,USA'",'A; C',42.3390285,-71.1042571
Parish Cafe,"'493 Massachusetts Ave.,Boston,MA,USA'",'A; C',42.3392655,-71.0808146
Au Bon Pain,"'360 Huntington Ave.,Boston,MA,USA'",'A; C',42.339348,-71.0881734
Broadway Pastry,"'258 W Broadway.,Boston,MA,USA'",'A; C',42.3393872,-71.0514865
Coffee Shop,"'11 Elkins St.,Boston,MA,USA'",'A; C',42.3395264,-71.0361388
Flik International @ Merck & Co.,"'33 Avenue Louis Pasteur.,Boston,MA,USA'",'A; C',42.3397401,-71.1032998
Stella,"'1525 Washington St.,Boston,MA,USA'",'A; C',42.3399397,-71.0724948
Doughboy Donuts & Deli,"'220 Dorchester Ave.,Boston,MA,USA'",'A; C',42.3401216,-71.0567598
Emmanuel College (Muddy River Cafe),"'400 Fenway.,Boston,MA,USA'",'A; C',42.3403687,-71.1016439
Dunkin Donuts/Scnvanos,"'440 Massachusetts Ave.,Boston,MA,USA'",'A; C',42.3407007,-71.0818232
Fast Eddie's,"'1696 Commonwealth Ave.,Boston,MA,USA'",'A; C',42.341217,-71.1465565
Moogy's Sandwich Shop Inc.,"'154 Chestnut Hill Ave.,Boston,MA,USA'",'A; C',42.3415176,-71.1541534
Boston Chops,"'1375 Washington St.,Boston,MA,USA'",'A; C',42.3416056,-71.0695851
Liam Foods,"'152 Chestnut Hill Ave.,Boston,MA,USA'",'A; C',42.3416229,-71.1542387
Panera Bread No. 1415,"'289 Huntington Ave.,Boston,MA,USA'",'A; C',42.341692,-71.086565
Mana Escondido Cafe,"'68 Pembroke St.,Boston,MA,USA'",'A; C',42.3416999,-71.0759794
Amrhein's,"'80 W Broadway.,Boston,MA,USA'",'A; C',42.3418392,-71.0551081
Shun's Kitchen,"'520 Columbus Ave.,Boston,MA,USA'",'A; C',42.3419137,-71.0797543
Yum Mee Garden,"'665 Tremont St.,Boston,MA,USA'",'A; C',42.3419525,-71.0758744
Five Horses Tavern,"'535 Columbus Ave.,Boston,MA,USA'",'A; C',42.3420288,-71.0803731
Vejigamtes Restaurant,"'57 W Dedham St.,Boston,MA,USA'",'A; C',42.3420446,-71.0729183
Pho And I Inc.,"'267 Huntington Ave.,Boston,MA,USA'",'A; C',42.3421921,-71.0861207
Thaitation,"'129 Jersey St.,Boston,MA,USA'",'A; C',42.3423236,-71.0970103
Alex Pizza,"'1252 Washington St.,Boston,MA,USA'",'A; C',42.3424487,-71.0675183
Red Mango(334 Mass. Ave.),"'334 Massachusetts Ave.,Boston,MA,USA'",'A; C',42.3425943,-71.0841727
Subway (334 Mass. Ave.),"'334 Massachusetts Ave.,Boston,MA,USA'",'A; C',42.3425943,-71.0841727
The Maiden,"'28 W Broadway.,Boston,MA,USA'",'A; C',42.3427415,-71.0564802
Franklin Cafe,"'278 Shawmut Ave.,Boston,MA,USA'",'A; C',42.3429145,-71.0689787
Ichiban Yakitori Sushi House,"'14 Westland Ave.,Boston,MA,USA'",'A; C',42.3432232,-71.0867397
Oishii Boston,"'1166 Washington St.,Boston,MA,USA'",'A; C',42.3432885,-71.0659986
La Catrina,"'1610 Commonwealth Ave.,Boston,MA,USA'",'A; C',42.3433941,-71.142574
Metropolis Cafe,"'574 Tremont St.,Boston,MA,USA'",'A; C',42.3434753,-71.0725594
The Kitchen,"'560 Tremont St.,Boston,MA,USA'",'A; C',42.343632,-71.0717782
Scola's Cafe,"'88 Black Falcon Ave.,Boston,MA,USA'",'A; C',42.3438801,-71.0241695
Addis Red Sea,"'540 Tremont St.,Boston,MA,USA'",'A; C',42.344054,-71.07097
New York Style Chicken And Pizza,"'67 Washington St.,Boston,MA,USA'",'A; C',42.3441028,-71.143306
Citizen Public House & Oyster Bar,"'1310 Boylston St.,Boston,MA,USA'",'A; C',42.344209,-71.097951
Pavement Coffeehouse,"'1330 Boylston St.,Boston,MA,USA'",'A; C',42.3444208,-71.0983795
Regina Pizzeria At Fenway,"'1330 Boylston St.,Boston,MA,USA'",'A; C',42.3444208,-71.0983795
Mumbai Spice,"'251 Massachusetts Ave.,Boston,MA,USA'",'A; C',42.344442,-71.086859
Yan's China Star,"'1102 Washington St.,Boston,MA,USA'",'A; C',42.3445276,-71.0656254
Sweet Cheeks,"'144 Brookline Ave.,Boston,MA,USA'",'A; C',42.3447204,-71.100834
Jimmy John's,"'409 D St.,Boston,MA,USA'",'A; C',42.344722,-71.0435059
Picco Restaurant,"'513 Tremont.,Boston,MA,USA'",'A; C',42.3448671,-71.0706344
Barcelona Restaurant,"'525 Tremont St.,Boston,MA,USA'",'A; C',42.3449647,-71.0707266
Saloniki,"'132 Brookline Ave.,Boston,MA,USA'",'A; C',42.3450649,-71.100462
Deli Of Course,"'451 D St.,Boston,MA,USA'",'A; C',42.3452433,-71.0418697
Sullivan's Restaurant,"'56 Union St.,Boston,MA,USA'",'A; C',42.345374,-71.1498671
Royal Rooters,"'41 Yawkey Wa.,Boston,MA,USA'",'A; C',42.3453941,-71.0982491
Pete's Dockside,"'12 Channel St.,Boston,MA,USA'",'A; C',42.3454016,-71.0368052
Colonnade Hotel,"'120 Huntington Ave.,Boston,MA,USA'",'A; C',42.3456194,-71.0809115
Dumpling Palace,"'179 Massachusetts Ave.,Boston,MA,USA'",'A; C',42.3457113,-71.0873138
Au Bon Pain (4Th Fl),"'133 Brookline Ave.,Boston,MA,USA'",'A; C',42.3457154,-71.1014625
Whole Foods Market,"'310 Harrison Ave.,Boston,MA,USA'",'A; C',42.3457244,-71.0628563
The Westin Boston Waterfront/Starbucks,"'425 Summer St.,Boston,MA,USA'",'A; C',42.3457313,-71.0435238
Pho Basil,"'177 Massachusetts Ave.,Boston,MA,USA'",'A; C',42.3458011,-71.0873574
Supreme Pizza,"'177 Massachusetts Ave.,Boston,MA,USA'",'A; C',42.3458011,-71.0873574
Left Field Pantry,"'4 Yawkey Wy.,Boston,MA,USA'",'A; C',42.3458436,-71.0987819
Pavillion Restaurant,"'4 Yawkey Wy.,Boston,MA,USA'",'A; C',42.3458436,-71.0987819
Tasty Burger,"'4 Yawkey.,Boston,MA,USA'",'A; C',42.3458436,-71.0987819
Bangkok City Restaurant,"'167 Massachusetts Ave.,Boston,MA,USA'",'A; C',42.346041,-71.0874756
Internal Matter,"'35 Channel Center St.,Boston,MA,USA'",'A; C',42.34636,-71.050548
Billy's Sub Shop,"'57 Berkeley St.,Boston,MA,USA'",'A; C',42.3466297,-71.0705299
Sol Azteca,"'914 Beacon St.,Boston,MA,USA'",'A; C',42.3466593,-71.1062658
Wink & Nod,"'3 Appleton St.,Boston,MA,USA'",'A; C',42.3467068,-71.069752
Teriyaki House,"'1106 Boylston St.,Boston,MA,USA'",'A; C',42.346773,-71.0885802
Rice Bowl,"'2 Hemenway St.,Boston,MA,USA'",'A; C',42.3468779,-71.0892521
Summer Shack,"'50 Dalton St.,Boston,MA,USA'",'A; C',42.3470597,-71.0856588
Boston Beer Works,"'61 Brookline Ave.,Boston,MA,USA'",'A; C',42.34718,-71.0991034
B Good Burger,"'1068 Boylston St.,Boston,MA,USA'",'A; C',42.34723,-71.0879901
Lorettas Last Call,"'1 Lansdowne St.,Boston,MA,USA'",'A; C',42.3473143,-71.0944726
Cask N Flagon,"'48 Brookline Ave.,Boston,MA,USA'",'A; C',42.347383,-71.097949
Towne,"'880 Boylston St.,Boston,MA,USA'",'A; C',42.34739,-71.084357
House Of Blues,"'35 Lansdowne St.,Boston,MA,USA'",'A; C',42.347401,-71.09615
Jillian's Billiard Club,"'145 Ipswich St.,Boston,MA,USA'",'A; C',42.3474016,-71.0944095
Tasty Burger Back Bay,"'145 Dartmouth St.,Boston,MA,USA'",'A; C',42.3474193,-71.0753102
Audubon,"'838 Beacon St.,Boston,MA,USA'",'A; C',42.347459,-71.10323
Charlie's Pizza & Cafe,"'177 Allston St.,Boston,MA,USA'",'A; C',42.3477438,-71.1383114
Bee's Knees Supply Company,"'1314 Commonwealth Ave.,Boston,MA,USA'",'A; C',42.348241,-71.134322
Mistral,"'221 Columbus Ave.,Boston,MA,USA'",'A; C',42.3482594,-71.072778
Storyville,"'47 Huntington Ave.,Boston,MA,USA'",'A; C',42.3482726,-71.0786234
Mcgreevys,"'911 Boylston St.,Boston,MA,USA'",'A; C',42.348458,-71.0844207
J. Pace & Son Uptown,"'225 Northern Ave.,Boston,MA,USA'",'A; C',42.3484606,-71.0387957
The Pour House,"'907 Boylston St.,Boston,MA,USA'",'A; C',42.348475,-71.0843264
Red Lantern,"'39 Stanhope St.,Boston,MA,USA'",'A; C',42.3484799,-71.0734982
The Friendly Toast,"'35 Stanhope St.,Boston,MA,USA'",'A; C',42.3484833,-71.0731343
Zocalo Cocina Mexicana,"'35 Stanhope St.,Boston,MA,USA'",'A; C',42.3484833,-71.0731343
The Brahmin,"'33 Stanhope St.,Boston,MA,USA'",'A; C',42.3484835,-71.0731338
Ittoku,"'1414 Commonwealth Ave.,Boston,MA,USA'",'A; C',42.3484854,-71.1390747
Paradise Bakery & Cafe,"'800 Boylston St.,Boston,MA,USA'",'A; C',42.348521,-71.0822975
Pizzeria Regina @ Prudential,"'800 Boylston St.,Boston,MA,USA'",'A; C',42.348521,-71.0822975
Sarku Japan,"'800 Boylston St.,Boston,MA,USA'",'A; C',42.348521,-71.0822975
Boston Common Hotel & Conference Center,"'40 Trinity Pl.,Boston,MA,USA'",'A; C',42.3485336,-71.0747603
Cafe 472,"'472 Commonwealth Ave.,Boston,MA,USA'",'A; C',42.3485415,-71.0936685
Eastern Standard,"'528 Commonwealth Ave.,Boston,MA,USA'",'A; C',42.3485498,-71.0960073
Mike And Patty's,"'12 Church St.,Boston,MA,USA'",'A; C',42.348561,-71.067924
Another Cup? Coffee House,"'1 Nassau St.,Boston,MA,USA'",'A; C',42.34858,-71.062941
Uni,"'370 Commonwealth Ave.,Boston,MA,USA'",'A; C',42.3485902,-71.0886984
Boston Living Center,"'29 Stanhope St.,Boston,MA,USA'",'A; C',42.3485979,-71.0730304
Select Oyster Bar,"'50 Gloucester St.,Boston,MA,USA'",'A; C',42.3485998,-71.084121
Mandarin Oriental Hotel,"'776 Boylston St.,Boston,MA,USA'",'A; C',42.3487748,-71.0813479
Scoozi,"'580 Commonwealth Ave.,Boston,MA,USA'",'A; C',42.3488004,-71.0995255
Chili Duck,"'829 Boylston St.,Boston,MA,USA'",'A; C',42.3489625,-71.0826117
Cafe Mirror,"'362 Washington St.,Boston,MA,USA'",'A; C',42.3489795,-71.1535835
Boca Grande Restaurant,"'366 Washington St.,Boston,MA,USA'",'A; C',42.3489906,-71.1538177
Sun-Ah's Cafe,"'501 Washington St.,Boston,MA,USA'",'A; C',42.3491026,-71.1610235
Tapeo Restaurant & Tapas Bar,"'266 Newbury St.,Boston,MA,USA'",'A; C',42.3491842,-71.0832045
Da Vinci,"'162 Columbus Ave.,Boston,MA,USA'",'A; C',42.3491877,-71.0706104
Peet's Coffee & Tea,"'795 Boylston St.,Boston,MA,USA'",'A; C',42.349188,-71.081725
Bain Capital (40Th Fl),"'200 Clarendon St.,Boston,MA,USA'",'A; C',42.3492166,-71.0751249
Guckenheimer @ B.R.E. @ Blue Glass Cafe,"'200 Clarendon St.,Boston,MA,USA'",'A; C',42.3492166,-71.0751249
Grill 23 And Bar,"'161 Berkeley St.,Boston,MA,USA'",'A; C',42.3492836,-71.0715196
Wabora,"'254 Newbury St.,Boston,MA,USA'",'A; C',42.349312,-71.0827414
Jim's Restaurant And Deli,"'371 Washington St.,Boston,MA,USA'",'A; C',42.3493184,-71.1540528
Happy Garden,"'377 Washington St.,Boston,MA,USA'",'A; C',42.3493239,-71.1542806
Bon Me No. 5,"'1 Citywide St.,Boston,MA,USA'",'A; C',42.3493824,-71.0777334
Boston Burger Company,"'1 Citywide St.,Boston,MA,USA'",'A; C',42.3493824,-71.0777334
Boston Trolly Dogs,"'1 Citywide St.,Boston,MA,USA'",'A; C',42.3493824,-71.0777334
Chili Mango & Lime Inc.,"'1 Citywide St.,Boston,MA,USA'",'A; C',42.3493824,-71.0777334
Clover Fast Food @Dwy No. 6,"'1 Citywide St.,Boston,MA,USA'",'A; C',42.3493824,-71.0777334
Clover Fast Food No. 5,"'1 Citywide St.,Boston,MA,USA'",'A; C',42.3493824,-71.0777334
Compliments Food Co.,"'1 Citywide St.,Boston,MA,USA'",'A; C',42.3493824,-71.0777334
Dragon Roll Grill,"'1 Citywide St.,Boston,MA,USA'",'A; C',42.3493824,-71.0777334
Fresh Food Generation,"'1 Citywide St.,Boston,MA,USA'",'A; C',42.3493824,-71.0777334
Kim Kim Bbq,"'1 Citywide St.,Boston,MA,USA'",'A; C',42.3493824,-71.0777334
Mediterranean Home Cooking,"'1 Citywide St.,Boston,MA,USA'",'A; C',42.3493824,-71.0777334
Meng's Kitchen,"'1 Citywide St.,Boston,MA,USA'",'A; C',42.3493824,-71.0777334
Momogoose 3,"'1 Citywide St.,Boston,MA,USA'",'A; C',42.3493824,-71.0777334
Momogoose 4,"'1 Citywide St.,Boston,MA,USA'",'A; C',42.3493824,-71.0777334
Posto,"'1 Citywide St.,Boston,MA,USA'",'A; C',42.3493824,-71.0777334
Rice Burg Inc.,"'1 Citywide St.,Boston,MA,USA'",'A; C',42.3493824,-71.0777334
Saigon Alley,"'1 Citywide St.,Boston,MA,USA'",'A; C',42.3493824,-71.0777334
Stoked Pizza Truck,"'1 Citywide St.,Boston,MA,USA'",'A; C',42.3493824,-71.0777334
Sweet Tomatoes Pizza,"'1 Citywide St.,Boston,MA,USA'",'A; C',42.3493824,-71.0777334
Tenoch Mexican,"'1 Citywide St.,Boston,MA,USA'",'A; C',42.3493824,-71.0777334
Tenoch Mexican Food,"'1 Citywide St.,Boston,MA,USA'",'A; C',42.3493824,-71.0777334
Teri-Yummy No. 2,"'1 Citywide St.,Boston,MA,USA'",'A; C',42.3493824,-71.0777334
Thompson Island Outward Bound,"'1 Citywide St.,Boston,MA,USA'",'A; C',42.3493824,-71.0777334
Walloon's,"'1 Citywide St.,Boston,MA,USA'",'A; C',42.3493824,-71.0777334
Cafeteria Boston,"'279 Newbury St.,Boston,MA,USA'",'A; C',42.3494005,-71.0840573
Casa Romero,"'30 Gloucester St.,Boston,MA,USA'",'A; C',42.3494385,-71.0845289
Bruegger's Bagel Bakery,"'644 Beacon St.,Boston,MA,USA'",'A; C',42.349488,-71.095561
Itadaki,"'269 Newbury St.,Boston,MA,USA'",'A; C',42.3495456,-71.0835907
Fins Sushi & Grill 2,"'636 Beacon St.,Boston,MA,USA'",'A; C',42.3495927,-71.0952724
Uno Chicago Grill,"'727 Boylston St.,Boston,MA,USA'",'A; C',42.3496017,-71.0802859
Shake Shack,"'234 Newbury St.,Boston,MA,USA'",'A; C',42.3496294,-71.0815446
Smith & Wollensky Of Boston,"'101 Arlington St.,Boston,MA,USA'",'A; C',42.3496357,-71.0700958
Piattini,"'226 Newbury St.,Boston,MA,USA'",'A; C',42.349711,-71.0812354
Chatime,"'251 Newbury St.,Boston,MA,USA'",'A; C',42.3497141,-71.0828756
Umai Japanese Restaurant,"'224 Newbury St.,Boston,MA,USA'",'A; C',42.3497304,-71.0811595
Dirty Water Dough Company,"'222 Newbury St.,Boston,MA,USA'",'A; C',42.3497421,-71.0810798
B.U.Dining Srvices-2Nd Fl.,"'100 Bay State Rd.,Boston,MA,USA'",'A; C',42.3497666,-71.0979066
Asta,"'47 Massachusetts Ave.,Boston,MA,USA'",'A; C',42.349808,-71.089298
Chopped & Topped 3Rd Fl.,"'800 Washington St.,Boston,MA,USA'",'A; C',42.3498323,-71.0632709
Scoozi (237 Newbury St.),"'237 Newbury St.,Boston,MA,USA'",'A; C',42.3498806,-71.0820826
La La Restaurant,"'792 Washington St.,Boston,MA,USA'",'A; C',42.3499298,-71.0638064
Lala Luncheonette Restaurant,"'792 Washington St.,Boston,MA,USA'",'A; C',42.3499298,-71.0638064
Liquid Art House,"'100 Arlington St.,Boston,MA,USA'",'A; C',42.3499842,-71.0695033
B. Good Burger,"'665 Boylston St.,Boston,MA,USA'",'A; C',42.3500162,-71.0787676
Sweetgreen,"'659 Boylston St.,Boston,MA,USA'",'A; C',42.3500262,-71.0786707
Scissors & Pie,"'225 Newbury St.,Boston,MA,USA'",'A; C',42.350036,-71.0816941
Corporate Chefs @ Tufts Food 4 Thot,"'141 Harrison Ave.,Boston,MA,USA'",'A; C',42.350049,-71.062269
Bangkok Blue Thai,"'651 Boylston St.,Boston,MA,USA'",'A; C',42.3500514,-71.0785019
Shanghai Gateway Restaurant,"'204 Harvard Ave.,Boston,MA,USA'",'A; C',42.3500749,-71.130372
Sofa Cafe,"'217 Newbury St.,Boston,MA,USA'",'A; C',42.3501281,-71.081372
Lolita Cocina & Tequila Bar,"'265 Dartmouth St.,Boston,MA,USA'",'A; C',42.3501476,-71.0773606
The Avenue Bar & Grill,"'1249 Commonwealth Ave.,Boston,MA,USA'",'A; C',42.350246,-71.132181
Ben & Jerry's,"'174 Newbury St.,Boston,MA,USA'",'A; C',42.3503123,-71.0790014
Olivia's Pizza,"'583 Washington St.,Boston,MA,USA'",'A; C',42.3503816,-71.1651565
Golden Leaf Restaurant,"'20 Hudson St.,Boston,MA,USA'",'A; C',42.3504126,-71.0599504
Rustic Kitchen,"'200 Stuart St.,Boston,MA,USA'",'A; C',42.3504148,-71.0674664
Hsin Hsin,"'25 Massachusetts Ave.,Boston,MA,USA'",'A; C',42.3504929,-71.0895951
Crossroads,"'495 Beacon St.,Boston,MA,USA'",'A; C',42.350536,-71.089788
Tavern Road,"'343 Congress St.,Boston,MA,USA'",'A; C',42.3505819,-71.0493809
Dig Inn,"'557 Boylston St.,Boston,MA,USA'",'A; C',42.3506317,-71.0760179
Tico,"'222 Berkeley St.,Boston,MA,USA'",'A; C',42.350667,-71.0731944
Quality Mart,"'21 Massachusetts Ave.,Boston,MA,USA'",'A; C',42.3506822,-71.0894076
Ga Ga Seafood Restaurant,"'23 Tyler St.,Boston,MA,USA'",'A; C',42.3507606,-71.0609684
Firehouse Subs,"'543 Boylston St.,Boston,MA,USA'",'A; C',42.350781,-71.07583
Souper Salad,"'209 Berkeley St.,Boston,MA,USA'",'A; C',42.3507943,-71.0722013
Habibi's Lounge,"'1213 Commonwealth Ave.,Boston,MA,USA'",'A; C',42.3508179,-71.1308899
Juice Republic,"'24 Kneeland St.,Boston,MA,USA'",'A; C',42.3508861,-71.061964
Oppa Sushi,"'185 Harvard Ave.,Boston,MA,USA'",'A; C',42.3508946,-71.1314754
Back Bay Sandwich,"'31 Saint James Ave.,Boston,MA,USA'",'A; C',42.3509525,-71.0715658
Fire & Ice,"'31 Saint James Ave.,Boston,MA,USA'",'A; C',42.3509525,-71.0715658
Maggiano's,"'4 Columbus Ave.,Boston,MA,USA'",'A; C',42.3510373,-71.0684935
Strip By Strega,"'50 Park Pz.,Boston,MA,USA'",'A; C',42.3510417,-71.0697049
Eurest Dining @Pearson Education,"'501 Boylston St.,Boston,MA,USA'",'A; C',42.3511519,-71.0745563
Dunkin Donuts,"'711 Atlantic Ave.,Boston,MA,USA'",'A; C',42.3511594,-71.0566553
M.J. O'Connor's,"'27 Columbus Ave.,Boston,MA,USA'",'A; C',42.3511635,-71.069033
163 Vietnamese Sandwich,"'66 Harrison Ave.,Boston,MA,USA'",'A; C',42.3511639,-71.0610014
Potluck Cafe,"'7 Knapp St.,Boston,MA,USA'",'A; C',42.3511642,-71.0620189
Metropolitan In Town Restaurant Bar,"'277 Dartmouth St.,Boston,MA,USA'",'A; C',42.3512052,-71.0776043
Hei La Moon Restaurant,"'88 Beach St.,Boston,MA,USA'",'A; C',42.3512123,-71.0588394
Suishaya Restaurant,"'2 Tyler St.,Boston,MA,USA'",'A; C',42.3512189,-71.0603762
Genki Ya Of Boston,"'232 Tremont St.,Boston,MA,USA'",'A; C',42.3512276,-71.0646281
Barlola,"'160 Commonwealth Ave.,Boston,MA,USA'",'A; C',42.3512626,-71.0786232
Montien Restaurant,"'63 Stuart St.,Boston,MA,USA'",'A; C',42.3512647,-71.0643936
Thai North Restaurant,"'433 Faneuil St.,Boston,MA,USA'",'A; C',42.351266,-71.1683908
Spicy World,"'7 Beach St.,Boston,MA,USA'",'A; C',42.351277,-71.0623298
Atlantic Beer Garden,"'146 Northern Ave.,Boston,MA,USA'",'A; C',42.3512898,-71.0437343
At Union,"'174 Harvard Ave.,Boston,MA,USA'",'A; C',42.3513239,-71.1312797
Intermission Tavern,"'228 Tremont St.,Boston,MA,USA'",'A; C',42.3513409,-71.0646239
Iron Wok (Unit F-3),"'8 Park Pz.,Boston,MA,USA'",'A; C',42.3513467,-71.0661306
New Golden Gate Restaurant,"'66 Beach St.,Boston,MA,USA'",'A; C',42.3513864,-71.0600285
New York Pizza,"'224 Tremont St.,Boston,MA,USA'",'A; C',42.3514513,-71.064616
Taiwan Cafe,"'34 Oxford St.,Boston,MA,USA'",'A; C',42.3514913,-71.0601279
Dumpling Gourmet,"'52 Beach St.,Boston,MA,USA'",'A; C',42.3515312,-71.0606578
Quic Pic Bbq,"'50 Beach St.,Boston,MA,USA'",'A; C',42.3515587,-71.06071
Ben And Jerry's,"'22 Park Pz.,Boston,MA,USA'",'A; C',42.3515639,-71.0690784
Rattlesnake Bar And Grill,"'382 Boylston.,Boston,MA,USA'",'A; C',42.3515845,-71.0720599
Doretta Taverna & Rawbar,"'79 Park Pz.,Boston,MA,USA'",'A; C',42.3516374,-71.0701231
Avana Market Place,"'40 Harrison Ave.,Boston,MA,USA'",'A; C',42.3516622,-71.0608976
Cafe De Lulu,"'40 Harrison Ave.,Boston,MA,USA'",'A; C',42.3516622,-71.0608976
The Juice Bar,"'40 Harrison Ave.,Boston,MA,USA'",'A; C',42.3516622,-71.0608976
Beard's Papa,"'31 Harrison Ave.,Boston,MA,USA'",'A; C',42.3517134,-71.0615759
Saray Restaurant,"'1104 Commonwealth Ave.,Boston,MA,USA'",'A; C',42.351724,-71.124503
Holly Crab,"'1098 Commonwealth Ave.,Boston,MA,USA'",'A; C',42.3517474,-71.1243956
Cosi,"'399 Boylston St.,Boston,MA,USA'",'A; C',42.3518126,-71.0721831
Cookin Cafe,"'1096 Commonwealth Ave.,Boston,MA,USA'",'A; C',42.3518199,-71.1242958
Auntie Anne's (No. Ma 110),"'700 Atlantic Ave.,Boston,MA,USA'",'A; C',42.351854,-71.0551404
Tavern Club,"'4 Boylston Pl.,Boston,MA,USA'",'A; C',42.351908,-71.066169
Blue State Coffee@957 Comm. Ave. Boston,"'957 Commonwealth Ave.,Boston,MA,USA'",'A; C',42.3519084,-71.1191032
Yada Yada Bakery Cafe,"'34 Farnsworth St.,Boston,MA,USA'",'A; C',42.3519565,-71.0483094
Parish Cafe,"'359 Boylston St.,Boston,MA,USA'",'A; C',42.3519619,-71.0716188
T's Pub,"'971 Commonwealth Ave.,Boston,MA,USA'",'A; C',42.3520071,-71.1192207
Sodexo @ Emerson - Little Bldg. (2Nd Fl.),"'80 Boylston St.,Boston,MA,USA'",'A; C',42.3520126,-71.0649292
Al's South St. Express,"'179 Essex St.,Boston,MA,USA'",'A; C',42.3520363,-71.0574236
Au Bon Pain Outdoor Cafe,"'310 Congress St.,Boston,MA,USA'",'A; C',42.3521088,-71.049538
K Town Chicken,"'136 Harvard Ave.,Boston,MA,USA'",'A; C',42.352165,-71.131591
Shabu Zen Restaurant,"'78 Brighton Ave.,Boston,MA,USA'",'A; C',42.352236,-71.129103
Fin's Sushi & Grill,"'62 Boylston St.,Boston,MA,USA'",'A; C',42.3522368,-71.0643915
Troquet,"'140 Boylston St.,Boston,MA,USA'",'A; C',42.35228,-71.0662003
Kung Fu Tea,"'125 Harvard Ave.,Boston,MA,USA'",'A; C',42.3522867,-71.1321838
Brown Sugar Cafe,"'1033 Commonwealth Ave.,Boston,MA,USA'",'A; C',42.352316,-71.1217099
Penang,"'687 Washington St.,Boston,MA,USA'",'A; C',42.3523178,-71.1714639
Chau Chow City,"'73 Essex.,Boston,MA,USA'",'A; C',42.3523875,-71.0604532
Whisky Saigon,"'116 Boylston St.,Boston,MA,USA'",'A; C',42.3524365,-71.0656654
Misono Wok,"'1 Brighton Ave.,Boston,MA,USA'",'A; C',42.3524485,-71.1254097
Smile Thai Noodle,"'1 Brighton Ave.,Boston,MA,USA'",'A; C',42.3524485,-71.1254097
Taj Boston,"'15 Arlington St.,Boston,MA,USA'",'A; C',42.3527933,-71.0715697
Rednecks Roast Beef/Cafe Miti,"'140 Brighton Ave.,Boston,MA,USA'",'A; C',42.3527942,-71.1318234
Bravo Pizza,"'160 Brighton Ave.,Boston,MA,USA'",'A; C',42.3528651,-71.132669
Habanero Mexican Grill Inc.,"'166 Brighton Ave.,Boston,MA,USA'",'A; C',42.3529176,-71.1328396
Brighton Music Hall,"'156 Brighton Ave.,Boston,MA,USA'",'A; C',42.353002,-71.1325069
Jo Jo Taipei,"'101 Brighton Ave.,Boston,MA,USA'",'A; C',42.3530206,-71.1302597
Carlos Cucina Italiana,"'131 Brighton Ave.,Boston,MA,USA'",'A; C',42.3531397,-71.131173
B.U. West Campus,"'278 Babcock St.,Boston,MA,USA'",'A; C',42.353185,-71.121724
Buk Kyung No. 2,"'151 Brighton Ave.,Boston,MA,USA'",'A; C',42.3531975,-71.1318318
Trade,"'520 Atlantic Ave.,Boston,MA,USA'",'A; C',42.353206,-71.052519
Taqueria El Carrizal,"'248 Brighton Ave.,Boston,MA,USA'",'A; C',42.3533232,-71.1364588
Myung Dong 1St Ave,"'90 Harvard Ave.,Boston,MA,USA'",'A; C',42.3533858,-71.1318899
B. Good,"'50 Northern Ave.,Boston,MA,USA'",'A; C',42.3534302,-71.0462
Boston Common Coffee Co.,"'10 High St.,Boston,MA,USA'",'A; C',42.3536531,-71.0566382
Caribe Restaurant,"'559 Washington St.,Boston,MA,USA'",'A; C',42.3537411,-71.0626898
Yoma,"'5 North Beacon St.,Boston,MA,USA'",'A; C',42.3537661,-71.1376103
Grasshopper Vegetarian,"'1 N Beacon St.,Boston,MA,USA'",'A; C',42.35377,-71.1374176
Pita Kabob,"'1 Avenue De Lafayette.,Boston,MA,USA'",'A; C',42.3538065,-71.0605953
Root,"'487 Cambridge St.,Boston,MA,USA'",'A; C',42.3538798,-71.137177
Thinking Cup L L C,"'165 Tremont St.,Boston,MA,USA'",'A; C',42.3539223,-71.0636921
Al Capone,"'80 Summer St.,Boston,MA,USA'",'A; C',42.3540196,-71.0580886
Deep Ellum,"'465 Cambridge St.,Boston,MA,USA'",'A; C',42.3540245,-71.1368443
China Garden,"'525 Washington St.,Boston,MA,USA'",'A; C',42.3542094,-71.062262
Bruegger's Bagel Bakery,"'211 Congress St.,Boston,MA,USA'",'A; C',42.3544778,-71.0554031
Uno Due Go,"'52 Summer St.,Boston,MA,USA'",'A; C',42.3545281,-71.0587412
Boston News Cafe (90 Arch St.),"'90 Arch St.,Boston,MA,USA'",'A; C',42.35473,-71.05837
Viga (133 Pearl Street),"'133 Pearl St.,Boston,MA,USA'",'A; C',42.3547502,-71.0538449
Slate,"'109 High St.,Boston,MA,USA'",'A; C',42.3547561,-71.0543288
49 Social,"'49 Temple Pl.,Boston,MA,USA'",'A; C',42.3548788,-71.0618519
Chacarero,"'93 Arch St.,Boston,MA,USA'",'A; C',42.355041,-71.059135
Brighton House Of Pizza,"'218 Market St.,Boston,MA,USA'",'A; C',42.3550683,-71.149556
Mcdonalds Restaurant,"'146 Tremont St.,Boston,MA,USA'",'A; C',42.3552331,-71.0630443
Cosi,"'125 High St.,Boston,MA,USA'",'A; C',42.3555144,-71.0530268
Tin Tin Buffet,"'200 N Beacon St.,Boston,MA,USA'",'A; C',42.3557107,-71.148189
Athan's European Bakery,"'407 Washington.,Boston,MA,USA'",'A; C',42.3559825,-71.0601915
Au Bon Pain Store No. 44,"'90 Oliver.,Boston,MA,USA'",'A; C',42.3559861,-71.0531144
Foumami,"'225 Franklin St.,Boston,MA,USA'",'A; C',42.3560286,-71.0540513
Black Seeds,"'131 Tremont St.,Boston,MA,USA'",'A; C',42.3560311,-71.0622121
Viga-The Deck @ Digitas Co.,"'33 Arch St.,Boston,MA,USA'",'A; C',42.3562466,-71.0585848
Dunkin Donuts,"'127 Tremont St.,Boston,MA,USA'",'A; C',42.3563498,-71.0617913
Earl Of Sandwich,"'1 Charles St.,Boston,MA,USA'",'A; C',42.3564175,-71.0694344
Sip,"'0 Post Office Sq.,Boston,MA,USA'",'A; C',42.3565705,-71.0564616
Bin 26 Enoteca,"'26 Charles St.,Boston,MA,USA'",'A; C',42.3567874,-71.0700772
Province Place,"'44 Province St.,Boston,MA,USA'",'A; C',42.3568718,-71.0599198
Julep Bar,"'200 High St.,Boston,MA,USA'",'A; C',42.3569184,-71.0519823
Oliver's St Cafe,"'260 Franklin St.,Boston,MA,USA'",'A; C',42.3569306,-71.0539547
Beacon Hill Hotel & Bistro,"'25 Charles St.,Boston,MA,USA'",'A; C',42.3569413,-71.069678
Caffe Bellavita,"'30 Charles St.,Boston,MA,USA'",'A; C',42.357008,-71.069878
Pedro's Tacos,"'53 Bromfield St.,Boston,MA,USA'",'A; C',42.357039,-71.0606422
Jane's Salad & Buffet,"'274 Franklin St St.,Boston,MA,USA'",'A; C',42.3570602,-71.0535947
Silvertone Bar & Grill,"'69 Bromfield St.,Boston,MA,USA'",'A; C',42.3570841,-71.0608912
Cosi,"'14 Milk St.,Boston,MA,USA'",'A; C',42.3571433,-71.0580011
Sabroso Taqueria,"'2 Oliver St.,Boston,MA,USA'",'A; C',42.3571721,-71.0543269
Fig's,"'42 Charles St.,Boston,MA,USA'",'A; C',42.3572133,-71.0702707
Barney Fannings,"'99 Broad St St.,Boston,MA,USA'",'A; C',42.3572672,-71.0526084
Ristorante Toscano Inc.,"'41 Charles St.,Boston,MA,USA'",'A; C',42.3573299,-71.070053
Corporate Chefs,"'2 Guest St.,Boston,MA,USA'",'A; C',42.3573821,-71.148315
Tossed,"'1 Post Office Sq.,Boston,MA,USA'",'A; C',42.3573955,-71.0564013
The Times Irish Pub & Restaurant,"'102 Broad St.,Boston,MA,USA'",'A; C',42.3574214,-71.0521544
Battery Park Restaurant & Lounge,"'31 Batterymarch St.,Boston,MA,USA'",'A; C',42.357561,-71.0541472
Scholars Restaurant,"'23 School St.,Boston,MA,USA'",'A; C',42.3575817,-71.0589405
Max's Deli Cafe,"'30 Batterymarch.,Boston,MA,USA'",'A; C',42.357627,-71.0540612
Bruegger's Bagel Bakery No. 274,"'7 School St.,Boston,MA,USA'",'A; C',42.3576286,-71.0585792
El Molino,"'71 Broad St.,Boston,MA,USA'",'A; C',42.3576822,-71.0537397
The Wheelhouse,"'65 Broad St.,Boston,MA,USA'",'A; C',42.357763,-71.05398
Pavia,"'82 Water St.,Boston,MA,USA'",'A; C',42.3577963,-71.0557607
Tatte Bakery & Cafe,"'70 Charles St.,Boston,MA,USA'",'A; C',42.3579841,-71.0706576
Boston Kebab House,"'44 Kilby St.,Boston,MA,USA'",'A; C',42.3581191,-71.0553215
Villa Mexico Cafe,"'41 Broad St.,Boston,MA,USA'",'A; C',42.3581834,-71.054381
Hungry I,"'71 Charles St.,Boston,MA,USA'",'A; C',42.3582002,-71.0702936
Subway,"'100 City Hall Pz.,Boston,MA,USA'",'A; C',42.3582252,-71.0590048
Hungry Traveler,"'27 Court Sq Sq.,Boston,MA,USA'",'A; C',42.3583605,-71.0594635
Nino's Pizza,"'79 Charles St.,Boston,MA,USA'",'A; C',42.3583975,-71.0704125
University Of Massachusetts Club,"'1 Beacon St.,Boston,MA,USA'",'A; C',42.3584444,-71.0608393
Fill A Buster,"'130 Bowdoin St.,Boston,MA,USA'",'A; C',42.3586454,-71.062482
Artu,"'89 Charles St.,Boston,MA,USA'",'A; C',42.3586573,-71.0704304
Central Wharf Co.,"'160 Milk St.,Boston,MA,USA'",'A; C',42.358711,-71.052768
State Street Express @Mbta State St. Line,"'208 Washington St.,Boston,MA,USA'",'A; C',42.358724,-71.057485
New England Aquarium Corp.,"'250 Atlantic Ave.,Boston,MA,USA'",'A; C',42.3587718,-71.0515526
Bailey & Sage,"'103 State St.,Boston,MA,USA'",'A; C',42.3589479,-71.0550961
Sterlings,"'60 State St.,Boston,MA,USA'",'A; C',42.35903,-71.05646
Bostonia Public House,"'131 State St.,Boston,MA,USA'",'A; C',42.3590653,-71.0542192
Pressed,"'120 Charles St.,Boston,MA,USA'",'A; C',42.359225,-71.070989
Primo's Restaurant,"'28 Myrtle St.,Boston,MA,USA'",'A; C',42.3592257,-71.065573
State Street Sushi,"'92 State St.,Boston,MA,USA'",'A; C',42.3592347,-71.055331
Nunzio's Pizzeria,"'195 State St.,Boston,MA,USA'",'A; C',42.3593074,-71.0526554
Bon Me Foods,"'100 City Hall Pz.,Boston,MA,USA'",'A; C',42.3594493,-71.0588576
Sissy K's,"'6 Commercial.,Boston,MA,USA'",'A; C',42.3595844,-71.0537803
Anthem,"'100-199 Faneuil Hall Market Pl.,Boston,MA,USA'",'A; C',42.3597994,-71.0544602
Boston Kitchen,"'300 Faneuil Hall Market Pl.,Boston,MA,USA'",'A; C',42.3597994,-71.0544602
Boston Pretzel Bakery,"'200 Faneuil Hall Market Pl.,Boston,MA,USA'",'A; C',42.3597994,-71.0544602
Carol Ann Bake Shop,"'200 Faneuil Hall Market Pl.,Boston,MA,USA'",'A; C',42.3597994,-71.0544602
Dog House,"'300 Faneuil Hall Market Pl.,Boston,MA,USA'",'A; C',42.3597994,-71.0544602
Gourmet India,"'200 Faneuil Hall Market Pl.,Boston,MA,USA'",'A; C',42.3597994,-71.0544602
Megumi Of Japan,"'300 Faneuil Hall Market Pl.,Boston,MA,USA'",'A; C',42.3597994,-71.0544602
Mija Cantina And Tequila Bar,"'200 Faneuil Hall Market Pl.,Boston,MA,USA'",'A; C',42.3597994,-71.0544602
New York Deli,"'300 Faneuil Hall Market Pl.,Boston,MA,USA'",'A; C',42.3597994,-71.0544602
West End Strollers,"'300 Faneuil Hall Market Pl.,Boston,MA,USA'",'A; C',42.3597994,-71.0544602
Grotto,"'37 Bowdoin St.,Boston,MA,USA'",'A; C',42.3599106,-71.0631238
Larry J's Bbq Cafe,"'.,Boston,MA,USA'",'A; C',42.3600825,-71.0588801
The Kinsale Irish Pub & Rest.,"'1 Center Plaza.,Boston,MA,USA'",'A; C',42.3600953,-71.0604624
Red Barn Coffee Roasters (Fhsq.),"'1 Faneuil Hall Sq.,Boston,MA,USA'",'A; C',42.3601334,-71.055555
Boston Marriott Longwharf,"'296 State St.,Boston,MA,USA'",'A; C',42.360179,-71.050786
Tia's Waterfront,"'200 Atlantic Ave.,Boston,MA,USA'",'A; C',42.3602462,-71.0513006
Double Tree Guest Suites,"'400 Soldiers Field Rd.,Boston,MA,USA'",'A; C',42.3602825,-71.1182186
King And I Corp.,"'145 Charles St.,Boston,MA,USA'",'A; C',42.3603664,-71.070602
Beacon Hill Pub,"'149 Charles St.,Boston,MA,USA'",'A; C',42.3604536,-71.0706058
Blackstone Grill,"'15 Union St.,Boston,MA,USA'",'A; C',42.36085,-71.056624
Hulun Beir,"'326 Cambridge St.,Boston,MA,USA'",'A; C',42.3609039,-71.0692599
Canton House,"'6 Hancock St.,Boston,MA,USA'",'A; C',42.3609425,-71.0645337
Hard Rock Cafe,"'20 Clinton St.,Boston,MA,USA'",'A; C',42.3609838,-71.0548721
Ma Maison,"'272 Cambridge St.,Boston,MA,USA'",'A; C',42.3609838,-71.0680064
Cafe Podima,"'156 Cambridge St.,Boston,MA,USA'",'A; C',42.3609887,-71.0647402
Seoul,"'156 Cambridge St.,Boston,MA,USA'",'A; C',42.3609887,-71.0647402
Subway (138 Cambridge St.),"'138 Cambridge St.,Boston,MA,USA'",'A; C',42.361006,-71.0639386
Emz Pizza And Ice Cream,"'5 Bowdoin St.,Boston,MA,USA'",'A; C',42.3610523,-71.0628896
Garden Halal Restaurant,"'96 Blackstone St.,Boston,MA,USA'",'A; C',42.361436,-71.05641
Bell In Hand,"'45 Union St.,Boston,MA,USA'",'A; C',42.3615117,-71.0570445
The Point,"'145 Hanover St.,Boston,MA,USA'",'A; C',42.3616069,-71.0570538
Scampo,"'215 Charles St.,Boston,MA,USA'",'A; C',42.3620694,-71.070207
Dunkin Donuts/Bee Fine Foods,"'50 Sudbury.,Boston,MA,USA'",'A; C',42.3622409,-71.0596616
Maki Maki,"'304 Western Ave.,Boston,MA,USA'",'A; C',42.3627085,-71.1363348
Tresca,"'233 Hanover.,Boston,MA,USA'",'A; C',42.3629794,-71.0549807
Harborside Cafe,"'1 Harborside Dr.,Boston,MA,USA'",'A; C',42.3630514,-71.0258031
Riccardo's Ristorante,"'175 North St.,Boston,MA,USA'",'A; C',42.3632013,-71.0537402
Cuppacoffee,"'1 Merrimac St.,Boston,MA,USA'",'A; C',42.3632127,-71.0598292
Neptune Restaurant,"'63 Salem St.,Boston,MA,USA'",'A; C',42.3632374,-71.0559528
The Breakfast Club,"'270 Western Ave.,Boston,MA,USA'",'A; C',42.363254,-71.1336185
Mare,"'135 Richmond.,Boston,MA,USA'",'A; C',42.3632722,-71.0541008
Pauli's,"'65 Salem St.,Boston,MA,USA'",'A; C',42.3632776,-71.0558927
Vito's,"'54 Salem St.,Boston,MA,USA'",'A; C',42.3632809,-71.0563061
Tenoch Mexican,"'3 Lewis St.,Boston,MA,USA'",'A; C',42.3632851,-71.0518525
Modern Pastry Shop I I,"'261 Hanover St.,Boston,MA,USA'",'A; C',42.3633302,-71.0547308
Ernestos Pizza,"'69 Salem St.,Boston,MA,USA'",'A; C',42.363355,-71.0558269
The Boxer Dba Finch,"'105 Merrimac St.,Boston,MA,USA'",'A; C',42.3636332,-71.0620051
Domino's Pizza,"'110 Staniford St.,Boston,MA,USA'",'A; C',42.3636493,-71.0636009
Galleria Umberto,"'287 Hanover St.,Boston,MA,USA'",'A; C',42.3636813,-71.0543314
Au Bon Pain,"'101 Merrimac St.,Boston,MA,USA'",'A; C',42.363848,-71.0616697
Gelateria,"'270 Hanover St.,Boston,MA,USA'",'A; C',42.363849,-71.054714
Carmelina's North End,"'307 Hanover St.,Boston,MA,USA'",'A; C',42.3638797,-71.054108
The Grand Canal,"'57 Canal St.,Boston,MA,USA'",'A; C',42.3638947,-71.0591423
Cafe Pompei,"'280 Hanover St.,Boston,MA,USA'",'A; C',42.3639326,-71.0545565
Mariner's House,"'9 North Sq.,Boston,MA,USA'",'A; C',42.363938,-71.053774
Starbucks Coffee No. 7550,"'2 Atlantic Ave.,Boston,MA,USA'",'A; C',42.3639724,-71.0502895
Anthony's Cafe,"'252 Commercial St.,Boston,MA,USA'",'A; C',42.363993,-71.0513662
Benevento's,"'111 Salem St.,Boston,MA,USA'",'A; C',42.3642823,-71.055398
Four Winds,"'266 Commercial St.,Boston,MA,USA'",'A; C',42.364317,-71.051351
Porters Bar & Grill,"'173 Portland St.,Boston,MA,USA'",'A; C',42.3643811,-71.0615221
The Causeway,"'65 Causeway St.,Boston,MA,USA'",'A; C',42.3644537,-71.0626214
Mcgann's Boston,"'197 Portland St.,Boston,MA,USA'",'A; C',42.3645123,-71.0617311
Volle Nolle,"'349 Hanover St.,Boston,MA,USA'",'A; C',42.364544,-71.053495
The Greatest Bar,"'262 Friend St.,Boston,MA,USA'",'A; C',42.3645594,-71.061447
Assaggio Restaurant,"'25 Prince St.,Boston,MA,USA'",'A; C',42.364571,-71.054175
Asian Too Express,"'200 Logan Airport Trmnl B.,Boston,MA,USA'",'A; C',42.3645818,-71.0195813
Dunkin Donuts-Amer Airlines/Landside,"'200 Logan Airport Trmnl B.,Boston,MA,USA'",'A; C',42.3645818,-71.0195813
Mcdonalds,"'200 Logan Airport Trmnl B.,Boston,MA,USA'",'A; C',42.3645818,-71.0195813
Giacomo's,"'353 Hanover St.,Boston,MA,USA'",'A; C',42.364588,-71.053445
La Summa,"'26 Fleet St.,Boston,MA,USA'",'A; C',42.364683,-71.052554
Hurricane O'Reilly's,"'144 Canal St.,Boston,MA,USA'",'A; C',42.364764,-71.060743
Strega Caffe & Pizzeria,"'371 Hanover St.,Boston,MA,USA'",'A; C',42.364888,-71.0531419
Mangia Mangia,"'145 Endicott St.,Boston,MA,USA'",'A; C',42.3649988,-71.0572936
Half Time,"'113 Causeway St.,Boston,MA,USA'",'A; C',42.3651242,-71.0617438
Tavern In The Square Restaurant (North Station),"'96 Beverly St.,Boston,MA,USA'",'A; C',42.3653207,-71.0595029
Maurizio's,"'364 Hanover St.,Boston,MA,USA'",'A; C',42.3653468,-71.0532754
Sals Lunch,"'31 Thacher St.,Boston,MA,USA'",'A; C',42.3653798,-71.0580158
Il Molo,"'326 Commercial St.,Boston,MA,USA'",'A; C',42.3654212,-71.0510982
Amici,"'111 N Washington St.,Boston,MA,USA'",'A; C',42.3655881,-71.0581531
La Sanghita Cafe,"'389 Maverick St.,Boston,MA,USA'",'A; C',42.3657001,-71.0290391
My Cousin's Place,"'396 Hanover St.,Boston,MA,USA'",'A; C',42.3660152,-71.0529647
Spangler Student Center,"'1 Soldiers Field Rd.,Boston,MA,USA'",'A; C',42.3660316,-71.1200467
Boston Beer Works (Pier B),"'300 Logan Airport Trmnl C.,Boston,MA,USA'",'A; C',42.3660751,-71.020461
Currito Burrito,"'300 Logan Airport Trmnl C.,Boston,MA,USA'",'A; C',42.3660751,-71.020461
Dunkin Donuts(Satellite),"'100 Logan Airport Trmnl A.,Boston,MA,USA'",'A; C',42.3660751,-71.020461
Game-On,"'100 Logan Airport Trmnl A.,Boston,MA,USA'",'A; C',42.3660751,-71.020461
Host-Wolfgang Pucks-Gate 28,"'300 Logan Airport Trmnl C.,Boston,MA,USA'",'A; C',42.3660751,-71.020461
Philips Seafood Express,"'100 Logan Airport Trmnl A.,Boston,MA,USA'",'A; C',42.3660751,-71.020461
U Food Grill,"'300 Logan Airport Trmnl C.,Boston,MA,USA'",'A; C',42.3660751,-71.020461
The Clubs @ Charles River Park,"'10 Whittier Pl.,Boston,MA,USA'",'A; C',42.3661781,-71.0673665
T D Garden Paulaner,"'100 Legends Wa.,Boston,MA,USA'",'A; C',42.3664872,-71.0621057
Mehak Restaurant,"'329 Sumner St.,Boston,MA,USA'",'A; C',42.367151,-71.0361059
Dozzi,"'336 Sumner St.,Boston,MA,USA'",'A; C',42.3672918,-71.0357119
Dunkin Donuts,"'60 Everett St.,Boston,MA,USA'",'A; C',42.368084,-71.035494
Sbarro Restaurant Trmnl E,"'500 Logan Airport Trmnl E.,Boston,MA,USA'",'A; C',42.3685769,-71.0228005
Burger King,"'1 Maverick Sq.,Boston,MA,USA'",'A; C',42.3688447,-71.0393285
Museum Of Science,"'10 Charles River Dm.,Boston,MA,USA'",'A; C',42.3689602,-71.0727644
Hong Kong Harbour,"'5 Maverick Sq.,Boston,MA,USA'",'A; C',42.369105,-71.0397288
La Cancun,"'190H Sumner St.,Boston,MA,USA'",'A; C',42.3692139,-71.0402367
Deparma,"'182 Sumner St.,Boston,MA,USA'",'A; C',42.369298,-71.040332
Honey Dew Donuts,"'14 Maverick Sq.,Boston,MA,USA'",'A; C',42.3693688,-71.03978
Cafeteria Y Pizzaria Mi Columbia,"'50 Maverick Sq.,Boston,MA,USA'",'A; C',42.3701731,-71.0386794
Sun Pizza,"'46 Washington St.,Boston,MA,USA'",'A; C',42.3731132,-71.0653584
Topasio Restaurant,"'120 Meridian St.,Boston,MA,USA'",'A; C',42.3734868,-71.0392746
La Hacienda Restaurant Bar,"'148 Meridian St.,Boston,MA,USA'",'A; C',42.3739817,-71.0392559
Los Arrieros Rest,"'13 Meridian St.,Boston,MA,USA'",'A; C',42.3746025,-71.0388971
Bohemios Restaurant,"'30 Bennington St.,Boston,MA,USA'",'A; C',42.3754004,-71.0379654
Dunkin Donuts,"'31 Wm C Kelly Sq.,Boston,MA,USA'",'A; C',42.375451,-71.038758
Pollos A La Brasa Beto's,"'69 Bennington St.,Boston,MA,USA'",'A; C',42.3756984,-71.0363952
American Bakers,"'39 First Ave.,Boston,MA,USA'",'A; C',42.375751,-71.053617
Tacomania Restaurant,"'244 Meridian St.,Boston,MA,USA'",'A; C',42.375932,-71.03935
Los Pinos Restaurante Mexican Grill,"'82 Bennington St St.,Boston,MA,USA'",'A; C',42.376104,-71.0360503
Kelley's Sq. Pub,"'84 Bennington St.,Boston,MA,USA'",'A; C',42.3762236,-71.0356917
149 Eat Street,"'300 Chelsea St.,Boston,MA,USA'",'A; C',42.376682,-71.031214
Saigon Hut,"'305 Meridian St.,Boston,MA,USA'",'A; C',42.377295,-71.0389546
Saigon Restaurant,"'305 Meridian St.,Boston,MA,USA'",'A; C',42.377295,-71.0389546
Rinconcito Salvadoreno,"'313 Meridian St.,Boston,MA,USA'",'A; C',42.3774792,-71.0389583
Speedy Chen's Chinese Restaurant,"'289 Main St.,Boston,MA,USA'",'A; C',42.3776365,-71.0671835
La Chiva Restaurant,"'259 Bennington St.,Boston,MA,USA'",'A; C',42.3782543,-71.0295409
Canton Eatery,"'339 Meridian St.,Boston,MA,USA'",'A; C',42.3783076,-71.0390041
Angela's Cafe,"'131 Lexington St.,Boston,MA,USA'",'A; C',42.3785276,-71.034964
Cabana Grill,"'254 Bennington St.,Boston,MA,USA'",'A; C',42.3786093,-71.0293626
Pueblo Viejo,"'309 Bennington St.,Boston,MA,USA'",'A; C',42.378876,-71.0278534
La Frontera Restaurant,"'290 Bennington St.,Boston,MA,USA'",'A; C',42.3790294,-71.0286006
Chinese Dragon,"'380 Chelsea St.,Boston,MA,USA'",'A; C',42.3793607,-71.0281209
Tipico Dominicano,"'382 Chelsea St.,Boston,MA,USA'",'A; C',42.3794265,-71.0279655
Elite Donut Shop,"'350 Bennington St.,Boston,MA,USA'",'A; C',42.3794841,-71.0267209
Jeveli's,"'387 Chelsea St.,Boston,MA,USA'",'A; C',42.3795667,-71.0271973
Frio Rico,"'360 Bennington St.,Boston,MA,USA'",'A; C',42.3798566,-71.0265622
Bar Medallo,"'411 Chelsea St.,Boston,MA,USA'",'A; C',42.3799331,-71.0268545
Dacoopa Sub & Pizza,"'474 Saratoga St.,Boston,MA,USA'",'A; C',42.3801485,-71.0272637
Rita's Catering,"'500 Rutherford Ave.,Boston,MA,USA'",'A; C',42.3811262,-71.0724657
Jenny's Pizza,"'320 Medford St.,Boston,MA,USA'",'A; C',42.3812542,-71.0630123
Dunkin Donuts Space No. 52,"'300 Terminal Rd.,Boston,MA,USA'",'A; C',42.3816454,-71.0553531
Host-John Rockets-Gate 28,"'300 Terminal Rd.,Boston,MA,USA'",'A; C',42.3816454,-71.0553531
Sbarro Restaurant (Trmnl C Food Court),"'300 Terminal Rd.,Boston,MA,USA'",'A; C',42.3816454,-71.0553531
Villa Specialties,"'300 Terminal Rd.,Boston,MA,USA'",'A; C',42.3816454,-71.0553531
Fresh City,"'100 Terminal Rd.,Boston,MA,USA'",'A; C',42.3828972,-71.0553676
Market Fresh Kitchen,"'100 Terminal Rd.,Boston,MA,USA'",'A; C',42.3828972,-71.0553676
Cosi American,"'200 Terminal Rd.,Boston,MA,USA'",'A; C',42.3831476,-71.0499464
U Food Grill,"'200 Terminal Rd.,Boston,MA,USA'",'A; C',42.3831476,-71.0499464
Woodys Pizza,"'1035 Saratoga St.,Boston,MA,USA'",'A; C',42.3859629,-71.0053609
Little Asia Restaurant,"'991 Bennington St.,Boston,MA,USA'",'A; C',42.3863639,-71.0070896
Cafe Orient Heights,"'1000 Bennington St.,Boston,MA,USA'",'A; C',42.3868857,-71.0068836
El Kiosco,"'972 Saratoga St.,Boston,MA,USA'",'A; C',42.3871163,-71.007631
Napoles,"'1233 Bennington St.,Boston,MA,USA'",'A; C',42.3898965,-70.9967248
Madonna Shrine,"'145 Gladstone St.,Boston,MA,USA'",'A; C',42.390074,-71.00558
Pho Hoa Restaurant Ii Inc.,"'19 Beach.,Boston,MA,USA'",'A; C',42.4060888,-71.0138508