Name,Address,Grades,Latitude,Longitude 
Pasta Beach,"'30 Rowes Wh.,Boston,MA,USA'",'A; C',42.3566931,-71.0502273
Destino's Pizza,"'1505 Hyde Park Ave.,Boston,MA,USA'",'A; C',42.2474357,-71.1280642
Cavan Cafe,"'1406 Hyde Park Ave.,Boston,MA,USA'",'A; C',42.2506177,-71.1257549
Bean And Cream Co.,"'676 Truman Pw.,Boston,MA,USA'",'A; C',42.2522088,-71.1183164
The Briar Rose,"'1300 Hyde Park Ave.,Boston,MA,USA'",'A; C',42.2540941,-71.1240994
The Fairmount Grille,"'81 Fairmount Ave.,Boston,MA,USA'",'A; C',42.2544699,-71.1201691
Tommy's Pizzeria,"'10 Fairmount Ave.,Boston,MA,USA'",'A; C',42.2557648,-71.1208532
Wingz N Tingz,"'10 Fairmount Ave.,Boston,MA,USA'",'A; C',42.2557648,-71.1208532
Papa Gino's,"'1270 River St.,Boston,MA,USA'",'A; C',42.255831,-71.1239756
Talk And Wok Cafe,"'1277 River St.,Boston,MA,USA'",'A; C',42.2559973,-71.1243452
New York Fried Chicken (1251 River St.),"'1251 River St.,Boston,MA,USA'",'A; C',42.2560177,-71.1234738
Salamander's Cafe,"'1231 River St.,Boston,MA,USA'",'A; C',42.2560654,-71.1229331
20Th Centry Bowling Lanes,"'1231 Hyde Park Ave.,Boston,MA,USA'",'A; C',42.256814,-71.124124
Little Haiti International Cusine,"'1184 Hyde Park Ave.,Boston,MA,USA'",'A; C',42.2583765,-71.1233495
Common Ground,"'83 Harvard Ave.,Boston,MA,USA'",'A; C',42.2593578,-71.1222014
D Coal Pot,"'984 Hyde Park Ave.,Boston,MA,USA'",'A; C',42.2661882,-71.1210382
Papa John Pizza,"'522 River St.,Boston,MA,USA'",'A; C',42.2672641,-71.0943402
Right Taste Jamaican Restaurant,"'522 River St.,Boston,MA,USA'",'A; C',42.2672641,-71.0943402
Dunkin Donuts(Wolcott Sq. Llc),"'942 Hyde Park Ave.,Boston,MA,USA'",'A; C',42.2675117,-71.1198082
Burger King,"'885 Cummins Hw.,Boston,MA,USA'",'A; C',42.2682237,-71.0957798
La Belle Creole Cuisine,"'473 River St.,Boston,MA,USA'",'A; C',42.2682553,-71.0929787
Las Vegas Express Restaurant,"'1592 Blue Hill Ave.,Boston,MA,USA'",'A; C',42.269582,-71.092955
Chinatown Express Inc.,"'79 River St.,Boston,MA,USA'",'A; C',42.2712867,-71.073871
River Street Grill,"'73 River St.,Boston,MA,USA'",'A; C',42.2715688,-71.0736552
Spukies Pizza Restaurant,"'1159 Washington St.,Boston,MA,USA'",'A; C',42.2722234,-71.0688659
Kapow,"'2257 Dorchester Ave.,Boston,MA,USA'",'A; C',42.2733888,-71.0679964
Boston House Of Pizza,"'940 Amer Legion Hw.,Boston,MA,USA'",'A; C',42.275699,-71.1144068
Nick's,"'4590 Washington St.,Boston,MA,USA'",'A; C',42.2762785,-71.1388756
Al-Wadi Restaurant,"'1249 Vfw Pw.,Boston,MA,USA'",'A; C',42.2772399,-71.1726342
Carney Hospital,"'2100 Dorchester Ave.,Boston,MA,USA'",'A; C',42.2774856,-71.0657391
Top Of The Hill,"'1357 Blue Hill Ave.,Boston,MA,USA'",'A; C',42.2774936,-71.0937194
Delicia Dominicanas,"'635 Hyde Park Ave.,Boston,MA,USA'",'A; C',42.2785883,-71.1194591
La Lechonera Restaurant,"'342 Cummins Hw.,Boston,MA,USA'",'A; C',42.2788124,-71.1160201
Mandarin House Restaurant,"'633 Hyde Park Ave.,Boston,MA,USA'",'A; C',42.2788202,-71.1194125
No. 1 Chinese Restaurant,"'914 Morton St.,Boston,MA,USA'",'A; C',42.280738,-71.0832208
La Belle Capoise Restaurant,"'884 Morton St.,Boston,MA,USA'",'A; C',42.2810398,-71.0847844
Golden House (Washington St.),"'4403 Washington St.,Boston,MA,USA'",'A; C',42.2816479,-71.133677
Irie Jamaican Style Restaurant,"'851 Washington St.,Boston,MA,USA'",'A; C',42.2818924,-71.0714153
Florian Restaurant,"'55 Hallet St.,Boston,MA,USA'",'A; C',42.282408,-71.0476681
China Sky Restaurant,"'782 Adams St.,Boston,MA,USA'",'A; C',42.2830526,-71.0556179
Popeyes Chicken & Biscuit,"'690 American Legion Hw.,Boston,MA,USA'",'A; C',42.2831756,-71.1123491
Handy's Cafe,"'781 Adams St.,Boston,MA,USA'",'A; C',42.2833223,-71.05575
Five Star Pizza & Grill,"'614 Gallivan Bl.,Boston,MA,USA'",'A; C',42.2835929,-71.0507928
Dunkin Donuts/Gallivan,"'719 Gallivan Bl.,Boston,MA,USA'",'A; C',42.2838949,-71.0462486
Sonny's Restaurant,"'750 Adams St.,Boston,MA,USA'",'A; C',42.2839564,-71.0552601
Flat Black Coffee Company,"'1906 Dorchester Ave.,Boston,MA,USA'",'A; C',42.2842699,-71.064477
Masona Grill,"'2 Corey St.,Boston,MA,USA'",'A; C',42.2845521,-71.1551746
Perla Del Sur Quintanilla,"'454 Hyde Park Ave.,Boston,MA,USA'",'A; C',42.2849922,-71.1186896
Dunkin Donuts,"'1931 Dorchester Ave.,Boston,MA,USA'",'A; C',42.2849977,-71.0648438
Little Caesars,"'628 American Legion Hw.,Boston,MA,USA'",'A; C',42.2851238,-71.1099606
Flames Restaurant,"'663 Morton St.,Boston,MA,USA'",'A; C',42.2852152,-71.0933008
Sticky Rice Cafe,"'1894 Centre St.,Boston,MA,USA'",'A; C',42.2853807,-71.1558482
Nick's Pizza And Seafood,"'1143 Blue Hill Ave.,Boston,MA,USA'",'A; C',42.285507,-71.0913105
Eat With Jack O'Neill,"'1883 Centre St.,Boston,MA,USA'",'A; C',42.285955,-71.155876
Westbury Restaurant,"'1836 Centre St.,Boston,MA,USA'",'A; C',42.2862754,-71.1537772
Sophia's Grotto,"'18 Corinth St.,Boston,MA,USA'",'A; C',42.2864206,-71.1301665
Dragon Chef East,"'4198 Washington St.,Boston,MA,USA'",'A; C',42.2868612,-71.1273403
Nu Flav Restaurant,"'1098 Blue Hill Ave.,Boston,MA,USA'",'A; C',42.286903,-71.0902009
Napper Tandys,"'4187 Washington St.,Boston,MA,USA'",'A; C',42.2873883,-71.1271248
Himayalan Bistro,"'1735 Centre St.,Boston,MA,USA'",'A; C',42.2874107,-71.1497721
The Porter Cafe,"'1723 Centre St.,Boston,MA,USA'",'A; C',42.2874218,-71.1492162
Stalex Restaurant,"'140 Norfolk St.,Boston,MA,USA'",'A; C',42.287737,-71.0779412
Roslindale House Of Pizza,"'4168 Washington St.,Boston,MA,USA'",'A; C',42.2878541,-71.1264285
Checkmate Cafe,"'900 South.,Boston,MA,USA'",'A; C',42.2884426,-71.1348398
Taste Of Eden,"'38 Norfolk St.,Boston,MA,USA'",'A; C',42.2892175,-71.0728645
Dimitrios House Of Pizza,"'1750 Dorchester Ave.,Boston,MA,USA'",'A; C',42.2901719,-71.0628744
Charlie's House Of Pizza,"'1740 Dorchester Ave.,Boston,MA,USA'",'A; C',42.2907069,-71.0626885
Canton House Restaurant,"'1728 Dorchester Ave.,Boston,MA,USA'",'A; C',42.2909786,-71.0626544
Stop & Shop/Dunkin Donuts,"'535 Freeport St.,Boston,MA,USA'",'A; C',42.2922568,-71.0480383
El Fongon Del La Morena,"'262 Hyde Park Ave.,Boston,MA,USA'",'A; C',42.292523,-71.1175263
Venezia Restaurant (Harbor Lights),"'20 R Ericsson St.,Boston,MA,USA'",'A; C',42.2928028,-71.0400309
Billy's Texas B.B.Q.,"'530 Washington St.,Boston,MA,USA'",'A; C',42.2929558,-71.0716503
China Station Restaurant,"'530 Washington St.,Boston,MA,USA'",'A; C',42.2929558,-71.0716503
Subway,"'875 William T Morrissey Bl.,Boston,MA,USA'",'A; C',42.2935411,-71.0479786
Tri Seafood Restaurant,"'1616 Dorchester Ave.,Boston,MA,USA'",'A; C',42.2953893,-71.0613919
Phillips Old Colony House Inc.,"'780 Wm T Morrissey Bl.,Boston,MA,USA'",'A; C',42.2954607,-71.0471616
Dunkin' Donuts,"'7 Walk Hill St.,Boston,MA,USA'",'A; C',42.2955725,-71.1161003
Tostado Llc,"'3878 Washington St.,Boston,MA,USA'",'A; C',42.29578,-71.1182165
Big Bites,"'10 Walk Hill St.,Boston,MA,USA'",'A; C',42.2958609,-71.1157992
Natif Natal Restaurant,"'830 Blue Hill Ave.,Boston,MA,USA'",'A; C',42.2962219,-71.0871959
Subway,"'1576 Dorchester Ave.,Boston,MA,USA'",'A; C',42.2972238,-71.0604413
Chau Chow,"'699 Wm T Morrissey Bl.,Boston,MA,USA'",'A; C',42.297874,-71.0498958
Mcdonald's Rest,"'500 Geneva Ave.,Boston,MA,USA'",'A; C',42.2991211,-71.0621446
Anh Hong Restaurant Llc,"'291 Adams St.,Boston,MA,USA'",'A; C',42.299193,-71.058168
Red Hat Cafe,"'9 Bowdoin St.,Boston,MA,USA'",'A; C',42.2993992,-71.0729456
Golden Star Restaurant,"'1493 Dorchester Ave.,Boston,MA,USA'",'A; C',42.2996337,-71.0605523
Hien Vuong Restaurant,"'1487 Dorchester Ave.,Boston,MA,USA'",'A; C',42.2999809,-71.0604396
Fazenda Cafe,"'3710 Washington St.,Boston,MA,USA'",'A; C',42.300249,-71.113075
Corp. Chefs/U. Mass. Med. School,"'305 South St.,Boston,MA,USA'",'A; C',42.3004362,-71.1168113
Nevilles Bakery & Restaurant,"'422 Geneva Ave.,Boston,MA,USA'",'A; C',42.3007736,-71.0669922
Dot Cafe,"'1459 Dorchester Ave.,Boston,MA,USA'",'A; C',42.3009365,-71.0601233
Ironside Grille,"'23 Park St.,Boston,MA,USA'",'A; C',42.3017745,-71.0540773
Domino's Pizza,"'205 Adams St.,Boston,MA,USA'",'A; C',42.3018687,-71.0601258
Pho 2000,"'198 Adams St.,Boston,MA,USA'",'A; C',42.3022662,-71.0599151
Island Style Inc.,"'183 Washington St.,Boston,MA,USA'",'A; C',42.3033309,-71.0787506
Expressway Motors Inc./Camry Cafe,"'650 Wm T Morrissey Bl.,Boston,MA,USA'",'A; C',42.3037442,-71.0477931
Pho Le,"'1356 Dorchester Ave.,Boston,MA,USA'",'A; C',42.3044132,-71.0589829
Chung Wah,"'199 Bowdoin St.,Boston,MA,USA'",'A; C',42.305075,-71.068138
Thao Ngoc Restaurant,"'1331 Dorchester Ave.,Boston,MA,USA'",'A; C',42.30525,-71.059195
Pete's Seafood,"'267 Bowdoin St.,Boston,MA,USA'",'A; C',42.3065584,-71.0663945
Ashley's Breakfast Shoppe,"'260 Bowdoin St.,Boston,MA,USA'",'A; C',42.3068012,-71.0666751
Showa Womens Institution,"'414 Pond St.,Boston,MA,USA'",'A; C',42.307476,-71.131317
Mi Casa Tu Casa,"'299 Hancock St.,Boston,MA,USA'",'A; C',42.3081374,-71.0587093
New York Fried Chicken,"'442 Blue Hill Ave.,Boston,MA,USA'",'A; C',42.3096297,-71.0822953
El Dugout,"'122 Seaver St.,Boston,MA,USA'",'A; C',42.3099298,-71.0915446
Super Fusion Express,"'779 Centre St.,Boston,MA,USA'",'A; C',42.3100026,-71.115621
Vee Vee,"'763 Centre St.,Boston,MA,USA'",'A; C',42.3102579,-71.1152319
Caffe Nero,"'725 Centre St.,Boston,MA,USA'",'A; C',42.3111527,-71.1147977
Costello's Tavern Inc,"'717 Centre St.,Boston,MA,USA'",'A; C',42.3112013,-71.114518
Bukhara Indian Bistro,"'701 Centre St.,Boston,MA,USA'",'A; C',42.311639,-71.1146727
Wonder Spice Cafe,"'695 Centre St.,Boston,MA,USA'",'A; C',42.3118326,-71.1143272
Purple Cactus,"'674 Centre St.,Boston,MA,USA'",'A; C',42.3121523,-71.113891
Prieto El Rey De Las Empanadas,"'196 Humboldt Ave.,Boston,MA,USA'",'A; C',42.3126498,-71.0896643
Pin Bochinche Restaurant,"'3160 Washington St.,Boston,MA,USA'",'A; C',42.313622,-71.1001977
D & D Restaurant,"'3141 Washington St.,Boston,MA,USA'",'A; C',42.3141334,-71.1001404
Bale Restaurant,"'1052 Dorchester Ave.,Boston,MA,USA'",'A; C',42.3147438,-71.0566217
Ten Tables,"'597 Centre St.,Boston,MA,USA'",'A; C',42.3149085,-71.1143085
Sodexo @ Umass Jazzman,"'100 Wm T Morrissey Bl.,Boston,MA,USA'",'A; C',42.315672,-71.0479068
Chilacates,"'222 Amory St.,Boston,MA,USA'",'A; C',42.3163444,-71.1031497
Robinwood Cafe & Grille,"'536 Centre St.,Boston,MA,USA'",'A; C',42.3168819,-71.1132676
Las Brisas Del Caribe,"'194 Blue Hill Ave.,Boston,MA,USA'",'A; C',42.3179577,-71.0776653
Crown Fried Chicken And Pizza,"'344 Warren St.,Boston,MA,USA'",'A; C',42.3184854,-71.0817038
Fiskie's Cafe,"'40 Westwind Rd.,Boston,MA,USA'",'A; C',42.3185161,-71.0416633
Warren Tavern,"'2 Pleasant St.,Boston,MA,USA'",'A; C',42.318537,-71.058548
Hong Kong Chef,"'889 Dorchester Ave.,Boston,MA,USA'",'A; C',42.3200435,-71.0568994
Singh's Roti Shop,"'692 Columbia Rd.,Boston,MA,USA'",'A; C',42.3202397,-71.0624748
Mcdonalds (Warren St.),"'301 Warren St.,Boston,MA,USA'",'A; C',42.3203563,-71.0822151
Great Wok,"'1284 Massachusetts Ave.,Boston,MA,USA'",'A; C',42.3210414,-71.061732
Villa Sombrero Cafe,"'554A Dudley St.,Boston,MA,USA'",'A; C',42.3213103,-71.0719831
Home Run Cafe,"'1269 Massachusetts Ave.,Boston,MA,USA'",'A; C',42.3215004,-71.0626292
The Avenue Grille,"'856 Dorchester Ave.,Boston,MA,USA'",'A; C',42.3215305,-71.0565687
Ideal Sub Shop,"'522 Dudley St.,Boston,MA,USA'",'A; C',42.3222535,-71.0726102
224 Boston Street,"'224 Boston St.,Boston,MA,USA'",'A; C',42.3222638,-71.0608758
Food Wall Chinese,"'387 Centre St.,Boston,MA,USA'",'A; C',42.3223129,-71.1095052
Aurum,"'377 Centre St.,Boston,MA,USA'",'A; C',42.3223843,-71.109111
Yong Kong,"'300 Centre St.,Boston,MA,USA'",'A; C',42.3227915,-71.1031217
Nos Casa Cafe,"'475 Dudley St.,Boston,MA,USA'",'A; C',42.323227,-71.0737345
Rita's Catering,"'5 Spectacle Island.,Boston,MA,USA'",'A; C',42.3244907,-70.985886
Priel's Restaurant Pizza & More,"'11 Blue Hill Ave.,Boston,MA,USA'",'A; C',42.3248554,-71.0755353
Ugi's Pizza,"'69 Heath St.,Boston,MA,USA'",'A; C',42.3265557,-71.1005364
Ugis Subs,"'62 Warren St.,Boston,MA,USA'",'A; C',42.3284871,-71.0831535
Roxbury Pizza And Sub Shop,"'258 Dudley St.,Boston,MA,USA'",'A; C',42.3286292,-71.0790261
Dudley Sq. Grill,"'152 Dudley St.,Boston,MA,USA'",'A; C',42.3287733,-71.0833525
Cafe Polonia,"'611 Dorchester Ave.,Boston,MA,USA'",'A; C',42.3288102,-71.0571358
Chinese Noodle,"'49 Warren St.,Boston,MA,USA'",'A; C',42.3291303,-71.0837041
Mario's Subs & Salad,"'28 Warren St.,Boston,MA,USA'",'A; C',42.329829,-71.083093
Landmark @ Longwood,"'63 Parker Hill Ave.,Boston,MA,USA'",'A; C',42.330361,-71.1091778
Deria Express Cafe,"'1127 Harrison Ave.,Boston,MA,USA'",'A; C',42.3304739,-71.0822502
Sports Connection Bar & Grill,"'560 Dorchester Ave.,Boston,MA,USA'",'A; C',42.330477,-71.056726
Butterfly Coffee,"'1420 Tremont St.,Boston,MA,USA'",'A; C',42.3309948,-71.0957835
Mirisola's,"'200 L Street St.,Boston,MA,USA'",'A; C',42.3313787,-71.0350207
L Street Tavern,"'195 L St.,Boston,MA,USA'",'A; C',42.3314779,-71.0352658
Mcdonalds,"'870 Massachusetts Ave.,Boston,MA,USA'",'A; C',42.3315457,-71.0703777
A K's Take Out & Delivery@Reggie Lewis Track,"'1350 Tremont St.,Boston,MA,USA'",'A; C',42.332043,-71.092873
Chacho's Pizza,"'1502 Tremont St.,Boston,MA,USA'",'A; C',42.3320856,-71.0992832
Dayib Cafe,"'722 Shawmut Ave.,Boston,MA,USA'",'A; C',42.3328079,-71.0832694
New Ho Toy,"'218 Old Colony Ave.,Boston,MA,USA'",'A; C',42.3328223,-71.0533779
Sushi Station,"'1562 Tremont St.,Boston,MA,USA'",'A; C',42.3329193,-71.1016992
Halal Indian Cuisine,"'724 Huntington Ave.,Boston,MA,USA'",'A; C',42.3338138,-71.1050647
Mission Bar & Grill,"'724 Huntington Ave.,Boston,MA,USA'",'A; C',42.3338138,-71.1050647
Flann O'Briens,"'1619 Tremont St.,Boston,MA,USA'",'A; C',42.3338714,-71.1033342
L Street Diner,"'108 L St.,Boston,MA,USA'",'A; C',42.3340503,-71.0350774
Penguin Pizza,"'735 Huntington Ave.,Boston,MA,USA'",'A; C',42.3341096,-71.1055062
Pizza Stop,"'851 Harrison Ave.,Boston,MA,USA'",'A; C',42.334734,-71.0756849
Squealing Pig,"'134 Smith St.,Boston,MA,USA'",'A; C',42.3347407,-71.1020904
Salsa's Mexican Grilled,"'118 Dorchester St.,Boston,MA,USA'",'A; C',42.3349683,-71.0461314
Pat's Place,"'15 Francis St.,Boston,MA,USA'",'A; C',42.3350583,-71.104784
Northeastern University/Cafe Crossing,"'1175 Tremont St.,Boston,MA,USA'",'A; C',42.33508,-71.0890631
The Paramount,"'667 E Broadway.,Boston,MA,USA'",'A; C',42.3354267,-71.0378526
Dunkin' Donuts No. 0311,"'818 Harrison Ave.,Boston,MA,USA'",'A; C',42.3357599,-71.0741126
Playwright Cafe',"'658 E Broadway.,Boston,MA,USA'",'A; C',42.3357924,-71.0380302
Stats Bar & Grille,"'77 Dorchester St.,Boston,MA,USA'",'A; C',42.3358155,-71.0453399
Andre's Cafe,"'809 Harrison Ave.,Boston,MA,USA'",'A; C',42.3358249,-71.0742595
Windmill Food Factory,"'429 W Broadway.,Boston,MA,USA'",'A; C',42.336264,-71.0474681
Peet's Coffee Shop,"'625 Huntington Ave.,Boston,MA,USA'",'A; C',42.3363287,-71.1004229
Boloco,"'1940 Beacon St.,Boston,MA,USA'",'A; C',42.3364038,-71.1500163
Chipotle Mexican Grill,"'1924 Beacon St.,Boston,MA,USA'",'A; C',42.3364626,-71.1497956
Shannon's Tavern Inc,"'558 East Third.,Boston,MA,USA'",'A; C',42.3364683,-71.0373222
Sunrise Restaurant,"'1033 Tremont.,Boston,MA,USA'",'A; C',42.336757,-71.085455
Good Eats Pizza,"'1002 Tremont St.,Boston,MA,USA'",'A; C',42.3368162,-71.0845822
Roggie's Pizzeria Inc.,"'356 Chestnut Hill Ave.,Boston,MA,USA'",'A; C',42.3368366,-71.1515823
Savory Truck,"'221 Longwood Ave.,Boston,MA,USA'",'A; C',42.3372871,-71.102142
Papa Johns Pizza,"'971 Tremont St.,Boston,MA,USA'",'A; C',42.3375105,-71.0840783
Dunkin Donuts,"'115 Forsyth.,Boston,MA,USA'",'A; C',42.3376143,-71.0902737
Hillside Cafe,"'21 St Thomas More Rd.,Boston,MA,USA'",'A; C',42.3380689,-71.1645259
Tsushi Inc.,"'340 Longwood Ave.,Boston,MA,USA'",'A; C',42.3382421,-71.1063943
Broadway's Best Pizza,"'321 W Broadway.,Boston,MA,USA'",'A; C',42.3382588,-71.0504274
Estragon,"'700 Harrison Ave.,Boston,MA,USA'",'A; C',42.3384294,-71.070359
Hidden Kitchen,"'535 Albany St.,Boston,MA,USA'",'A; C',42.3385421,-71.0670012
El Centro,"'474 Shawmut Ave.,Boston,MA,USA'",'A; C',42.3385858,-71.0761644
Gardner Museum Cafe,"'2 Palace Rd.,Boston,MA,USA'",'A; C',42.3386407,-71.0992243
Pret A Manger,"'354 Longwood Ave.,Boston,MA,USA'",'A; C',42.3389228,-71.1072958
Sepal,"'354 Longwood Av Ave.,Boston,MA,USA'",'A; C',42.3389228,-71.1072958
Souper Salad,"'364 Brookline Ave.,Boston,MA,USA'",'A; C',42.3389359,-71.1062813
Cluckit!,"'782A Tremont St.,Boston,MA,USA'",'A; C',42.3389495,-71.0805707
Discovery Cafe,"'3 Blackfan Ci.,Boston,MA,USA'",'A; C',42.3390285,-71.1042571
Parish Cafe,"'493 Massachusetts Ave.,Boston,MA,USA'",'A; C',42.3392655,-71.0808146
Au Bon Pain,"'360 Huntington Ave.,Boston,MA,USA'",'A; C',42.339348,-71.0881734
Broadway Pastry,"'258 W Broadway.,Boston,MA,USA'",'A; C',42.3393872,-71.0514865
Coffee Shop,"'11 Elkins St.,Boston,MA,USA'",'A; C',42.3395264,-71.0361388
Flik International @ Merck & Co.,"'33 Avenue Louis Pasteur.,Boston,MA,USA'",'A; C',42.3397401,-71.1032998
Stella,"'1525 Washington St.,Boston,MA,USA'",'A; C',42.3399397,-71.0724948
Doughboy Donuts & Deli,"'220 Dorchester Ave.,Boston,MA,USA'",'A; C',42.3401216,-71.0567598
Emmanuel College (Muddy River Cafe),"'400 Fenway.,Boston,MA,USA'",'A; C',42.3403687,-71.1016439
Dunkin Donuts/Scnvanos,"'440 Massachusetts Ave.,Boston,MA,USA'",'A; C',42.3407007,-71.0818232
Fast Eddie's,"'1696 Commonwealth Ave.,Boston,MA,USA'",'A; C',42.341217,-71.1465565
Moogy's Sandwich Shop Inc.,"'154 Chestnut Hill Ave.,Boston,MA,USA'",'A; C',42.3415176,-71.1541534
Boston Chops,"'1375 Washington St.,Boston,MA,USA'",'A; C',42.3416056,-71.0695851
Liam Foods,"'152 Chestnut Hill Ave.,Boston,MA,USA'",'A; C',42.3416229,-71.1542387
Panera Bread No. 1415,"'289 Huntington Ave.,Boston,MA,USA'",'A; C',42.341692,-71.086565
Mana Escondido Cafe,"'68 Pembroke St.,Boston,MA,USA'",'A; C',42.3416999,-71.0759794
Amrhein's,"'80 W Broadway.,Boston,MA,USA'",'A; C',42.3418392,-71.0551081
Shun's Kitchen,"'520 Columbus Ave.,Boston,MA,USA'",'A; C',42.3419137,-71.0797543
Yum Mee Garden,"'665 Tremont St.,Boston,MA,USA'",'A; C',42.3419525,-71.0758744
Five Horses Tavern,"'535 Columbus Ave.,Boston,MA,USA'",'A; C',42.3420288,-71.0803731
Vejigamtes Restaurant,"'57 W Dedham St.,Boston,MA,USA'",'A; C',42.3420446,-71.0729183
Pho And I Inc.,"'267 Huntington Ave.,Boston,MA,USA'",'A; C',42.3421921,-71.0861207
Thaitation,"'129 Jersey St.,Boston,MA,USA'",'A; C',42.3423236,-71.0970103
Alex Pizza,"'1252 Washington St.,Boston,MA,USA'",'A; C',42.3424487,-71.0675183
Red Mango(334 Mass. Ave.),"'334 Massachusetts Ave.,Boston,MA,USA'",'A; C',42.3425943,-71.0841727
Subway (334 Mass. Ave.),"'334 Massachusetts Ave.,Boston,MA,USA'",'A; C',42.3425943,-71.0841727
The Maiden,"'28 W Broadway.,Boston,MA,USA'",'A; C',42.3427415,-71.0564802
Franklin Cafe,"'278 Shawmut Ave.,Boston,MA,USA'",'A; C',42.3429145,-71.0689787
Ichiban Yakitori Sushi House,"'14 Westland Ave.,Boston,MA,USA'",'A; C',42.3432232,-71.0867397
Oishii Boston,"'1166 Washington St.,Boston,MA,USA'",'A; C',42.3432885,-71.0659986
La Catrina,"'1610 Commonwealth Ave.,Boston,MA,USA'",'A; C',42.3433941,-71.142574
Metropolis Cafe,"'574 Tremont St.,Boston,MA,USA'",'A; C',42.3434753,-71.0725594
The Kitchen,"'560 Tremont St.,Boston,MA,USA'",'A; C',42.343632,-71.0717782
Scola's Cafe,"'88 Black Falcon Ave.,Boston,MA,USA'",'A; C',42.3438801,-71.0241695
Addis Red Sea,"'540 Tremont St.,Boston,MA,USA'",'A; C',42.344054,-71.07097
New York Style Chicken And Pizza,"'67 Washington St.,Boston,MA,USA'",'A; C',42.3441028,-71.143306
Citizen Public House & Oyster Bar,"'1310 Boylston St.,Boston,MA,USA'",'A; C',42.344209,-71.097951
Pavement Coffeehouse,"'1330 Boylston St.,Boston,MA,USA'",'A; C',42.3444208,-71.0983795
Regina Pizzeria At Fenway,"'1330 Boylston St.,Boston,MA,USA'",'A; C',42.3444208,-71.0983795
Mumbai Spice,"'251 Massachusetts Ave.,Boston,MA,USA'",'A; C',42.344442,-71.086859
Yan's China Star,"'1102 Washington St.,Boston,MA,USA'",'A; C',42.3445276,-71.0656254
Sweet Cheeks,"'144 Brookline Ave.,Boston,MA,USA'",'A; C',42.3447204,-71.100834
Jimmy John's,"'409 D St.,Boston,MA,USA'",'A; C',42.344722,-71.0435059
Picco Restaurant,"'513 Tremont.,Boston,MA,USA'",'A; C',42.3448671,-71.0706344
Barcelona Restaurant,"'525 Tremont St.,Boston,MA,USA'",'A; C',42.3449647,-71.0707266
Saloniki,"'132 Brookline Ave.,Boston,MA,USA'",'A; C',42.3450649,-71.100462
Deli Of Course,"'451 D St.,Boston,MA,USA'",'A; C',42.3452433,-71.0418697
Sullivan's Restaurant,"'56 Union St.,Boston,MA,USA'",'A; C',42.345374,-71.1498671
Royal Rooters,"'41 Yawkey Wa.,Boston,MA,USA'",'A; C',42.3453941,-71.0982491
Pete's Dockside,"'12 Channel St.,Boston,MA,USA'",'A; C',42.3454016,-71.0368052
Colonnade Hotel,"'120 Huntington Ave.,Boston,MA,USA'",'A; C',42.3456194,-71.0809115
Dumpling Palace,"'179 Massachusetts Ave.,Boston,MA,USA'",'A; C',42.3457113,-71.0873138
Au Bon Pain (4Th Fl),"'133 Brookline Ave.,Boston,MA,USA'",'A; C',42.3457154,-71.1014625
Whole Foods Market,"'310 Harrison Ave.,Boston,MA,USA'",'A; C',42.3457244,-71.0628563
The Westin Boston Waterfront/Starbucks,"'425 Summer St.,Boston,MA,USA'",'A; C',42.3457313,-71.0435238
Pho Basil,"'177 Massachusetts Ave.,Boston,MA,USA'",'A; C',42.3458011,-71.0873574
Supreme Pizza,"'177 Massachusetts Ave.,Boston,MA,USA'",'A; C',42.3458011,-71.0873574
Left Field Pantry,"'4 Yawkey Wy.,Boston,MA,USA'",'A; C',42.3458436,-71.0987819
Pavillion Restaurant,"'4 Yawkey Wy.,Boston,MA,USA'",'A; C',42.3458436,-71.0987819
Tasty Burger,"'4 Yawkey.,Boston,MA,USA'",'A; C',42.3458436,-71.0987819
Bangkok City Restaurant,"'167 Massachusetts Ave.,Boston,MA,USA'",'A; C',42.346041,-71.0874756
Internal Matter,"'35 Channel Center St.,Boston,MA,USA'",'A; C',42.34636,-71.050548
Billy's Sub Shop,"'57 Berkeley St.,Boston,MA,USA'",'A; C',42.3466297,-71.0705299
Sol Azteca,"'914 Beacon St.,Boston,MA,USA'",'A; C',42.3466593,-71.1062658
Wink & Nod,"'3 Appleton St.,Boston,MA,USA'",'A; C',42.3467068,-71.069752
Teriyaki House,"'1106 Boylston St.,Boston,MA,USA'",'A; C',42.346773,-71.0885802
Rice Bowl,"'2 Hemenway St.,Boston,MA,USA'",'A; C',42.3468779,-71.0892521
Summer Shack,"'50 Dalton St.,Boston,MA,USA'",'A; C',42.3470597,-71.0856588
Boston Beer Works,"'61 Brookline Ave.,Boston,MA,USA'",'A; C',42.34718,-71.0991034
B Good Burger,"'1068 Boylston St.,Boston,MA,USA'",'A; C',42.34723,-71.0879901
Lorettas Last Call,"'1 Lansdowne St.,Boston,MA,USA'",'A; C',42.3473143,-71.0944726
Cask N Flagon,"'48 Brookline Ave.,Boston,MA,USA'",'A; C',42.347383,-71.097949
Towne,"'880 Boylston St.,Boston,MA,USA'",'A; C',42.34739,-71.084357
House Of Blues,"'35 Lansdowne St.,Boston,MA,USA'",'A; C',42.347401,-71.09615
Jillian's Billiard Club,"'145 Ipswich St.,Boston,MA,USA'",'A; C',42.3474016,-71.0944095
Tasty Burger Back Bay,"'145 Dartmouth St.,Boston,MA,USA'",'A; C',42.3474193,-71.0753102
Audubon,"'838 Beacon St.,Boston,MA,USA'",'A; C',42.347459,-71.10323
Charlie's Pizza & Cafe,"'177 Allston St.,Boston,MA,USA'",'A; C',42.3477438,-71.1383114
Bee's Knees Supply Company,"'1314 Commonwealth Ave.,Boston,MA,USA'",'A; C',42.348241,-71.134322
Mistral,"'221 Columbus Ave.,Boston,MA,USA'",'A; C',42.3482594,-71.072778
Storyville,"'47 Huntington Ave.,Boston,MA,USA'",'A; C',42.3482726,-71.0786234
Mcgreevys,"'911 Boylston St.,Boston,MA,USA'",'A; C',42.348458,-71.0844207
J. Pace & Son Uptown,"'225 Northern Ave.,Boston,MA,USA'",'A; C',42.3484606,-71.0387957
The Pour House,"'907 Boylston St.,Boston,MA,USA'",'A; C',42.348475,-71.0843264
Red Lantern,"'39 Stanhope St.,Boston,MA,USA'",'A; C',42.3484799,-71.0734982
The Friendly Toast,"'35 Stanhope St.,Boston,MA,USA'",'A; C',42.3484833,-71.0731343
Zocalo Cocina Mexicana,"'35 Stanhope St.,Boston,MA,USA'",'A; C',42.3484833,-71.0731343
The Brahmin,"'33 Stanhope St.,Boston,MA,USA'",'A; C',42.3484835,-71.0731338
Ittoku,"'1414 Commonwealth Ave.,Boston,MA,USA'",'A; C',42.3484854,-71.1390747
Paradise Bakery & Cafe,"'800 Boylston St.,Boston,MA,USA'",'A; C',42.348521,-71.0822975
Pizzeria Regina @ Prudential,"'800 Boylston St.,Boston,MA,USA'",'A; C',42.348521,-71.0822975
Sarku Japan,"'800 Boylston St.,Boston,MA,USA'",'A; C',42.348521,-71.0822975
Boston Common Hotel & Conference Center,"'40 Trinity Pl.,Boston,MA,USA'",'A; C',42.3485336,-71.0747603
Cafe 472,"'472 Commonwealth Ave.,Boston,MA,USA'",'A; C',42.3485415,-71.0936685
Eastern Standard,"'528 Commonwealth Ave.,Boston,MA,USA'",'A; C',42.3485498,-71.0960073
Mike And Patty's,"'12 Church St.,Boston,MA,USA'",'A; C',42.348561,-71.067924
Another Cup? Coffee House,"'1 Nassau St.,Boston,MA,USA'",'A; C',42.34858,-71.062941
Uni,"'370 Commonwealth Ave.,Boston,MA,USA'",'A; C',42.3485902,-71.0886984
Boston Living Center,"'29 Stanhope St.,Boston,MA,USA'",'A; C',42.3485979,-71.0730304
Select Oyster Bar,"'50 Gloucester St.,Boston,MA,USA'",'A; C',42.3485998,-71.084121
Mandarin Oriental Hotel,"'776 Boylston St.,Boston,MA,USA'",'A; C',42.3487748,-71.0813479
Scoozi,"'580 Commonwealth Ave.,Boston,MA,USA'",'A; C',42.3488004,-71.0995255
Chili Duck,"'829 Boylston St.,Boston,MA,USA'",'A; C',42.3489625,-71.0826117
Cafe Mirror,"'362 Washington St.,Boston,MA,USA'",'A; C',42.3489795,-71.1535835
Boca Grande Restaurant,"'366 Washington St.,Boston,MA,USA'",'A; C',42.3489906,-71.1538177
Sun-Ah's Cafe,"'501 Washington St.,Boston,MA,USA'",'A; C',42.3491026,-71.1610235
Tapeo Restaurant & Tapas Bar,"'266 Newbury St.,Boston,MA,USA'",'A; C',42.3491842,-71.0832045
Da Vinci,"'162 Columbus Ave.,Boston,MA,USA'",'A; C',42.3491877,-71.0706104
Peet's Coffee & Tea,"'795 Boylston St.,Boston,MA,USA'",'A; C',42.349188,-71.081725
Bain Capital (40Th Fl),"'200 Clarendon St.,Boston,MA,USA'",'A; C',42.3492166,-71.0751249
Guckenheimer @ B.R.E. @ Blue Glass Cafe,"'200 Clarendon St.,Boston,MA,USA'",'A; C',42.3492166,-71.0751249
Grill 23 And Bar,"'161 Berkeley St.,Boston,MA,USA'",'A; C',42.3492836,-71.0715196
Wabora,"'254 Newbury St.,Boston,MA,USA'",'A; C',42.349312,-71.0827414
Jim's Restaurant And Deli,"'371 Washington St.,Boston,MA,USA'",'A; C',42.3493184,-71.1540528
Happy Garden,"'377 Washington St.,Boston,MA,USA'",'A; C',42.3493239,-71.1542806
Bon Me No. 5,"'1 Citywide St.,Boston,MA,USA'",'A; C',42.3493824,-71.0777334
Boston Burger Company,"'1 Citywide St.,Boston,MA,USA'",'A; C',42.3493824,-71.0777334
Boston Trolly Dogs,"'1 Citywide St.,Boston,MA,USA'",'A; C',42.3493824,-71.0777334
Chili Mango & Lime Inc.,"'1 Citywide St.,Boston,MA,USA'",'A; C',42.3493824,-71.0777334
Clover Fast Food @Dwy No. 6,"'1 Citywide St.,Boston,MA,USA'",'A; C',42.3493824,-71.0777334
Clover Fast Food No. 5,"'1 Citywide St.,Boston,MA,USA'",'A; C',42.3493824,-71.0777334
Compliments Food Co.,"'1 Citywide St.,Boston,MA,USA'",'A; C',42.3493824,-71.0777334
Dragon Roll Grill,"'1 Citywide St.,Boston,MA,USA'",'A; C',42.3493824,-71.0777334
Fresh Food Generation,"'1 Citywide St.,Boston,MA,USA'",'A; C',42.3493824,-71.0777334
Kim Kim Bbq,"'1 Citywide St.,Boston,MA,USA'",'A; C',42.3493824,-71.0777334
Mediterranean Home Cooking,"'1 Citywide St.,Boston,MA,USA'",'A; C',42.3493824,-71.0777334
Meng's Kitchen,"'1 Citywide St.,Boston,MA,USA'",'A; C',42.3493824,-71.0777334
Momogoose 3,"'1 Citywide St.,Boston,MA,USA'",'A; C',42.3493824,-71.0777334
Momogoose 4,"'1 Citywide St.,Boston,MA,USA'",'A; C',42.3493824,-71.0777334
Posto,"'1 Citywide St.,Boston,MA,USA'",'A; C',42.3493824,-71.0777334
Rice Burg Inc.,"'1 Citywide St.,Boston,MA,USA'",'A; C',42.3493824,-71.0777334
Saigon Alley,"'1 Citywide St.,Boston,MA,USA'",'A; C',42.3493824,-71.0777334
Stoked Pizza Truck,"'1 Citywide St.,Boston,MA,USA'",'A; C',42.3493824,-71.0777334
Sweet Tomatoes Pizza,"'1 Citywide St.,Boston,MA,USA'",'A; C',42.3493824,-71.0777334
Tenoch Mexican,"'1 Citywide St.,Boston,MA,USA'",'A; C',42.3493824,-71.0777334
Tenoch Mexican Food,"'1 Citywide St.,Boston,MA,USA'",'A; C',42.3493824,-71.0777334
Teri-Yummy No. 2,"'1 Citywide St.,Boston,MA,USA'",'A; C',42.3493824,-71.0777334
Thompson Island Outward Bound,"'1 Citywide St.,Boston,MA,USA'",'A; C',42.3493824,-71.0777334
Walloon's,"'1 Citywide St.,Boston,MA,USA'",'A; C',42.3493824,-71.0777334
Cafeteria Boston,"'279 Newbury St.,Boston,MA,USA'",'A; C',42.3494005,-71.0840573
Casa Romero,"'30 Gloucester St.,Boston,MA,USA'",'A; C',42.3494385,-71.0845289
Bruegger's Bagel Bakery,"'644 Beacon St.,Boston,MA,USA'",'A; C',42.349488,-71.095561
Itadaki,"'269 Newbury St.,Boston,MA,USA'",'A; C',42.3495456,-71.0835907
Fins Sushi & Grill 2,"'636 Beacon St.,Boston,MA,USA'",'A; C',42.3495927,-71.0952724
Uno Chicago Grill,"'727 Boylston St.,Boston,MA,USA'",'A; C',42.3496017,-71.0802859
Shake Shack,"'234 Newbury St.,Boston,MA,USA'",'A; C',42.3496294,-71.0815446
Smith & Wollensky Of Boston,"'101 Arlington St.,Boston,MA,USA'",'A; C',42.3496357,-71.0700958
Piattini,"'226 Newbury St.,Boston,MA,USA'",'A; C',42.349711,-71.0812354
Chatime,"'251 Newbury St.,Boston,MA,USA'",'A; C',42.3497141,-71.0828756
Umai Japanese Restaurant,"'224 Newbury St.,Boston,MA,USA'",'A; C',42.3497304,-71.0811595
Dirty Water Dough Company,"'222 Newbury St.,Boston,MA,USA'",'A; C',42.3497421,-71.0810798
B.U.Dining Srvices-2Nd Fl.,"'100 Bay State Rd.,Boston,MA,USA'",'A; C',42.3497666,-71.0979066
Asta,"'47 Massachusetts Ave.,Boston,MA,USA'",'A; C',42.349808,-71.089298
Chopped & Topped 3Rd Fl.,"'800 Washington St.,Boston,MA,USA'",'A; C',42.3498323,-71.0632709
Scoozi (237 Newbury St.),"'237 Newbury St.,Boston,MA,USA'",'A; C',42.3498806,-71.0820826
La La Restaurant,"'792 Washington St.,Boston,MA,USA'",'A; C',42.3499298,-71.0638064
Lala Luncheonette Restaurant,"'792 Washington St.,Boston,MA,USA'",'A; C',42.3499298,-71.0638064
Liquid Art House,"'100 Arlington St.,Boston,MA,USA'",'A; C',42.3499842,-71.0695033
B. Good Burger,"'665 Boylston St.,Boston,MA,USA'",'A; C',42.3500162,-71.0787676
Sweetgreen,"'659 Boylston St.,Boston,MA,USA'",'A; C',42.3500262,-71.0786707
Scissors & Pie,"'225 Newbury St.,Boston,MA,USA'",'A; C',42.350036,-71.0816941
Corporate Chefs @ Tufts Food 4 Thot,"'141 Harrison Ave.,Boston,MA,USA'",'A; C',42.350049,-71.062269
Bangkok Blue Thai,"'651 Boylston St.,Boston,MA,USA'",'A; C',42.3500514,-71.0785019
Shanghai Gateway Restaurant,"'204 Harvard Ave.,Boston,MA,USA'",'A; C',42.3500749,-71.130372
Sofa Cafe,"'217 Newbury St.,Boston,MA,USA'",'A; C',42.3501281,-71.081372
Lolita Cocina & Tequila Bar,"'265 Dartmouth St.,Boston,MA,USA'",'A; C',42.3501476,-71.0773606
The Avenue Bar & Grill,"'1249 Commonwealth Ave.,Boston,MA,USA'",'A; C',42.350246,-71.132181
Ben & Jerry's,"'174 Newbury St.,Boston,MA,USA'",'A; C',42.3503123,-71.0790014
Olivia's Pizza,"'583 Washington St.,Boston,MA,USA'",'A; C',42.3503816,-71.1651565
Golden Leaf Restaurant,"'20 Hudson St.,Boston,MA,USA'",'A; C',42.3504126,-71.0599504
Rustic Kitchen,"'200 Stuart St.,Boston,MA,USA'",'A; C',42.3504148,-71.0674664
Hsin Hsin,"'25 Massachusetts Ave.,Boston,MA,USA'",'A; C',42.3504929,-71.0895951
Crossroads,"'495 Beacon St.,Boston,MA,USA'",'A; C',42.350536,-71.089788
Tavern Road,"'343 Congress St.,Boston,MA,USA'",'A; C',42.3505819,-71.0493809
Dig Inn,"'557 Boylston St.,Boston,MA,USA'",'A; C',42.3506317,-71.0760179
Tico,"'222 Berkeley St.,Boston,MA,USA'",'A; C',42.350667,-71.0731944
Quality Mart,"'21 Massachusetts Ave.,Boston,MA,USA'",'A; C',42.3506822,-71.0894076
Ga Ga Seafood Restaurant,"'23 Tyler St.,Boston,MA,USA'",'A; C',42.3507606,-71.0609684
Firehouse Subs,"'543 Boylston St.,Boston,MA,USA'",'A; C',42.350781,-71.07583
Souper Salad,"'209 Berkeley St.,Boston,MA,USA'",'A; C',42.3507943,-71.0722013
Habibi's Lounge,"'1213 Commonwealth Ave.,Boston,MA,USA'",'A; C',42.3508179,-71.1308899
Juice Republic,"'24 Kneeland St.,Boston,MA,USA'",'A; C',42.3508861,-71.061964
Oppa Sushi,"'185 Harvard Ave.,Boston,MA,USA'",'A; C',42.3508946,-71.1314754
Back Bay Sandwich,"'31 Saint James Ave.,Boston,MA,USA'",'A; C',42.3509525,-71.0715658
Fire & Ice,"'31 Saint James Ave.,Boston,MA,USA'",'A; C',42.3509525,-71.0715658
Maggiano's,"'4 Columbus Ave.,Boston,MA,USA'",'A; C',42.3510373,-71.0684935
Strip By Strega,"'50 Park Pz.,Boston,MA,USA'",'A; C',42.3510417,-71.0697049
Eurest Dining @Pearson Education,"'501 Boylston St.,Boston,MA,USA'",'A; C',42.3511519,-71.0745563
Dunkin Donuts,"'711 Atlantic Ave.,Boston,MA,USA'",'A; C',42.3511594,-71.0566553
M.J. O'Connor's,"'27 Columbus Ave.,Boston,MA,USA'",'A; C',42.3511635,-71.069033
163 Vietnamese Sandwich,"'66 Harrison Ave.,Boston,MA,USA'",'A; C',42.3511639,-71.0610014
Potluck Cafe,"'7 Knapp St.,Boston,MA,USA'",'A; C',42.3511642,-71.0620189
Metropolitan In Town Restaurant Bar,"'277 Dartmouth St.,Boston,MA,USA'",'A; C',42.3512052,-71.0776043
Hei La Moon Restaurant,"'88 Beach St.,Boston,MA,USA'",'A; C',42.3512123,-71.0588394
Suishaya Restaurant,"'2 Tyler St.,Boston,MA,USA'",'A; C',42.3512189,-71.0603762
Genki Ya Of Boston,"'232 Tremont St.,Boston,MA,USA'",'A; C',42.3512276,-71.0646281
Barlola,"'160 Commonwealth Ave.,Boston,MA,USA'",'A; C',42.3512626,-71.0786232
Montien Restaurant,"'63 Stuart St.,Boston,MA,USA'",'A; C',42.3512647,-71.0643936
Thai North Restaurant,"'433 Faneuil St.,Boston,MA,USA'",'A; C',42.351266,-71.1683908
Spicy World,"'7 Beach St.,Boston,MA,USA'",'A; C',42.351277,-71.0623298
Atlantic Beer Garden,"'146 Northern Ave.,Boston,MA,USA'",'A; C',42.3512898,-71.0437343
At Union,"'174 Harvard Ave.,Boston,MA,USA'",'A; C',42.3513239,-71.1312797
Intermission Tavern,"'228 Tremont St.,Boston,MA,USA'",'A; C',42.3513409,-71.0646239
Iron Wok (Unit F-3),"'8 Park Pz.,Boston,MA,USA'",'A; C',42.3513467,-71.0661306
New Golden Gate Restaurant,"'66 Beach St.,Boston,MA,USA'",'A; C',42.3513864,-71.0600285
New York Pizza,"'224 Tremont St.,Boston,MA,USA'",'A; C',42.3514513,-71.064616
Taiwan Cafe,"'34 Oxford St.,Boston,MA,USA'",'A; C',42.3514913,-71.0601279
Dumpling Gourmet,"'52 Beach St.,Boston,MA,USA'",'A; C',42.3515312,-71.0606578
Quic Pic Bbq,"'50 Beach St.,Boston,MA,USA'",'A; C',42.3515587,-71.06071
Ben And Jerry's,"'22 Park Pz.,Boston,MA,USA'",'A; C',42.3515639,-71.0690784
Rattlesnake Bar And Grill,"'382 Boylston.,Boston,MA,USA'",'A; C',42.3515845,-71.0720599
Doretta Taverna & Rawbar,"'79 Park Pz.,Boston,MA,USA'",'A; C',42.3516374,-71.0701231
Avana Market Place,"'40 Harrison Ave.,Boston,MA,USA'",'A; C',42.3516622,-71.0608976
Cafe De Lulu,"'40 Harrison Ave.,Boston,MA,USA'",'A; C',42.3516622,-71.0608976
The Juice Bar,"'40 Harrison Ave.,Boston,MA,USA'",'A; C',42.3516622,-71.0608976
Beard's Papa,"'31 Harrison Ave.,Boston,MA,USA'",'A; C',42.3517134,-71.0615759
Saray Restaurant,"'1104 Commonwealth Ave.,Boston,MA,USA'",'A; C',42.351724,-71.124503
Holly Crab,"'1098 Commonwealth Ave.,Boston,MA,USA'",'A; C',42.3517474,-71.1243956
Cosi,"'399 Boylston St.,Boston,MA,USA'",'A; C',42.3518126,-71.0721831
Cookin Cafe,"'1096 Commonwealth Ave.,Boston,MA,USA'",'A; C',42.3518199,-71.1242958
Auntie Anne's (No. Ma 110),"'700 Atlantic Ave.,Boston,MA,USA'",'A; C',42.351854,-71.0551404
Tavern Club,"'4 Boylston Pl.,Boston,MA,USA'",'A; C',42.351908,-71.066169
Blue State Coffee@957 Comm. Ave. Boston,"'957 Commonwealth Ave.,Boston,MA,USA'",'A; C',42.3519084,-71.1191032
Yada Yada Bakery Cafe,"'34 Farnsworth St.,Boston,MA,USA'",'A; C',42.3519565,-71.0483094
Parish Cafe,"'359 Boylston St.,Boston,MA,USA'",'A; C',42.3519619,-71.0716188
T's Pub,"'971 Commonwealth Ave.,Boston,MA,USA'",'A; C',42.3520071,-71.1192207
Sodexo @ Emerson - Little Bldg. (2Nd Fl.),"'80 Boylston St.,Boston,MA,USA'",'A; C',42.3520126,-71.0649292
Al's South St. Express,"'179 Essex St.,Boston,MA,USA'",'A; C',42.3520363,-71.0574236
Au Bon Pain Outdoor Cafe,"'310 Congress St.,Boston,MA,USA'",'A; C',42.3521088,-71.049538
K Town Chicken,"'136 Harvard Ave.,Boston,MA,USA'",'A; C',42.352165,-71.131591
Shabu Zen Restaurant,"'78 Brighton Ave.,Boston,MA,USA'",'A; C',42.352236,-71.129103
Fin's Sushi & Grill,"'62 Boylston St.,Boston,MA,USA'",'A; C',42.3522368,-71.0643915
Troquet,"'140 Boylston St.,Boston,MA,USA'",'A; C',42.35228,-71.0662003
Kung Fu Tea,"'125 Harvard Ave.,Boston,MA,USA'",'A; C',42.3522867,-71.1321838
Brown Sugar Cafe,"'1033 Commonwealth Ave.,Boston,MA,USA'",'A; C',42.352316,-71.1217099
Penang,"'687 Washington St.,Boston,MA,USA'",'A; C',42.3523178,-71.1714639
Chau Chow City,"'73 Essex.,Boston,MA,USA'",'A; C',42.3523875,-71.0604532
Whisky Saigon,"'116 Boylston St.,Boston,MA,USA'",'A; C',42.3524365,-71.0656654
Misono Wok,"'1 Brighton Ave.,Boston,MA,USA'",'A; C',42.3524485,-71.1254097
Smile Thai Noodle,"'1 Brighton Ave.,Boston,MA,USA'",'A; C',42.3524485,-71.1254097
Taj Boston,"'15 Arlington St.,Boston,MA,USA'",'A; C',42.3527933,-71.0715697
Rednecks Roast Beef/Cafe Miti,"'140 Brighton Ave.,Boston,MA,USA'",'A; C',42.3527942,-71.1318234
Bravo Pizza,"'160 Brighton Ave.,Boston,MA,USA'",'A; C',42.3528651,-71.132669
Habanero Mexican Grill Inc.,"'166 Brighton Ave.,Boston,MA,USA'",'A; C',42.3529176,-71.1328396
Brighton Music Hall,"'156 Brighton Ave.,Boston,MA,USA'",'A; C',42.353002,-71.1325069
Jo Jo Taipei,"'101 Brighton Ave.,Boston,MA,USA'",'A; C',42.3530206,-71.1302597
Carlos Cucina Italiana,"'131 Brighton Ave.,Boston,MA,USA'",'A; C',42.3531397,-71.131173
B.U. West Campus,"'278 Babcock St.,Boston,MA,USA'",'A; C',42.353185,-71.121724
Buk Kyung No. 2,"'151 Brighton Ave.,Boston,MA,USA'",'A; C',42.3531975,-71.1318318
Trade,"'520 Atlantic Ave.,Boston,MA,USA'",'A; C',42.353206,-71.052519
Taqueria El Carrizal,"'248 Brighton Ave.,Boston,MA,USA'",'A; C',42.3533232,-71.1364588
Myung Dong 1St Ave,"'90 Harvard Ave.,Boston,MA,USA'",'A; C',42.3533858,-71.1318899
B. Good,"'50 Northern Ave.,Boston,MA,USA'",'A; C',42.3534302,-71.0462
Boston Common Coffee Co.,"'10 High St.,Boston,MA,USA'",'A; C',42.3536531,-71.0566382
Caribe Restaurant,"'559 Washington St.,Boston,MA,USA'",'A; C',42.3537411,-71.0626898
Yoma,"'5 North Beacon St.,Boston,MA,USA'",'A; C',42.3537661,-71.1376103
Grasshopper Vegetarian,"'1 N Beacon St.,Boston,MA,USA'",'A; C',42.35377,-71.1374176
Pita Kabob,"'1 Avenue De Lafayette.,Boston,MA,USA'",'A; C',42.3538065,-71.0605953
Root,"'487 Cambridge St.,Boston,MA,USA'",'A; C',42.3538798,-71.137177
Thinking Cup L L C,"'165 Tremont St.,Boston,MA,USA'",'A; C',42.3539223,-71.0636921
Al Capone,"'80 Summer St.,Boston,MA,USA'",'A; C',42.3540196,-71.0580886
Deep Ellum,"'465 Cambridge St.,Boston,MA,USA'",'A; C',42.3540245,-71.1368443
China Garden,"'525 Washington St.,Boston,MA,USA'",'A; C',42.3542094,-71.062262
Bruegger's Bagel Bakery,"'211 Congress St.,Boston,MA,USA'",'A; C',42.3544778,-71.0554031
Uno Due Go,"'52 Summer St.,Boston,MA,USA'",'A; C',42.3545281,-71.0587412
Boston News Cafe (90 Arch St.),"'90 Arch St.,Boston,MA,USA'",'A; C',42.35473,-71.05837
Viga (133 Pearl Street),"'133 Pearl St.,Boston,MA,USA'",'A; C',42.3547502,-71.0538449
Slate,"'109 High St.,Boston,MA,USA'",'A; C',42.3547561,-71.0543288
49 Social,"'49 Temple Pl.,Boston,MA,USA'",'A; C',42.3548788,-71.0618519
Chacarero,"'93 Arch St.,Boston,MA,USA'",'A; C',42.355041,-71.059135
Brighton House Of Pizza,"'218 Market St.,Boston,MA,USA'",'A; C',42.3550683,-71.149556
Mcdonalds Restaurant,"'146 Tremont St.,Boston,MA,USA'",'A; C',42.3552331,-71.0630443
Cosi,"'125 High St.,Boston,MA,USA'",'A; C',42.3555144,-71.0530268
Tin Tin Buffet,"'200 N Beacon St.,Boston,MA,USA'",'A; C',42.3557107,-71.148189
Athan's European Bakery,"'407 Washington.,Boston,MA,USA'",'A; C',42.3559825,-71.0601915
Au Bon Pain Store No. 44,"'90 Oliver.,Boston,MA,USA'",'A; C',42.3559861,-71.0531144
Foumami,"'225 Franklin St.,Boston,MA,USA'",'A; C',42.3560286,-71.0540513
Black Seeds,"'131 Tremont St.,Boston,MA,USA'",'A; C',42.3560311,-71.0622121
Viga-The Deck @ Digitas Co.,"'33 Arch St.,Boston,MA,USA'",'A; C',42.3562466,-71.0585848
Dunkin Donuts,"'127 Tremont St.,Boston,MA,USA'",'A; C',42.3563498,-71.0617913
Earl Of Sandwich,"'1 Charles St.,Boston,MA,USA'",'A; C',42.3564175,-71.0694344
Sip,"'0 Post Office Sq.,Boston,MA,USA'",'A; C',42.3565705,-71.0564616
Bin 26 Enoteca,"'26 Charles St.,Boston,MA,USA'",'A; C',42.3567874,-71.0700772
Province Place,"'44 Province St.,Boston,MA,USA'",'A; C',42.3568718,-71.0599198
Julep Bar,"'200 High St.,Boston,MA,USA'",'A; C',42.3569184,-71.0519823
Oliver's St Cafe,"'260 Franklin St.,Boston,MA,USA'",'A; C',42.3569306,-71.0539547
Beacon Hill Hotel & Bistro,"'25 Charles St.,Boston,MA,USA'",'A; C',42.3569413,-71.069678
Caffe Bellavita,"'30 Charles St.,Boston,MA,USA'",'A; C',42.357008,-71.069878
Pedro's Tacos,"'53 Bromfield St.,Boston,MA,USA'",'A; C',42.357039,-71.0606422
Jane's Salad & Buffet,"'274 Franklin St St.,Boston,MA,USA'",'A; C',42.3570602,-71.0535947
Silvertone Bar & Grill,"'69 Bromfield St.,Boston,MA,USA'",'A; C',42.3570841,-71.0608912
Cosi,"'14 Milk St.,Boston,MA,USA'",'A; C',42.3571433,-71.0580011
Sabroso Taqueria,"'2 Oliver St.,Boston,MA,USA'",'A; C',42.3571721,-71.0543269
Fig's,"'42 Charles St.,Boston,MA,USA'",'A; C',42.3572133,-71.0702707
Barney Fannings,"'99 Broad St St.,Boston,MA,USA'",'A; C',42.3572672,-71.0526084
Ristorante Toscano Inc.,"'41 Charles St.,Boston,MA,USA'",'A; C',42.3573299,-71.070053
Corporate Chefs,"'2 Guest St.,Boston,MA,USA'",'A; C',42.3573821,-71.148315
Tossed,"'1 Post Office Sq.,Boston,MA,USA'",'A; C',42.3573955,-71.0564013
The Times Irish Pub & Restaurant,"'102 Broad St.,Boston,MA,USA'",'A; C',42.3574214,-71.0521544
Battery Park Restaurant & Lounge,"'31 Batterymarch St.,Boston,MA,USA'",'A; C',42.357561,-71.0541472
Scholars Restaurant,"'23 School St.,Boston,MA,USA'",'A; C',42.3575817,-71.0589405
Max's Deli Cafe,"'30 Batterymarch.,Boston,MA,USA'",'A; C',42.357627,-71.0540612
Bruegger's Bagel Bakery No. 274,"'7 School St.,Boston,MA,USA'",'A; C',42.3576286,-71.0585792
El Molino,"'71 Broad St.,Boston,MA,USA'",'A; C',42.3576822,-71.0537397
The Wheelhouse,"'65 Broad St.,Boston,MA,USA'",'A; C',42.357763,-71.05398
Pavia,"'82 Water St.,Boston,MA,USA'",'A; C',42.3577963,-71.0557607
Tatte Bakery & Cafe,"'70 Charles St.,Boston,MA,USA'",'A; C',42.3579841,-71.0706576
Boston Kebab House,"'44 Kilby St.,Boston,MA,USA'",'A; C',42.3581191,-71.0553215
Villa Mexico Cafe,"'41 Broad St.,Boston,MA,USA'",'A; C',42.3581834,-71.054381
Hungry I,"'71 Charles St.,Boston,MA,USA'",'A; C',42.3582002,-71.0702936
Subway,"'100 City Hall Pz.,Boston,MA,USA'",'A; C',42.3582252,-71.0590048
Hungry Traveler,"'27 Court Sq Sq.,Boston,MA,USA'",'A; C',42.3583605,-71.0594635
Nino's Pizza,"'79 Charles St.,Boston,MA,USA'",'A; C',42.3583975,-71.0704125
University Of Massachusetts Club,"'1 Beacon St.,Boston,MA,USA'",'A; C',42.3584444,-71.0608393
Fill A Buster,"'130 Bowdoin St.,Boston,MA,USA'",'A; C',42.3586454,-71.062482
Artu,"'89 Charles St.,Boston,MA,USA'",'A; C',42.3586573,-71.0704304
Central Wharf Co.,"'160 Milk St.,Boston,MA,USA'",'A; C',42.358711,-71.052768
State Street Express @Mbta State St. Line,"'208 Washington St.,Boston,MA,USA'",'A; C',42.358724,-71.057485
New England Aquarium Corp.,"'250 Atlantic Ave.,Boston,MA,USA'",'A; C',42.3587718,-71.0515526
Bailey & Sage,"'103 State St.,Boston,MA,USA'",'A; C',42.3589479,-71.0550961
Sterlings,"'60 State St.,Boston,MA,USA'",'A; C',42.35903,-71.05646
Bostonia Public House,"'131 State St.,Boston,MA,USA'",'A; C',42.3590653,-71.0542192
Pressed,"'120 Charles St.,Boston,MA,USA'",'A; C',42.359225,-71.070989
Primo's Restaurant,"'28 Myrtle St.,Boston,MA,USA'",'A; C',42.3592257,-71.065573
State Street Sushi,"'92 State St.,Boston,MA,USA'",'A; C',42.3592347,-71.055331
Nunzio's Pizzeria,"'195 State St.,Boston,MA,USA'",'A; C',42.3593074,-71.0526554
Bon Me Foods,"'100 City Hall Pz.,Boston,MA,USA'",'A; C',42.3594493,-71.0588576
Sissy K's,"'6 Commercial.,Boston,MA,USA'",'A; C',42.3595844,-71.0537803
Anthem,"'100-199 Faneuil Hall Market Pl.,Boston,MA,USA'",'A; C',42.3597994,-71.0544602
Boston Kitchen,"'300 Faneuil Hall Market Pl.,Boston,MA,USA'",'A; C',42.3597994,-71.0544602
Boston Pretzel Bakery,"'200 Faneuil Hall Market Pl.,Boston,MA,USA'",'A; C',42.3597994,-71.0544602
Carol Ann Bake Shop,"'200 Faneuil Hall Market Pl.,Boston,MA,USA'",'A; C',42.3597994,-71.0544602
Dog House,"'300 Faneuil Hall Market Pl.,Boston,MA,USA'",'A; C',42.3597994,-71.0544602
Gourmet India,"'200 Faneuil Hall Market Pl.,Boston,MA,USA'",'A; C',42.3597994,-71.0544602
Megumi Of Japan,"'300 Faneuil Hall Market Pl.,Boston,MA,USA'",'A; C',42.3597994,-71.0544602
Mija Cantina And Tequila Bar,"'200 Faneuil Hall Market Pl.,Boston,MA,USA'",'A; C',42.3597994,-71.0544602
New York Deli,"'300 Faneuil Hall Market Pl.,Boston,MA,USA'",'A; C',42.3597994,-71.0544602
West End Strollers,"'300 Faneuil Hall Market Pl.,Boston,MA,USA'",'A; C',42.3597994,-71.0544602
Grotto,"'37 Bowdoin St.,Boston,MA,USA'",'A; C',42.3599106,-71.0631238
Larry J's Bbq Cafe,"'.,Boston,MA,USA'",'A; C',42.3600825,-71.0588801
The Kinsale Irish Pub & Rest.,"'1 Center Plaza.,Boston,MA,USA'",'A; C',42.3600953,-71.0604624
Red Barn Coffee Roasters (Fhsq.),"'1 Faneuil Hall Sq.,Boston,MA,USA'",'A; C',42.3601334,-71.055555
Boston Marriott Longwharf,"'296 State St.,Boston,MA,USA'",'A; C',42.360179,-71.050786
Tia's Waterfront,"'200 Atlantic Ave.,Boston,MA,USA'",'A; C',42.3602462,-71.0513006
Double Tree Guest Suites,"'400 Soldiers Field Rd.,Boston,MA,USA'",'A; C',42.3602825,-71.1182186
King And I Corp.,"'145 Charles St.,Boston,MA,USA'",'A; C',42.3603664,-71.070602
Beacon Hill Pub,"'149 Charles St.,Boston,MA,USA'",'A; C',42.3604536,-71.0706058
Blackstone Grill,"'15 Union St.,Boston,MA,USA'",'A; C',42.36085,-71.056624
Hulun Beir,"'326 Cambridge St.,Boston,MA,USA'",'A; C',42.3609039,-71.0692599
Canton House,"'6 Hancock St.,Boston,MA,USA'",'A; C',42.3609425,-71.0645337
Hard Rock Cafe,"'20 Clinton St.,Boston,MA,USA'",'A; C',42.3609838,-71.0548721
Ma Maison,"'272 Cambridge St.,Boston,MA,USA'",'A; C',42.3609838,-71.0680064
Cafe Podima,"'156 Cambridge St.,Boston,MA,USA'",'A; C',42.3609887,-71.0647402
Seoul,"'156 Cambridge St.,Boston,MA,USA'",'A; C',42.3609887,-71.0647402
Subway (138 Cambridge St.),"'138 Cambridge St.,Boston,MA,USA'",'A; C',42.361006,-71.0639386
Emz Pizza And Ice Cream,"'5 Bowdoin St.,Boston,MA,USA'",'A; C',42.3610523,-71.0628896
Garden Halal Restaurant,"'96 Blackstone St.,Boston,MA,USA'",'A; C',42.361436,-71.05641
Bell In Hand,"'45 Union St.,Boston,MA,USA'",'A; C',42.3615117,-71.0570445
The Point,"'145 Hanover St.,Boston,MA,USA'",'A; C',42.3616069,-71.0570538
Scampo,"'215 Charles St.,Boston,MA,USA'",'A; C',42.3620694,-71.070207
Dunkin Donuts/Bee Fine Foods,"'50 Sudbury.,Boston,MA,USA'",'A; C',42.3622409,-71.0596616
Maki Maki,"'304 Western Ave.,Boston,MA,USA'",'A; C',42.3627085,-71.1363348
Tresca,"'233 Hanover.,Boston,MA,USA'",'A; C',42.3629794,-71.0549807
Harborside Cafe,"'1 Harborside Dr.,Boston,MA,USA'",'A; C',42.3630514,-71.0258031
Riccardo's Ristorante,"'175 North St.,Boston,MA,USA'",'A; C',42.3632013,-71.0537402
Cuppacoffee,"'1 Merrimac St.,Boston,MA,USA'",'A; C',42.3632127,-71.0598292
Neptune Restaurant,"'63 Salem St.,Boston,MA,USA'",'A; C',42.3632374,-71.0559528
The Breakfast Club,"'270 Western Ave.,Boston,MA,USA'",'A; C',42.363254,-71.1336185
Mare,"'135 Richmond.,Boston,MA,USA'",'A; C',42.3632722,-71.0541008
Pauli's,"'65 Salem St.,Boston,MA,USA'",'A; C',42.3632776,-71.0558927
Vito's,"'54 Salem St.,Boston,MA,USA'",'A; C',42.3632809,-71.0563061
Tenoch Mexican,"'3 Lewis St.,Boston,MA,USA'",'A; C',42.3632851,-71.0518525
Modern Pastry Shop I I,"'261 Hanover St.,Boston,MA,USA'",'A; C',42.3633302,-71.0547308
Ernestos Pizza,"'69 Salem St.,Boston,MA,USA'",'A; C',42.363355,-71.0558269
The Boxer Dba Finch,"'105 Merrimac St.,Boston,MA,USA'",'A; C',42.3636332,-71.0620051
Domino's Pizza,"'110 Staniford St.,Boston,MA,USA'",'A; C',42.3636493,-71.0636009
Galleria Umberto,"'287 Hanover St.,Boston,MA,USA'",'A; C',42.3636813,-71.0543314
Au Bon Pain,"'101 Merrimac St.,Boston,MA,USA'",'A; C',42.363848,-71.0616697
Gelateria,"'270 Hanover St.,Boston,MA,USA'",'A; C',42.363849,-71.054714
Carmelina's North End,"'307 Hanover St.,Boston,MA,USA'",'A; C',42.3638797,-71.054108
The Grand Canal,"'57 Canal St.,Boston,MA,USA'",'A; C',42.3638947,-71.0591423
Cafe Pompei,"'280 Hanover St.,Boston,MA,USA'",'A; C',42.3639326,-71.0545565
Mariner's House,"'9 North Sq.,Boston,MA,USA'",'A; C',42.363938,-71.053774
Starbucks Coffee No. 7550,"'2 Atlantic Ave.,Boston,MA,USA'",'A; C',42.3639724,-71.0502895
Anthony's Cafe,"'252 Commercial St.,Boston,MA,USA'",'A; C',42.363993,-71.0513662
Benevento's,"'111 Salem St.,Boston,MA,USA'",'A; C',42.3642823,-71.055398
Four Winds,"'266 Commercial St.,Boston,MA,USA'",'A; C',42.364317,-71.051351
Porters Bar & Grill,"'173 Portland St.,Boston,MA,USA'",'A; C',42.3643811,-71.0615221
The Causeway,"'65 Causeway St.,Boston,MA,USA'",'A; C',42.3644537,-71.0626214
Mcgann's Boston,"'197 Portland St.,Boston,MA,USA'",'A; C',42.3645123,-71.0617311
Volle Nolle,"'349 Hanover St.,Boston,MA,USA'",'A; C',42.364544,-71.053495
The Greatest Bar,"'262 Friend St.,Boston,MA,USA'",'A; C',42.3645594,-71.061447
Assaggio Restaurant,"'25 Prince St.,Boston,MA,USA'",'A; C',42.364571,-71.054175
Asian Too Express,"'200 Logan Airport Trmnl B.,Boston,MA,USA'",'A; C',42.3645818,-71.0195813
Dunkin Donuts-Amer Airlines/Landside,"'200 Logan Airport Trmnl B.,Boston,MA,USA'",'A; C',42.3645818,-71.0195813
Mcdonalds,"'200 Logan Airport Trmnl B.,Boston,MA,USA'",'A; C',42.3645818,-71.0195813
Giacomo's,"'353 Hanover St.,Boston,MA,USA'",'A; C',42.364588,-71.053445
La Summa,"'26 Fleet St.,Boston,MA,USA'",'A; C',42.364683,-71.052554
Hurricane O'Reilly's,"'144 Canal St.,Boston,MA,USA'",'A; C',42.364764,-71.060743
Strega Caffe & Pizzeria,"'371 Hanover St.,Boston,MA,USA'",'A; C',42.364888,-71.0531419
Mangia Mangia,"'145 Endicott St.,Boston,MA,USA'",'A; C',42.3649988,-71.0572936
Half Time,"'113 Causeway St.,Boston,MA,USA'",'A; C',42.3651242,-71.0617438
Tavern In The Square Restaurant (North Station),"'96 Beverly St.,Boston,MA,USA'",'A; C',42.3653207,-71.0595029
Maurizio's,"'364 Hanover St.,Boston,MA,USA'",'A; C',42.3653468,-71.0532754
Sals Lunch,"'31 Thacher St.,Boston,MA,USA'",'A; C',42.3653798,-71.0580158
Il Molo,"'326 Commercial St.,Boston,MA,USA'",'A; C',42.3654212,-71.0510982
Amici,"'111 N Washington St.,Boston,MA,USA'",'A; C',42.3655881,-71.0581531
La Sanghita Cafe,"'389 Maverick St.,Boston,MA,USA'",'A; C',42.3657001,-71.0290391
My Cousin's Place,"'396 Hanover St.,Boston,MA,USA'",'A; C',42.3660152,-71.0529647
Spangler Student Center,"'1 Soldiers Field Rd.,Boston,MA,USA'",'A; C',42.3660316,-71.1200467
Boston Beer Works (Pier B),"'300 Logan Airport Trmnl C.,Boston,MA,USA'",'A; C',42.3660751,-71.020461
Currito Burrito,"'300 Logan Airport Trmnl C.,Boston,MA,USA'",'A; C',42.3660751,-71.020461
Dunkin Donuts(Satellite),"'100 Logan Airport Trmnl A.,Boston,MA,USA'",'A; C',42.3660751,-71.020461
Game-On,"'100 Logan Airport Trmnl A.,Boston,MA,USA'",'A; C',42.3660751,-71.020461
Host-Wolfgang Pucks-Gate 28,"'300 Logan Airport Trmnl C.,Boston,MA,USA'",'A; C',42.3660751,-71.020461
Philips Seafood Express,"'100 Logan Airport Trmnl A.,Boston,MA,USA'",'A; C',42.3660751,-71.020461
U Food Grill,"'300 Logan Airport Trmnl C.,Boston,MA,USA'",'A; C',42.3660751,-71.020461
The Clubs @ Charles River Park,"'10 Whittier Pl.,Boston,MA,USA'",'A; C',42.3661781,-71.0673665
T D Garden Paulaner,"'100 Legends Wa.,Boston,MA,USA'",'A; C',42.3664872,-71.0621057
Mehak Restaurant,"'329 Sumner St.,Boston,MA,USA'",'A; C',42.367151,-71.0361059
Dozzi,"'336 Sumner St.,Boston,MA,USA'",'A; C',42.3672918,-71.0357119
Dunkin Donuts,"'60 Everett St.,Boston,MA,USA'",'A; C',42.368084,-71.035494
Sbarro Restaurant Trmnl E,"'500 Logan Airport Trmnl E.,Boston,MA,USA'",'A; C',42.3685769,-71.0228005
Burger King,"'1 Maverick Sq.,Boston,MA,USA'",'A; C',42.3688447,-71.0393285
Museum Of Science,"'10 Charles River Dm.,Boston,MA,USA'",'A; C',42.3689602,-71.0727644
Hong Kong Harbour,"'5 Maverick Sq.,Boston,MA,USA'",'A; C',42.369105,-71.0397288
La Cancun,"'190H Sumner St.,Boston,MA,USA'",'A; C',42.3692139,-71.0402367
Deparma,"'182 Sumner St.,Boston,MA,USA'",'A; C',42.369298,-71.040332
Honey Dew Donuts,"'14 Maverick Sq.,Boston,MA,USA'",'A; C',42.3693688,-71.03978
Cafeteria Y Pizzaria Mi Columbia,"'50 Maverick Sq.,Boston,MA,USA'",'A; C',42.3701731,-71.0386794
Sun Pizza,"'46 Washington St.,Boston,MA,USA'",'A; C',42.3731132,-71.0653584
Topasio Restaurant,"'120 Meridian St.,Boston,MA,USA'",'A; C',42.3734868,-71.0392746
La Hacienda Restaurant Bar,"'148 Meridian St.,Boston,MA,USA'",'A; C',42.3739817,-71.0392559
Los Arrieros Rest,"'13 Meridian St.,Boston,MA,USA'",'A; C',42.3746025,-71.0388971
Bohemios Restaurant,"'30 Bennington St.,Boston,MA,USA'",'A; C',42.3754004,-71.0379654
Dunkin Donuts,"'31 Wm C Kelly Sq.,Boston,MA,USA'",'A; C',42.375451,-71.038758
Pollos A La Brasa Beto's,"'69 Bennington St.,Boston,MA,USA'",'A; C',42.3756984,-71.0363952
American Bakers,"'39 First Ave.,Boston,MA,USA'",'A; C',42.375751,-71.053617
Tacomania Restaurant,"'244 Meridian St.,Boston,MA,USA'",'A; C',42.375932,-71.03935
Los Pinos Restaurante Mexican Grill,"'82 Bennington St St.,Boston,MA,USA'",'A; C',42.376104,-71.0360503
Kelley's Sq. Pub,"'84 Bennington St.,Boston,MA,USA'",'A; C',42.3762236,-71.0356917
149 Eat Street,"'300 Chelsea St.,Boston,MA,USA'",'A; C',42.376682,-71.031214
Saigon Hut,"'305 Meridian St.,Boston,MA,USA'",'A; C',42.377295,-71.0389546
Saigon Restaurant,"'305 Meridian St.,Boston,MA,USA'",'A; C',42.377295,-71.0389546
Rinconcito Salvadoreno,"'313 Meridian St.,Boston,MA,USA'",'A; C',42.3774792,-71.0389583
Speedy Chen's Chinese Restaurant,"'289 Main St.,Boston,MA,USA'",'A; C',42.3776365,-71.0671835
La Chiva Restaurant,"'259 Bennington St.,Boston,MA,USA'",'A; C',42.3782543,-71.0295409
Canton Eatery,"'339 Meridian St.,Boston,MA,USA'",'A; C',42.3783076,-71.0390041
Angela's Cafe,"'131 Lexington St.,Boston,MA,USA'",'A; C',42.3785276,-71.034964
Cabana Grill,"'254 Bennington St.,Boston,MA,USA'",'A; C',42.3786093,-71.0293626
Pueblo Viejo,"'309 Bennington St.,Boston,MA,USA'",'A; C',42.378876,-71.0278534
La Frontera Restaurant,"'290 Bennington St.,Boston,MA,USA'",'A; C',42.3790294,-71.0286006
Chinese Dragon,"'380 Chelsea St.,Boston,MA,USA'",'A; C',42.3793607,-71.0281209
Tipico Dominicano,"'382 Chelsea St.,Boston,MA,USA'",'A; C',42.3794265,-71.0279655
Elite Donut Shop,"'350 Bennington St.,Boston,MA,USA'",'A; C',42.3794841,-71.0267209
Jeveli's,"'387 Chelsea St.,Boston,MA,USA'",'A; C',42.3795667,-71.0271973
Frio Rico,"'360 Bennington St.,Boston,MA,USA'",'A; C',42.3798566,-71.0265622
Bar Medallo,"'411 Chelsea St.,Boston,MA,USA'",'A; C',42.3799331,-71.0268545
Dacoopa Sub & Pizza,"'474 Saratoga St.,Boston,MA,USA'",'A; C',42.3801485,-71.0272637
Rita's Catering,"'500 Rutherford Ave.,Boston,MA,USA'",'A; C',42.3811262,-71.0724657
Jenny's Pizza,"'320 Medford St.,Boston,MA,USA'",'A; C',42.3812542,-71.0630123
Dunkin Donuts Space No. 52,"'300 Terminal Rd.,Boston,MA,USA'",'A; C',42.3816454,-71.0553531
Host-John Rockets-Gate 28,"'300 Terminal Rd.,Boston,MA,USA'",'A; C',42.3816454,-71.0553531
Sbarro Restaurant (Trmnl C Food Court),"'300 Terminal Rd.,Boston,MA,USA'",'A; C',42.3816454,-71.0553531
Villa Specialties,"'300 Terminal Rd.,Boston,MA,USA'",'A; C',42.3816454,-71.0553531
Fresh City,"'100 Terminal Rd.,Boston,MA,USA'",'A; C',42.3828972,-71.0553676
Market Fresh Kitchen,"'100 Terminal Rd.,Boston,MA,USA'",'A; C',42.3828972,-71.0553676
Cosi American,"'200 Terminal Rd.,Boston,MA,USA'",'A; C',42.3831476,-71.0499464
U Food Grill,"'200 Terminal Rd.,Boston,MA,USA'",'A; C',42.3831476,-71.0499464
Woodys Pizza,"'1035 Saratoga St.,Boston,MA,USA'",'A; C',42.3859629,-71.0053609
Little Asia Restaurant,"'991 Bennington St.,Boston,MA,USA'",'A; C',42.3863639,-71.0070896
Cafe Orient Heights,"'1000 Bennington St.,Boston,MA,USA'",'A; C',42.3868857,-71.0068836
El Kiosco,"'972 Saratoga St.,Boston,MA,USA'",'A; C',42.3871163,-71.007631
Napoles,"'1233 Bennington St.,Boston,MA,USA'",'A; C',42.3898965,-70.9967248
Madonna Shrine,"'145 Gladstone St.,Boston,MA,USA'",'A; C',42.390074,-71.00558
Pho Hoa Restaurant Ii Inc.,"'19 Beach.,Boston,MA,USA'",'A; C',42.4060888,-71.0138508
Mcdonald's,"'1650 Vfw Pw.,Boston,MA,USA'",'A; C',42.2644855,-71.1677864