Name,Address,Grades,Latitude,Longitude 
Kane's Donuts,"'1 International Pl.,Boston,MA,USA'",'A',42.3559861,-71.0531144
Mt. Olympic Pizza,"'187 Wolcott Sq.,Boston,MA,USA'",'A',42.2371442,-71.1323704
Readville Tavern Inc.,"'11 Wolcott Ct.,Boston,MA,USA'",'A',42.2384186,-71.1298618
Starbucks Coffee No. 7531,"'12 Winter St.,Boston,MA,USA'",'A',42.2483561,-71.1280655
Richy's,"'1461 River St.,Boston,MA,USA'",'A',42.2519279,-71.131216
Domino's Pizza (695 Truman Pkwy),"'695 Truman Hw.,Boston,MA,USA'",'A',42.2525851,-71.1188182
Antonios Bacaro,"'1 Fairmount Ave.,Boston,MA,USA'",'A',42.255407,-71.121167
Macumba Latina,"'477 River St.,Boston,MA,USA'",'A',42.2682068,-71.0931137
Flat Black Coffee Co. Ltd.,"'1170 Washington St.,Boston,MA,USA'",'A',42.272397,-71.0683816
The Ice Creamsmith,"'2295 Dorchester Ave.,Boston,MA,USA'",'A',42.2724086,-71.0682233
Lower Mills Pub,"'2269 Dorchester Ave.,Boston,MA,USA'",'A',42.2729782,-71.0680677
Bred,"'2255 Dorchester Ave.,Boston,MA,USA'",'A',42.2733659,-71.067997
Jim Roche Ice Arena,"'1275 Vfw Pk.,Boston,MA,USA'",'A',42.2762072,-71.1729549
Afc Sushi @ Shaw's No. 539,"'75 Spring St.,Boston,MA,USA'",'A',42.2787237,-71.1632963
Parkway Little League Stand,"'315 Baker St.,Boston,MA,USA'",'A',42.279657,-71.1675988
Lani's Pizza,"'1288 Blue Hill Ave.,Boston,MA,USA'",'A',42.279685,-71.092732
Dunkin Donuts (895 Morton St.),"'895 Morton St.,Boston,MA,USA'",'A',42.280475,-71.0841417
Mcdonald's Restaurant,"'511 Gallivan Bl.,Boston,MA,USA'",'A',42.282302,-71.055172
Invi Restaurant,"'765 Morton St.,Boston,MA,USA'",'A',42.2833547,-71.0894124
Ria Cafe,"'5 Bellevue St.,Boston,MA,USA'",'A',42.2835497,-71.1567609
Coffee Cup (Ashmont Station Southbound Side),"'1906 Dorchester Ave.,Boston,MA,USA'",'A',42.2842699,-71.064477
Bk's Pub,"'4272 Washington St.,Boston,MA,USA'",'A',42.2851037,-71.1293964
Ps Coffee,"'4252 Washington St.,Boston,MA,USA'",'A',42.2854459,-71.1290225
Subway,"'4238 Washington St.,Boston,MA,USA'",'A',42.2858292,-71.128444
Jimmies Ice Cream Parlor,"'46 Corinth St St.,Boston,MA,USA'",'A',42.2859861,-71.1291994
The Wapo Taco,"'37 Poplar St.,Boston,MA,USA'",'A',42.2860762,-71.1288537
Holiday Inn Express,"'19 Oakton Ave.,Boston,MA,USA'",'A',42.2865281,-71.0531991
The Dorset,"'367 Neponset Ave.,Boston,MA,USA'",'A',42.2866599,-71.0449371
Delicious Yogurt,"'4198 Washington St.,Boston,MA,USA'",'A',42.2868612,-71.1273403
Delfino Restaurant,"'754 South St.,Boston,MA,USA'",'A',42.286962,-71.129534
Starbucks Coffee Co. No. 7808,"'1804 Centre St.,Boston,MA,USA'",'A',42.2871077,-71.1525024
Only One Jamaican Restaurant,"'160 Norfolk St.,Boston,MA,USA'",'A',42.2871286,-71.0786368
Derna's Restaurant,"'753 South St.,Boston,MA,USA'",'A',42.2871774,-71.1293033
Green T Coffeeshop,"'873 South St.,Boston,MA,USA'",'A',42.2889734,-71.1338699
Breakfast & Burgers,"'962 Blue Hill Ave.,Boston,MA,USA'",'A',42.2908986,-71.0889468
El Sazon De Las Munecas Inc,"'264 Hyde Park Ave.,Boston,MA,USA'",'A',42.292523,-71.1175263
Comfort Inn Boston,"'900 Wm T Morrissey Bl.,Boston,MA,USA'",'A',42.2926955,-71.0471404
Carver Den,"'80 Talbot Ave.,Boston,MA,USA'",'A',42.29418,-71.084159
Ramada Inn,"'800 Wm T Morrissey Bl.,Boston,MA,USA'",'A',42.2944588,-71.0472905
L & C Spanish Restaurant,"'128A Harvard St.,Boston,MA,USA'",'A',42.2964087,-71.0797918
Cafenation,"'378 Washington.,Boston,MA,USA'",'A',42.2983925,-71.0726603
Funtea Cafe,"'1460 Dorchester Ave.,Boston,MA,USA'",'A',42.3007511,-71.0598266
Home Stead,"'1448 Dorchester Ave.,Boston,MA,USA'",'A',42.301053,-71.05973
Brigham & Womens Faulkner Hospital,"'1153 Centre.,Boston,MA,USA'",'A',42.3016411,-71.1287817
B Good Burger,"'227 Washington St.,Boston,MA,USA'",'A',42.3018246,-71.0775917
Union Club Of Boston,"'8 Park St.,Boston,MA,USA'",'A',42.3019984,-71.0535602
Yale Appliance & Lighting,"'296 Freeport St.,Boston,MA,USA'",'A',42.3026175,-71.051479
Franklin Park Snack Bar,"'1 Franklin Park Rd.,Boston,MA,USA'",'A',42.302786,-71.08681
Very Berry Frozen Yogurt,"'1413 Dorchester Ave.,Boston,MA,USA'",'A',42.3029218,-71.0596874
Vaughn's Fish N Chips,"'1 Erie St.,Boston,MA,USA'",'A',42.3033823,-71.0785534
Il Panino Express,"'172 South St.,Boston,MA,USA'",'A',42.303955,-71.1144594
Fresh Food Generation,"'1345 Dorchester Ave.,Boston,MA,USA'",'A',42.304428,-71.059972
Midway Cafe,"'3496 Washington St.,Boston,MA,USA'",'A',42.306195,-71.1074809
Monumental Cupcakes @ Jp Art Market,"'34 South St.,Boston,MA,USA'",'A',42.308256,-71.1152984
Walaikum's Burger,"'491B Blue Hill Ave.,Boston,MA,USA'",'A',42.3082989,-71.0833996
Sarah Care,"'1225 Dorchester Ave.,Boston,MA,USA'",'A',42.308859,-71.058521
The Chamber Cafe,"'210 William T Morrissey Bl.,Boston,MA,USA'",'A',42.3111548,-71.0455223
Casa Verde,"'711 Centre St.,Boston,MA,USA'",'A',42.3114229,-71.1145861
The Pink Samurai,"'658 Centre St.,Boston,MA,USA'",'A',42.312789,-71.1139977
Venice Pizza,"'39 Savin Hill Ave.,Boston,MA,USA'",'A',42.312932,-71.0573679
Minus The Moo,"'195 Quincy St.,Boston,MA,USA'",'A',42.3129671,-71.0752416
Boloco,"'27 School St.,Boston,MA,USA'",'A',42.3131994,-71.0970769
Clover,"'27 School St.,Boston,MA,USA'",'A',42.3131994,-71.0970769
Commonwealth Coffee Company Llc,"'196 Quincy St.,Boston,MA,USA'",'A',42.3132151,-71.0743782
Exodus Bagels,"'196 Quincy St.,Boston,MA,USA'",'A',42.3132151,-71.0743782
Just Add Cooking,"'196 Quincy St.,Boston,MA,USA'",'A',42.3132151,-71.0743782
Noodle Lab,"'196 Quincy St.,Boston,MA,USA'",'A',42.3132151,-71.0743782
Paleo Life,"'196 Quincy St.,Boston,MA,USA'",'A',42.3132151,-71.0743782
Tia's Cakes And Pastries,"'196 Quincy St.,Boston,MA,USA'",'A',42.3132151,-71.0743782
Zuki Foods Llc,"'196 Quincy St.,Boston,MA,USA'",'A',42.3132151,-71.0743782
Kriola Bar & Restaurant,"'33 Hancock St.,Boston,MA,USA'",'A',42.3143101,-71.0658176
Restaurant At 33 Hancock,"'33 Hancock St.,Boston,MA,USA'",'A',42.3143101,-71.0658176
Fomu,"'615 Centre St.,Boston,MA,USA'",'A',42.3143523,-71.1143365
Bella Luna Restaurant @ The Brewery,"'284 Amory St.,Boston,MA,USA'",'A',42.3145192,-71.10371
Ula Cafe`,"'284 Amory St.,Boston,MA,USA'",'A',42.3145192,-71.10371
7 Pond Coffee Bar,"'597 Centre St.,Boston,MA,USA'",'A',42.3149085,-71.1143085
Mike's Fitness,"'21D Bismarck.,Boston,MA,USA'",'A',42.314952,-71.1029386
Evy Tea,"'253 Amory St.,Boston,MA,USA'",'A',42.3155945,-71.1042716
Hissho Sushi @ Umass Boston,"'100 William T Morrissey Bl.,Boston,MA,USA'",'A',42.315672,-71.0479068
Integrated Sciences Complex Cafe,"'100 William T Morrissey Bl.,Boston,MA,USA'",'A',42.315672,-71.0479068
Sodexo U Mass Boston Express,"'100 Wm T Morrissey Bl.,Boston,MA,USA'",'A',42.315672,-71.0479068
Sodexo Umass-Atrium,"'100 William T Morrissey Bl.,Boston,MA,USA'",'A',42.315672,-71.0479068
Starbucks Coffee No. 7564,"'60 Boylston St.,Boston,MA,USA'",'A',42.317296,-71.106424
C&S Tavern,"'380 Warren St.,Boston,MA,USA'",'A',42.3179953,-71.0818203
Ray & Joan Kruk Community Center,"'650 Dudley St.,Boston,MA,USA'",'A',42.3195436,-71.0701805
Club Hotel Bar,"'240 Mount Vernon St.,Boston,MA,USA'",'A',42.3202692,-71.0479171
Dunkin' Donuts,"'256 Boston St.,Boston,MA,USA'",'A',42.320886,-71.0609153
Camp Harborview,"'Long Island.,Boston,MA,USA'",'A',42.3209197,-70.9650822
Rey Del Pollo,"'109 Blue Hill Ave.,Boston,MA,USA'",'A',42.3212039,-71.0775256
Sugar Bowl,"'857 Dorchester Ave.,Boston,MA,USA'",'A',42.3214521,-71.0569849
Venetian Garden,"'1269 Massachusetts Ave.,Boston,MA,USA'",'A',42.3215004,-71.0626292
Casa Real Mexican Food,"'856 Dorchester Ave.,Boston,MA,USA'",'A',42.3215305,-71.0565687
Pizza Oggi,"'8 Perkins St.,Boston,MA,USA'",'A',42.3216986,-71.1106635
The Union Lounge,"'180 Mount Vernon St.,Boston,MA,USA'",'A',42.3218201,-71.0469525
Dorchester Brewing Company,"'1246 Massachusetts Ave.,Boston,MA,USA'",'A',42.322132,-71.0623169
Blue Nile Restaurant,"'387 Centre St.,Boston,MA,USA'",'A',42.3223129,-71.1095052
The Frogmore,"'365 Centre St.,Boston,MA,USA'",'A',42.3226147,-71.1081877
Dunkin Donuts,"'315 Centre St.,Boston,MA,USA'",'A',42.3232248,-71.1036012
Subway (315 Centre St.),"'315 Centre St.,Boston,MA,USA'",'A',42.3232248,-71.1036012
Panera Bread,"'8 Allstate Rd.,Boston,MA,USA'",'A',42.3258375,-71.0633599
Panera Bread Bakery Cafe,"'8 Allstate Rd.,Boston,MA,USA'",'A',42.3258375,-71.0633599
Southern Baptist Church,"'29 Winthrop St.,Boston,MA,USA'",'A',42.3262239,-71.0814429
Dunkin Donuts @ Stop & Shop,"'1100 Massachusetts Ave.,Boston,MA,USA'",'A',42.3265749,-71.0650725
Yawkey Club Of Roxbury,"'115 Warren St.,Boston,MA,USA'",'A',42.3267945,-71.0837608
Holiday Inn Express,"'69R Boston St.,Boston,MA,USA'",'A',42.3269639,-71.059716
Courtyard By Marriott,"'65R Boston St.,Boston,MA,USA'",'A',42.3282262,-71.060016
P & R Restaurant & Ice Cream Parlor,"'208 Dudley St.,Boston,MA,USA'",'A',42.3286299,-71.0810549
New England Baptist,"'125 Parker Hill Ave.,Boston,MA,USA'",'A',42.3293235,-71.1071868
Grandtea Distilling,"'353 Dorchester St.,Boston,MA,USA'",'A',42.3306645,-71.0552083
Best Western Roundhouse,"'8 Gerard St.,Boston,MA,USA'",'A',42.331719,-71.071493
Best Western Plus Roundhouse Suites,"'891 Massachusetts Ave.,Boston,MA,USA'",'A',42.3317508,-71.0714744
Dunkin Donuts',"'9 Melnea Cass Bl.,Boston,MA,USA'",'A',42.33187,-71.0733551
Beta Burger Inc,"'1437 Tremont St.,Boston,MA,USA'",'A',42.3318991,-71.0964117
Highland Tap Of Boston Inc.,"'2121 Washington St.,Boston,MA,USA'",'A',42.3319396,-71.0817144
Subway,"'900 Huntington Ave.,Boston,MA,USA'",'A',42.331985,-71.1117924
Dunkin Donuts (1447 Tremont St.),"'1447 Tremont St.,Boston,MA,USA'",'A',42.331987,-71.09681
South Boston Yacht Club,"'1849 Columbia Rd.,Boston,MA,USA'",'A',42.3321748,-71.0269887
Hampton Inn & Suites Boston,"'811 Massachusetts Ave.,Boston,MA,USA'",'A',42.3325759,-71.0729888
Alumni 2,"'2597 Beacon St.,Boston,MA,USA'",'A',42.3334381,-71.1675375
Alumni 3,"'2597 Beacon St.,Boston,MA,USA'",'A',42.3334381,-71.1675375
Alumni 4,"'2597 Beacon St.,Boston,MA,USA'",'A',42.3334381,-71.1675375
Alumni 5,"'2597 Beacon St.,Boston,MA,USA'",'A',42.3334381,-71.1675375
Concession Kitchen South Side,"'2597 Beacon St.,Boston,MA,USA'",'A',42.3334381,-71.1675375
Conte 1,"'2597 Beacon St.,Boston,MA,USA'",'A',42.3334381,-71.1675375
Conte 2,"'2597 Beacon St.,Boston,MA,USA'",'A',42.3334381,-71.1675375
Conte 3,"'2597 Beacon St.,Boston,MA,USA'",'A',42.3334381,-71.1675375
Conte 4,"'2597 Beacon St.,Boston,MA,USA'",'A',42.3334381,-71.1675375
Conte 4Th Fl W,"'2597 Beacon St.,Boston,MA,USA'",'A',42.3334381,-71.1675375
Conte 5,"'2597 Beacon St.,Boston,MA,USA'",'A',42.3334381,-71.1675375
Conte 6,"'2597 Beacon St.,Boston,MA,USA'",'A',42.3334381,-71.1675375
Conte 7,"'2597 Beacon St.,Boston,MA,USA'",'A',42.3334381,-71.1675375
Conte 8,"'2597 Beacon St.,Boston,MA,USA'",'A',42.3334381,-71.1675375
East Roof Production Kitchen,"'2597 Beacon St.,Boston,MA,USA'",'A',42.3334381,-71.1675375
North End Zone (Meatball Ob),"'2597 Beacon St.,Boston,MA,USA'",'A',42.3334381,-71.1675375
Silvio O. Conte Forum East Roof 2B,"'2597 Beacon St.,Boston,MA,USA'",'A',42.3334381,-71.1675375
Silvio O. Conte Forum East Roof 2C,"'2597 Beacon St.,Boston,MA,USA'",'A',42.3334381,-71.1675375
Silvio O. Conte Forum East Roof 2D,"'2597 Beacon St.,Boston,MA,USA'",'A',42.3334381,-71.1675375
Silvio O. Conte Forum East Roof 3A,"'2597 Beacon St.,Boston,MA,USA'",'A',42.3334381,-71.1675375
Silvio O. Conte Forum East Roof 3B,"'2597 Beacon St.,Boston,MA,USA'",'A',42.3334381,-71.1675375
Silvio O. Conte Forum East Roof Eagle Cart,"'2597 Beacon St.,Boston,MA,USA'",'A',42.3334381,-71.1675375
Silvio O. Conte Forum Yawkey 4Th Fl.,"'2597 Beacon St.,Boston,MA,USA'",'A',42.3334381,-71.1675375
The Puddingstone Tavern,"'1592 Tremont St.,Boston,MA,USA'",'A',42.3334496,-71.1031645
Dunkin Donuts/Baskin Robbins,"'1631 Tremont.,Boston,MA,USA'",'A',42.3339605,-71.1037166
Dunkin Donuts,"'75 L St.,Boston,MA,USA'",'A',42.3350184,-71.035629
Northeastern University/Janba Juice,"'1175 Tremont St.,Boston,MA,USA'",'A',42.33508,-71.0890631
H3,"'1155 Tremont St.,Boston,MA,USA'",'A',42.335196,-71.089061
Harvard School-Public Health,"'677 Huntington Ave.,Boston,MA,USA'",'A',42.3353558,-71.1027118
Blunch,"'59 East Springfield.,Boston,MA,USA'",'A',42.3354383,-71.0747633
Roza Lyons,"'709 E Broadway.,Boston,MA,USA'",'A',42.3355406,-71.0369706
Lee Chen's,"'473 W Broadway.,Boston,MA,USA'",'A',42.3355438,-71.0461709
Boston Medical Center,"'818 Harrison Ave.,Boston,MA,USA'",'A',42.3357599,-71.0741126
Tom English Cottage,"'112 Emerson St.,Boston,MA,USA'",'A',42.3358908,-71.0404458
Mary Ann's Monday Morning Inc.,"'1937 Beacon St.,Boston,MA,USA'",'A',42.3358982,-71.149286
443 West Broadway,"'443 W Broadway.,Boston,MA,USA'",'A',42.336073,-71.0471616
Schuster Lobby Construction Cafe,"'75 Francis St.,Boston,MA,USA'",'A',42.3360887,-71.1067067
Shapiro 2 Construction Cafe,"'75 Francis St.,Boston,MA,USA'",'A',42.3360887,-71.1067067
Courtyard Cafe,"'200 Longwood Ave.,Boston,MA,USA'",'A',42.3361312,-71.1029949
J.R.'s Hideaway,"'29 Foodmart Rd.,Boston,MA,USA'",'A',42.3361314,-71.06254
The Real Deal(1936 Beacon St.),"'1936 Beacon St.,Boston,MA,USA'",'A',42.3361725,-71.149864
Starbucks Coffee,"'1948 Beacon St.,Boston,MA,USA'",'A',42.3363577,-71.1501756
Applebee's Neighborhood Grill,"'379 Chestnut Hill Ave.,Boston,MA,USA'",'A',42.3363621,-71.1512871
Super Fry,"'1041 Tremont St.,Boston,MA,USA'",'A',42.3365999,-71.0857766
Pino's Pizza House,"'1918 Beacon St.,Boston,MA,USA'",'A',42.3366194,-71.1492179
Spoon Cafe,"'578 Huntington Ave.,Boston,MA,USA'",'A',42.3367523,-71.096898
Roggie's Restaurant,"'356 Chestnut Hill Ave.,Boston,MA,USA'",'A',42.3368366,-71.1515823
Chill,"'354 Chestnut Hill Ave.,Boston,MA,USA'",'A',42.3368803,-71.1515184
Boston Medical Center,"'88 East Newton St.,Boston,MA,USA'",'A',42.3370154,-71.0705891
Boston Medical Center Kiosk On Bridge,"'88 East Newton St.,Boston,MA,USA'",'A',42.3370154,-71.0705891
Corner Tavern,"'645 E Second St.,Boston,MA,USA'",'A',42.3372826,-71.0374675
Red Mango @ Boston Childrens,"'300 Longwood Ave.,Boston,MA,USA'",'A',42.3373982,-71.104968
Starbucks@Boston Childrens(Sodexo),"'300 Longwood Ave.,Boston,MA,USA'",'A',42.3373982,-71.104968
Jazzman's By Sodexo@Dana Farber,"'450 Brookline Ave.,Boston,MA,USA'",'A',42.3374895,-71.1081414
Sodexo Corner Deli,"'450 Brookline Ave.,Boston,MA,USA'",'A',42.3374895,-71.1081414
Northeastern University Faculty Club,"'716 Columbus Ave.,Boston,MA,USA'",'A',42.3376006,-71.0851677
The Juice Box,"'359 W Broadway.,Boston,MA,USA'",'A',42.3378694,-71.0496777
B I Deaconess/West End Cafe,"'1 Deaconess Rd.,Boston,MA,USA'",'A',42.3379108,-71.1091456
Dunkin' Donuts,"'1 Deaconess Rd.,Boston,MA,USA'",'A',42.3379108,-71.1091456
Chestnut Park At Cleveland Circle,"'50 Sutherland Rd.,Boston,MA,USA'",'A',42.3380095,-71.1501688
President's Suite,"'21 St Thomas Moore Rd.,Boston,MA,USA'",'A',42.3380689,-71.1645259
Cafe Des Arts,"'230 Fenway.,Boston,MA,USA'",'A',42.3385206,-71.0965947
Sullivan's,"'2080 Wm J Day Bl.,Boston,MA,USA'",'A',42.3388538,-71.0131549
B-Good,"'354 Longwood Ave.,Boston,MA,USA'",'A',42.3389228,-71.1072958
Starbucks Coffee No. 7224,"'364 Brookline Ave.,Boston,MA,USA'",'A',42.3389359,-71.1062813
Clover,"'360 Longwood Ave.,Boston,MA,USA'",'A',42.3390162,-71.1080246
Afc Sushi @Simmons College,"'300 Fenway.,Boston,MA,USA'",'A',42.3390832,-71.1000654
Beth Isreal Deaconess,"'330 Brookline Ave.,Boston,MA,USA'",'A',42.3396532,-71.1052457
Beantown Burrito,"'400 Longwood Ave.,Boston,MA,USA'",'A',42.340107,-71.1093391
El Pelon,"'2193 Commonwealth Ave.,Boston,MA,USA'",'A',42.340304,-71.1663574
Northeastern Univ Mathews Arena,"'284 St Botolph St.,Boston,MA,USA'",'A',42.3405239,-71.0862813
Wally's,"'427 Massachusetts Ave.,Boston,MA,USA'",'A',42.3406791,-71.082284
Srv,"'434 Massachusetts Ave.,Boston,MA,USA'",'A',42.3408903,-71.0818149
Andalus Pizza & Cafe,"'153 Sutherland Rd.,Boston,MA,USA'",'A',42.3410081,-71.1468542
Render Coffee,"'563 Columbus Ave.,Boston,MA,USA'",'A',42.3411422,-71.0815368
The Elephant Walk,"'1415 Washington St.,Boston,MA,USA'",'A',42.3411578,-71.0705731
The Gallows,"'1395 Washington St.,Boston,MA,USA'",'A',42.3413372,-71.0702732
Matthews Arena Concession,"'238 Saint Botolph St.,Boston,MA,USA'",'A',42.3415302,-71.0843298
Fuel America,"'152 Chestnut Hill Ave.,Boston,MA,USA'",'A',42.3416229,-71.1542387
La Motta,"'1357 Washington St.,Boston,MA,USA'",'A',42.3416294,-71.0693269
Panera Bread,"'289 Huntington Ave.,Boston,MA,USA'",'A',42.341692,-71.086565
Mangia Neapolitan Pizzeria,"'537 Columbus Ave.,Boston,MA,USA'",'A',42.3417001,-71.0807732
Dunkin' Donuts,"'283 Huntington Ave.,Boston,MA,USA'",'A',42.3418614,-71.0864762
Farmer Horse Coffee,"'374 Massachusetts Ave.,Boston,MA,USA'",'A',42.3419405,-71.0833954
Starbucks Coffee,"'273 Huntington Ave.,Boston,MA,USA'",'A',42.3420551,-71.0862908
Cinque Cento,"'500 Harrison Ave.,Boston,MA,USA'",'A',42.3421138,-71.0658051
Fomu,"'655 Tremont St.,Boston,MA,USA'",'A',42.3421329,-71.075641
Subway (11 W. Broadway),"'11 W Broadway.,Boston,MA,USA'",'A',42.3423347,-71.056551
Kava Neo Taverna,"'315 Shawmut Ave.,Boston,MA,USA'",'A',42.342388,-71.0704289
Church,"'69 Kilmarnock St.,Boston,MA,USA'",'A',42.3424681,-71.0994874
Worden Hall,"'22 W Broadway.,Boston,MA,USA'",'A',42.3426434,-71.0568023
William's Tavern,"'92 A St.,Boston,MA,USA'",'A',42.3427647,-71.0546255
Cathedral Station,"'1222 Washington St.,Boston,MA,USA'",'A',42.3427828,-71.0667399
Boston Symphony Orchestra,"'301 Massachusetts Ave.,Boston,MA,USA'",'A',42.342917,-71.0856849
The Wholy Grain,"'275 Shawmut Ave.,Boston,MA,USA'",'A',42.3430367,-71.0694148
Bamboo Thai Restaurant,"'1616 Commonwealth Ave.,Boston,MA,USA'",'A',42.343229,-71.1427851
Medieval Manor,"'246 East Berkeley.,Boston,MA,USA'",'A',42.3433367,-71.0633038
El Triunfo Restaurant,"'147 E Berkeley St.,Boston,MA,USA'",'A',42.3434733,-71.064845
Aloft Seaport Hotel -Banquet Kitchen,"'401 D St.,Boston,MA,USA'",'A',42.3435338,-71.0445982
Aloft Seaport Hotel -Re Fuel Bar,"'401 D St.,Boston,MA,USA'",'A',42.3435338,-71.0445982
Aloft Seaport Hotel -Wxyz Bar,"'401 D St.,Boston,MA,USA'",'A',42.3435338,-71.0445982
Element Seaport Hotel Boston,"'391 D St.,Boston,MA,USA'",'A',42.3435338,-71.0445982
Caffe Nero,"'53 Union Pk.,Boston,MA,USA'",'A',42.3435893,-71.0719985
Cuppa Coffee,"'275 Albany St.,Boston,MA,USA'",'A',42.343611,-71.062692
J J Foley's Cafe,"'117 East Berkeley.,Boston,MA,USA'",'A',42.3436407,-71.0653402
Myers & Chang,"'1143 Washington St.,Boston,MA,USA'",'A',42.343808,-71.0663243
B & G Oysters Ltd.,"'550 Tremont St.,Boston,MA,USA'",'A',42.3438919,-71.0712654
129 Lake Street Cafe,"'127 Lake St.,Boston,MA,USA'",'A',42.3439575,-71.162576
Tiger Mama,"'1363 Boylston St.,Boston,MA,USA'",'A',42.3439679,-71.1000142
Sultana's Bakery & Cafe,"'1585 Commonwealth Ave.,Boston,MA,USA'",'A',42.3441952,-71.1430607
Roxy's Grilled Cheese,"'21 Dry Dock Ave.,Boston,MA,USA'",'A',42.3442246,-71.0310844
Triangle Coffee,"'21 Dry Dock Ave.,Boston,MA,USA'",'A',42.3442246,-71.0310844
Yankee Lobster,"'27 Drydock Ave.,Boston,MA,USA'",'A',42.3442652,-71.027987
Burger King,"'100 Washington St.,Boston,MA,USA'",'A',42.344323,-71.144269
Longhorn Steakhouse 5148,"'201 Brookline Ave.,Boston,MA,USA'",'A',42.3445717,-71.1016796
Bar Mezzana,"'360 Harrison Ave.,Boston,MA,USA'",'A',42.344605,-71.0637903
Banyan Bar & Refuge,"'537 Tremont St.,Boston,MA,USA'",'A',42.344691,-71.0714069
Starbucks Coffee,"'140 Brookline Ave.,Boston,MA,USA'",'A',42.344745,-71.1006869
Gillette Cafeteria,"'1 Gillette Pk.,Boston,MA,USA'",'A',42.3449071,-71.0545262
Sweetgreen,"'132 Brookline Ave.,Boston,MA,USA'",'A',42.3450649,-71.100462
Fuji At Ink Block,"'350 Harrison Ave.,Boston,MA,USA'",'A',42.345419,-71.063465
Concession Stand North East,"'415 Summer St.,Boston,MA,USA'",'A',42.3454868,-71.046439
Concession Stand North West,"'415 Summer St.,Boston,MA,USA'",'A',42.3454868,-71.046439
Concession Stand South East,"'415 Summer St.,Boston,MA,USA'",'A',42.3454868,-71.046439
Concession Stand South West,"'415 Summer St.,Boston,MA,USA'",'A',42.3454868,-71.046439
Levy Premium Food Court 1,"'415 Summer St.,Boston,MA,USA'",'A',42.3454868,-71.046439
Levy Premium Food Court 2,"'415 Summer St.,Boston,MA,USA'",'A',42.3454868,-71.046439
Levy Premium Food Court 3,"'415 Summer St.,Boston,MA,USA'",'A',42.3454868,-71.046439
Levy Premium Food Court 4,"'415 Summer St.,Boston,MA,USA'",'A',42.3454868,-71.046439
Levy Premium Food Court 5,"'415 Summer St.,Boston,MA,USA'",'A',42.3454868,-71.046439
Levy Premium Main Kitchen & Commissary,"'415 Summer St.,Boston,MA,USA'",'A',42.3454868,-71.046439
Dunkin Donuts,"'1 Harbor St.,Boston,MA,USA'",'A',42.3455095,-71.035511
Au Bon Pain,"'133 Brookline Ave.,Boston,MA,USA'",'A',42.3457154,-71.1014625
Peet's Coffee & Tea,"'310 Harrison Ave.,Boston,MA,USA'",'A',42.3457244,-71.0628563
City Bar/M. J. O'Connor's,"'425 Summer St.,Boston,MA,USA'",'A',42.3457313,-71.0435238
The Westin Boston Waterfront,"'425 Summer St.,Boston,MA,USA'",'A',42.3457313,-71.0435238
Bo9/Co9/Y7,"'4 Yawkey Wy.,Boston,MA,USA'",'A',42.3458436,-71.0987819
Bv,"'4 Yawkey Wy.,Boston,MA,USA'",'A',42.3458436,-71.0987819
C01/B01/Y01,"'4 Yawkey Wy.,Boston,MA,USA'",'A',42.3458436,-71.0987819
C11,"'4 Yawkey Wa.,Boston,MA,USA'",'A',42.3458436,-71.0987819
C12/B12,"'4 Yawkey Wa.,Boston,MA,USA'",'A',42.3458436,-71.0987819
C13/B13,"'4 Yawkey Wa.,Boston,MA,USA'",'A',42.3458436,-71.0987819
C15/B15,"'4 Yawkey Wa.,Boston,MA,USA'",'A',42.3458436,-71.0987819
C16/B16,"'4 Yawkey Wa.,Boston,MA,USA'",'A',42.3458436,-71.0987819
C17/B17,"'4 Yawkey Wa.,Boston,MA,USA'",'A',42.3458436,-71.0987819
Catering,"'4 Yawkey Wy.,Boston,MA,USA'",'A',42.3458436,-71.0987819
Center Field Scoop,"'4 Yawkey.,Boston,MA,USA'",'A',42.3458436,-71.0987819
Champion Club,"'4 Yawkey Wy.,Boston,MA,USA'",'A',42.3458436,-71.0987819
Co5/Bo5/Yo5,"'4 Yawkey.,Boston,MA,USA'",'A',42.3458436,-71.0987819
Co6/Bo6,"'4 Yawkey Wa.,Boston,MA,USA'",'A',42.3458436,-71.0987819
Co7,"'4 Yawkey Wa.,Boston,MA,USA'",'A',42.3458436,-71.0987819
Dd1/B14,"'4 Yawkey Wa.,Boston,MA,USA'",'A',42.3458436,-71.0987819
Dd2,"'4 Yawkey Wa.,Boston,MA,USA'",'A',42.3458436,-71.0987819
Dugout Inseat,"'4 Yawkey Wy.,Boston,MA,USA'",'A',42.3458436,-71.0987819
Emc Club,"'4 Yawkey Wy.,Boston,MA,USA'",'A',42.3458436,-71.0987819
Gec/Geb,"'4 Yawkey Wa.,Boston,MA,USA'",'A',42.3458436,-71.0987819
Gm1,"'4 Yawkey Wa.,Boston,MA,USA'",'A',42.3458436,-71.0987819
L5B1,"'4 Yawkey Wa.,Boston,MA,USA'",'A',42.3458436,-71.0987819
L5B3,"'4 Yawkey Wa.,Boston,MA,USA'",'A',42.3458436,-71.0987819
L5C1,"'4 Yawkey Wa.,Boston,MA,USA'",'A',42.3458436,-71.0987819
L5C3,"'4 Yawkey Wa.,Boston,MA,USA'",'A',42.3458436,-71.0987819
Lb1,"'4 Yawkey.,Boston,MA,USA'",'A',42.3458436,-71.0987819
Lbg,"'4 Yawkey Wa.,Boston,MA,USA'",'A',42.3458436,-71.0987819
Lc1/Pizza/Lb2,"'4 Yawkey Wy.,Boston,MA,USA'",'A',42.3458436,-71.0987819
Lc4A,"'4 Yawkey Wa.,Boston,MA,USA'",'A',42.3458436,-71.0987819
Left Field Inseat,"'4 Yawkey Wy.,Boston,MA,USA'",'A',42.3458436,-71.0987819
Lfv,"'4 Yawkey Wy.,Boston,MA,USA'",'A',42.3458436,-71.0987819
Pav1A,"'4 Yawkey Wa.,Boston,MA,USA'",'A',42.3458436,-71.0987819
Pavb1,"'4 Yawkey Wa.,Boston,MA,USA'",'A',42.3458436,-71.0987819
Pavb3,"'4 Yawkey Wa.,Boston,MA,USA'",'A',42.3458436,-71.0987819
Pavc1,"'4 Yawkey.,Boston,MA,USA'",'A',42.3458436,-71.0987819
Pavc3,"'4 Yawkey.,Boston,MA,USA'",'A',42.3458436,-71.0987819
Pizza 10,"'4 Yawkey Wa.,Boston,MA,USA'",'A',42.3458436,-71.0987819
Po6/Bo7/Pbd,"'4 Yawkey Wa.,Boston,MA,USA'",'A',42.3458436,-71.0987819
Right Field Pantry,"'4 Yawkey Wy.,Boston,MA,USA'",'A',42.3458436,-71.0987819
V10,"'4 Yawkey Wa.,Boston,MA,USA'",'A',42.3458436,-71.0987819
Vhp,"'4 Yawkey Wy.,Boston,MA,USA'",'A',42.3458436,-71.0987819
Vrf,"'4 Yawkey Wy.,Boston,MA,USA'",'A',42.3458436,-71.0987819
Y06,"'4 Yawkey Wy.,Boston,MA,USA'",'A',42.3458436,-71.0987819
The Belvedere Condominium,"'100 Belvidere St.,Boston,MA,USA'",'A',42.3458902,-71.0822837
Residence Inn Fenway - Boston,"'121 Brookline Ave.,Boston,MA,USA'",'A',42.3459035,-71.1006082
Berkeley Residence Ywca,"'40 Berkeley St.,Boston,MA,USA'",'A',42.3459419,-71.0708963
Mrs. B's Cafe,"'20 Channel Center St.,Boston,MA,USA'",'A',42.3460016,-71.0515045
The Bullpen,"'19 Yawkey Wa.,Boston,MA,USA'",'A',42.3460927,-71.0988466
Adams B & B,"'12 Edgerly Rd.,Boston,MA,USA'",'A',42.3461214,-71.0878936
Oasis Guest House,"'12 Edgerly Rd.,Boston,MA,USA'",'A',42.3461214,-71.0878936
Wendy's,"'157 Massachusetts Ave.,Boston,MA,USA'",'A',42.3464031,-71.0876969
Boston City Hostel,"'12 Hemenway St.,Boston,MA,USA'",'A',42.3464219,-71.0888564
Hilton Boston Back Bay Coffee Bar,"'40 Dalton St.,Boston,MA,USA'",'A',42.3465008,-71.0854872
Merrill & Co.,"'1 Appleton St.,Boston,MA,USA'",'A',42.3467174,-71.0694173
Aramark @ Bny Mellon,"'201 Washington St.,Boston,MA,USA'",'A',42.346901,-71.14758
B. Good (Mobile),"'131 Dartmouth St.,Boston,MA,USA'",'A',42.3469178,-71.0750402
Boston Marriott/Starbucks,"'110 Huntington Ave.,Boston,MA,USA'",'A',42.3470204,-71.0792887
Marriott Copley Plaza (28Th Fl.),"'110 Huntington Ave.,Boston,MA,USA'",'A',42.3470204,-71.0792887
Marriott/Copley Connexion Lounge,"'110 Huntington Ave.,Boston,MA,USA'",'A',42.3470204,-71.0792887
Marriott/Copley Pl. Champion's,"'110 Huntington Ave.,Boston,MA,USA'",'A',42.3470204,-71.0792887
Starbucks Coffee Co. No. 875,"'228 Washington St.,Boston,MA,USA'",'A',42.3470428,-71.148887
Bukowski,"'50 Dalton St.,Boston,MA,USA'",'A',42.3470597,-71.0856588
Starbucks Coffee No. 801,"'1 Charles St St.,Boston,MA,USA'",'A',42.347121,-71.0717991
Harpoon Brewery Beer Hall,"'306 Northern Ave.,Boston,MA,USA'",'A',42.3471774,-71.0340964
Fenway Cafe,"'61 Brookline Ave.,Boston,MA,USA'",'A',42.34718,-71.0991034
The Lansdowne,"'9 Lansdowne St.,Boston,MA,USA'",'A',42.3473202,-71.0951975
John B. Hynes Vet. Mem. Ctr.,"'880 Boylston St.,Boston,MA,USA'",'A',42.34739,-71.084357
Manulife,"'601 Congress St.,Boston,MA,USA'",'A',42.3474044,-71.0400065
Starbucks,"'601 Congress St.,Boston,MA,USA'",'A',42.3474044,-71.0400065
Bill's Bar,"'7 Lansdowne St.,Boston,MA,USA'",'A',42.3474054,-71.0947428
Renaissance Hotel (Club Lounge),"'606 Congress St.,Boston,MA,USA'",'A',42.3480803,-71.0392395
Renaissance Hotel (Employee Cafe),"'606 Congress St.,Boston,MA,USA'",'A',42.3480803,-71.0392395
Renaissance Hotel (Lobby Lounge),"'606 Congress St.,Boston,MA,USA'",'A',42.3480803,-71.0392395
Renaissance Hotel (Main Kitchen),"'606 Congress St.,Boston,MA,USA'",'A',42.3480803,-71.0392395
Renaissance Hotel (Starbucks),"'606 Congress St.,Boston,MA,USA'",'A',42.3480803,-71.0392395
Cheeseboy: Grilled Cheese To Go,"'280 Washington St.,Boston,MA,USA'",'A',42.3481183,-71.1501455
Afc Sushi @ Berklee Sch. Of Music,"'939 Boylston St.,Boston,MA,USA'",'A',42.3482685,-71.0850061
Clover Fast Food No. 2,"'354 Newbury St.,Boston,MA,USA'",'A',42.3482911,-71.0874357
Minibar,"'51 Huntington Ave.,Boston,MA,USA'",'A',42.3482929,-71.0786231
Subway (1438 Commonwealth Ave.),"'1430 Commonwealth Ave.,Boston,MA,USA'",'A',42.3483424,-71.1399057
Cantina @ Westin Copley,"'10 Huntington Ave.,Boston,MA,USA'",'A',42.3484581,-71.0774606
Starbucks Coffee No. 7652,"'10 Huntington Ave.,Boston,MA,USA'",'A',42.3484581,-71.0774606
Westin Copley Place Ingredients,"'10 Huntington Ave.,Boston,MA,USA'",'A',42.3484581,-71.0774606
Ltk Bar And Kitchen And Legal Test Kitchen,"'225 Northern Ave.,Boston,MA,USA'",'A',42.3484606,-71.0387957
Starbucks Coffee No. 22253,"'1304 Commonwealth Ave.,Boston,MA,USA'",'A',42.3484663,-71.1340793
Ben & Jerry's,"'800 Boylston St.,Boston,MA,USA'",'A',42.348521,-71.0822975
Cold Stone Creamery,"'800 Boylston St.,Boston,MA,USA'",'A',42.348521,-71.0822975
Flamers Charbroiled,"'800 Boylston St.,Boston,MA,USA'",'A',42.348521,-71.0822975
Starbucks Coffee No. 822,"'435 Stuart St St.,Boston,MA,USA'",'A',42.3485336,-71.0756316
Dunkin Donuts,"'530 Commonwealth Ave.,Boston,MA,USA'",'A',42.3485511,-71.0961356
Starbucks Coffee No. 7823,"'470 Washington St.,Boston,MA,USA'",'A',42.3486392,-71.1596565
Healthworks Fitness Center,"'441 Stuart.,Boston,MA,USA'",'A',42.3486448,-71.076066
Dunkin Donuts',"'333 Newbury St.,Boston,MA,USA'",'A',42.3486865,-71.086555
Brighton Allston Congregation Church,"'404 Washington St.,Boston,MA,USA'",'A',42.3487599,-71.1551714
Starbucks Store 17551,"'524 Commonwealth Ave.,Boston,MA,USA'",'A',42.3487835,-71.0959668
Legal Harborside,"'242 Northern Ave.,Boston,MA,USA'",'A',42.3488193,-71.0382389
Luke's Lobster,"'75 Exeter St.,Boston,MA,USA'",'A',42.3488305,-71.0791866
Sabatino's Italian Kitchen,"'1443 Commonwealth Ave.,Boston,MA,USA'",'A',42.3488464,-71.140415
Delfriscos Double Eagle Steak House,"'250 Northern Ave.,Boston,MA,USA'",'A',42.3489037,-71.0382922
Ciao,"'2 Seaport La.,Boston,MA,USA'",'A',42.3489287,-71.0408431
Sodexo @ Cabot Corp.,"'2 Seaport La.,Boston,MA,USA'",'A',42.3489287,-71.0408431
Dunkin Donuts,"'736 Cambridge St.,Boston,MA,USA'",'A',42.3489582,-71.1476809
Jook Sing Cafe,"'177 Harrison Ave.,Boston,MA,USA'",'A',42.3491685,-71.0623873
Kikka Sushi,"'200 Clarendon St.,Boston,MA,USA'",'A',42.3492166,-71.0751249
Blue Dragon,"'324 A St.,Boston,MA,USA'",'A',42.3493095,-71.0495951
Jamba Juice,"'700 Commonwealth Ave.,Boston,MA,USA'",'A',42.349341,-71.1039816
Starbucks,"'700 Commonwealth Ave.,Boston,MA,USA'",'A',42.349341,-71.1039816
The Paint Bar,"'248 Newbury St.,Boston,MA,USA'",'A',42.3493675,-71.0825403
Barracuda On The Fly,"'1 Citywide St.,Boston,MA,USA'",'A',42.3493824,-71.0777334
Big Daddy Hotdogs,"'1 Citywide St.,Boston,MA,USA'",'A',42.3493824,-71.0777334
Blazing Salads On Wheels,"'1 Citywide St.,Boston,MA,USA'",'A',42.3493824,-71.0777334
Boston Dumplings,"'1 Citywide St.,Boston,MA,USA'",'A',42.3493824,-71.0777334
Boston's Baddest Burger & Sandwich Co.,"'1 Citywide St.,Boston,MA,USA'",'A',42.3493824,-71.0777334
Cameo Macaron,"'1 Citywide St.,Boston,MA,USA'",'A',42.3493824,-71.0777334
Capriotti's,"'1 Citywide St.,Boston,MA,USA'",'A',42.3493824,-71.0777334
Captain Marden's Seafoods,"'1 Citywide St.,Boston,MA,USA'",'A',42.3493824,-71.0777334
Chicken And Rice Guys (3),"'1 Citywide St.,Boston,MA,USA'",'A',42.3493824,-71.0777334
Chicken And Rice Guys (4),"'1 Citywide St.,Boston,MA,USA'",'A',42.3493824,-71.0777334
Chik Chak Food Truck,"'1 Citywide St.,Boston,MA,USA'",'A',42.3493824,-71.0777334
Clover,"'1 Citywide St.,Boston,MA,USA'",'A',42.3493824,-71.0777334
Cupcake City,"'1 Citywide St.,Boston,MA,USA'",'A',42.3493824,-71.0777334
Daddy's Bonetown Burgers,"'1 Citywide St.,Boston,MA,USA'",'A',42.3493824,-71.0777334
Frozen Hoagies,"'1 Citywide St.,Boston,MA,USA'",'A',42.3493824,-71.0777334
Frozen Hoagies No. 2,"'1 Citywide St.,Boston,MA,USA'",'A',42.3493824,-71.0777334
Gogi On The Block,"'1 Citywide St.,Boston,MA,USA'",'A',42.3493824,-71.0777334
Indulge India,"'1 Citywide St.,Boston,MA,USA'",'A',42.3493824,-71.0777334
Jamaica Mi Hungry,"'1 Citywide St.,Boston,MA,USA'",'A',42.3493824,-71.0777334
Legal Sea Food,"'Citywide.,Boston,MA,USA'",'A',42.3493824,-71.0777334
Lilo's Plates,"'1 Citywide St.,Boston,MA,USA'",'A',42.3493824,-71.0777334
Lucki's Delights,"'1 Citywide St.,Boston,MA,USA'",'A',42.3493824,-71.0777334
Makin' Jamaican,"'1 Citywide St.,Boston,MA,USA'",'A',42.3493824,-71.0777334
Morning Salute,"'1 Citywide St.,Boston,MA,USA'",'A',42.3493824,-71.0777334
Moyzilla No. 2,"'1 Citywide St.,Boston,MA,USA'",'A',42.3493824,-71.0777334
Munch Mobile Kitchen,"'1 Citywide St.,Boston,MA,USA'",'A',42.3493824,-71.0777334
North East Of The Border No. 2,"'1 Citywide St.,Boston,MA,USA'",'A',42.3493824,-71.0777334
Papi's Stuffed Sopapillas,"'1 Citywide St.,Boston,MA,USA'",'A',42.3493824,-71.0777334
Pomaire Boston Chilean Grill,"'1 Citywide St.,Boston,MA,USA'",'A',42.3493824,-71.0777334
Quebrada Baking Company,"'1 Citywide St.,Boston,MA,USA'",'A',42.3493824,-71.0777334
Sabroso Taqueria,"'1 Citywide St.,Boston,MA,USA'",'A',42.3493824,-71.0777334
Shuck Truck Llc,"'1 Citywide St.,Boston,MA,USA'",'A',42.3493824,-71.0777334
Sparkle Bbq,"'1 Citywide St.,Boston,MA,USA'",'A',42.3493824,-71.0777334
Spiceventure,"'1 Citywide St.,Boston,MA,USA'",'A',42.3493824,-71.0777334
Sweet Bubble,"'1 Citywide St.,Boston,MA,USA'",'A',42.3493824,-71.0777334
Taco Party,"'1 Citywide St.,Boston,MA,USA'",'A',42.3493824,-71.0777334
Taste Of Anatalia,"'1 Citywide St.,Boston,MA,USA'",'A',42.3493824,-71.0777334
Tea Station,"'1 Citywide St.,Boston,MA,USA'",'A',42.3493824,-71.0777334
The Cookie Monstah Company,"'1 Citywide St.,Boston,MA,USA'",'A',42.3493824,-71.0777334
The Cookie Monstah No. 2,"'1 Citywide St.,Boston,MA,USA'",'A',42.3493824,-71.0777334
The Cookie Monstah No. 3,"'1 Citywide St.,Boston,MA,USA'",'A',42.3493824,-71.0777334
The Cupcakory,"'1 Citywide St.,Boston,MA,USA'",'A',42.3493824,-71.0777334
The Dinning Car No. 2,"'1 Citywide St.,Boston,MA,USA'",'A',42.3493824,-71.0777334
The Heritage Truck Catering Co.,"'1 Citywide St.,Boston,MA,USA'",'A',42.3493824,-71.0777334
The Roving Lunchbox,"'1 Citywide St.,Boston,MA,USA'",'A',42.3493824,-71.0777334
Uyghur Kitchen,"'1 Citywide St.,Boston,MA,USA'",'A',42.3493824,-71.0777334
Wow Bbq I,"'1 Citywide St.,Boston,MA,USA'",'A',42.3493824,-71.0777334
Zo Truck,"'1 Citywide St.,Boston,MA,USA'",'A',42.3493824,-71.0777334
Bastille Kitchen,"'49 Melcher St.,Boston,MA,USA'",'A',42.349393,-71.0501922
Cigar Masters,"'745 Boylston St.,Boston,MA,USA'",'A',42.3495194,-71.0805865
The Glenville Stops,"'85 Glenville Ave.,Boston,MA,USA'",'A',42.349521,-71.13501
Crispy Crepes Cafe,"'714 Commonwealth Ave.,Boston,MA,USA'",'A',42.3495725,-71.1056501
Nutter Mcclennen & Fish Llp,"'155 Seaport La.,Boston,MA,USA'",'A',42.3496068,-71.042722
Sodexo @ Foley Hoag & Eliot,"'155 Seaport La.,Boston,MA,USA'",'A',42.3496068,-71.042722
Amorino,"'249 Newbury St.,Boston,MA,USA'",'A',42.3497511,-71.0827956
Sweet Cupcakes Inc.,"'49 Massachusetts Ave.,Boston,MA,USA'",'A',42.34976,-71.089292
Corrib Pub,"'396 Market St.,Boston,MA,USA'",'A',42.3498743,-71.1527542
Dunkin Donuts,"'210 Harvard Ave.,Boston,MA,USA'",'A',42.3498797,-71.1303704
Cuppa Coffee,"'699 Boylston St.,Boston,MA,USA'",'A',42.3498853,-71.0792295
No Name,"'15 Boston Fish Pier.,Boston,MA,USA'",'A',42.3499946,-71.038855
Buco Trattoria,"'300 Summer St.,Boston,MA,USA'",'A',42.3500261,-71.0492085
Great Scott,"'1222 Commonwealth Ave.,Boston,MA,USA'",'A',42.3500363,-71.1305901
Charlesmark Hotel,"'655 Boylston St.,Boston,MA,USA'",'A',42.3500607,-71.0785994
B. U. Einsteins Bagels,"'685 Commonwealth Ave.,Boston,MA,USA'",'A',42.3501152,-71.1045748
Basho Express,"'685 Commonwealth Ave.,Boston,MA,USA'",'A',42.3501152,-71.1045748
Erbaluce,"'69 Church St.,Boston,MA,USA'",'A',42.3501415,-71.0684184
The Gryphon House,"'9 Bay State Rd.,Boston,MA,USA'",'A',42.3501806,-71.093212
Residence Inn By Marriott,"'364 Congress St.,Boston,MA,USA'",'A',42.3502493,-71.0480773
Lacolombe Torrefaction Inc.,"'745 Atlantic Ave.,Boston,MA,USA'",'A',42.350304,-71.057101
Caffe Nero,"'370 Congress St.,Boston,MA,USA'",'A',42.3503487,-71.0477169
The Baupost Group/Cafe Services,"'10 St James Ave.,Boston,MA,USA'",'A',42.3503774,-71.0709538
Rooftop @ Revere Hotel,"'200 Stuart St.,Boston,MA,USA'",'A',42.3504148,-71.0674664
Corporate Chefs @ Soups On,"'1 Kneeland St.,Boston,MA,USA'",'A',42.3504339,-71.0628616
Marco Polo,"'274 Summer St.,Boston,MA,USA'",'A',42.3504395,-71.0499619
Pic A Pasta,"'594 Washington St.,Boston,MA,USA'",'A',42.3504667,-71.1665218
Five Guys Burgers & Fries,"'1227 Commonwealth Ave.,Boston,MA,USA'",'A',42.3505242,-71.1312497
Coffee Corner,"'179 Lincoln.,Boston,MA,USA'",'A',42.3505305,-71.0590964
Jerry Remy's Sports Bar & Grill,"'162 Seaport Bl.,Boston,MA,USA'",'A',42.3505378,-71.0428537
Menton,"'348 Congress St.,Boston,MA,USA'",'A',42.3506068,-71.0485054
Comedy Connection @ The Wilbur Theater,"'244 Tremont St.,Boston,MA,USA'",'A',42.350685,-71.064659
Figaro's Boston Delicatessen,"'105 Beach St.,Boston,MA,USA'",'A',42.3506947,-71.0582036
Icon Aka Rumor,"'100 Warrenton St.,Boston,MA,USA'",'A',42.350708,-71.0662972
Nicks,"'100 Warrenton St.,Boston,MA,USA'",'A',42.350708,-71.0662972
Cure Lounge (Basement At Wilbur Theatre),"'246 Tremont St.,Boston,MA,USA'",'A',42.3507223,-71.0646599
Fleming's Prime Steakhouse,"'217 Stuart St.,Boston,MA,USA'",'A',42.3507543,-71.0684977
The Corner Pub Of Chinatown,"'162 Lincoln St.,Boston,MA,USA'",'A',42.350763,-71.0583607
Appollo Sushi & Grill,"'86 Harrison Ave.,Boston,MA,USA'",'A',42.3507837,-71.0613541
Japanese Hot Pot,"'16 Tyler St.,Boston,MA,USA'",'A',42.3507999,-71.0605296
Boston Wing It,"'1153 Commonwealth Ave.,Boston,MA,USA'",'A',42.350882,-71.1276235
In House Cafe,"'190 Harvard Ave.,Boston,MA,USA'",'A',42.3509027,-71.130986
Papa Razzi Trattoria Bar,"'157 Newbury St.,Boston,MA,USA'",'A',42.350923,-71.078556
Ecco Pizzeria,"'1147 Commonwealth Ave.,Boston,MA,USA'",'A',42.3509433,-71.1273521
B.U. George Sherman Union,"'775 Commonwealth Ave.,Boston,MA,USA'",'A',42.3509605,-71.1088587
Soulfire,"'178 Harvard Ave.,Boston,MA,USA'",'A',42.351076,-71.13106
Tratoria Andiamo,"'104 South St.,Boston,MA,USA'",'A',42.3510882,-71.0570821
Hostelling International Boston,"'25 Stuart St.,Boston,MA,USA'",'A',42.3511224,-71.0635788
Pizza E.T.C.,"'427 Faneuil St.,Boston,MA,USA'",'A',42.3511304,-71.1677863
Bon Me Restaurant,"'313 Congress St.,Boston,MA,USA'",'A',42.3511496,-71.0502211
Peach Farm Restaurant,"'4 Tyler St.,Boston,MA,USA'",'A',42.3511676,-71.0604407
Starbucks Coffee,"'305 Congress St.,Boston,MA,USA'",'A',42.351189,-71.050582
Bijou Night Club,"'51 Stuart St.,Boston,MA,USA'",'A',42.3511995,-71.0641984
Gourmet China House,"'55 Beach St.,Boston,MA,USA'",'A',42.3512076,-71.0607755
Greenhouse Kitchen,"'435 Faneuil St.,Boston,MA,USA'",'A',42.3512109,-71.1684039
Flour Bakery & Cafe,"'12 Farnsworth St.,Boston,MA,USA'",'A',42.351271,-71.0487826
Ostra,"'1 Charles Street South.,Boston,MA,USA'",'A',42.3513094,-71.0673464
Cuong's Vegan Sandwiches,"'5 Beach St.,Boston,MA,USA'",'A',42.3513415,-71.0623096
Sweet Kingdom,"'15 Beach St.,Boston,MA,USA'",'A',42.3513442,-71.0623088
Wild Cherry,"'15 Beach St.,Boston,MA,USA'",'A',42.3513442,-71.0623088
Chipotle Mexican Grill,"'8 Park Pz.,Boston,MA,USA'",'A',42.3513467,-71.0661306
Herrera's Burritos,"'8 Park Pz.,Boston,MA,USA'",'A',42.3513467,-71.0661306
Fidelity Cafe,"'245 Summer St.,Boston,MA,USA'",'A',42.3514288,-71.0538316
Fidelity Coffee Bar,"'245 Summer St.,Boston,MA,USA'",'A',42.3514288,-71.0538316
Bella Arianna,"'107 South St.,Boston,MA,USA'",'A',42.3514346,-71.0576135
Maria's Taqueria,"'226 Tremont St.,Boston,MA,USA'",'A',42.3514447,-71.0646684
Flik @ Fidelity Investments,"'200 Seaport La.,Boston,MA,USA'",'A',42.3514764,-71.0404699
Seaport Elite I I,"'200 Seaport La.,Boston,MA,USA'",'A',42.3514764,-71.0404699
Starbucks Coffee No. 830,"'443 Boylston St.,Boston,MA,USA'",'A',42.3515343,-71.0730563
Gracenote Coffee,"'108 Lincoln St.,Boston,MA,USA'",'A',42.3515436,-71.0580329
Joy Luck Restaurant,"'680 Washington St.,Boston,MA,USA'",'A',42.3515743,-71.0627229
Hot Eastern,"'40 Harrison Ave.,Boston,MA,USA'",'A',42.3516622,-71.0608976
Roast Beast Of Boston,"'1082 Commonwealth Ave.,Boston,MA,USA'",'A',42.351672,-71.123654
Ps Cafe,"'154 Harvard Ave.,Boston,MA,USA'",'A',42.3517028,-71.1315331
Ocean Prime,"'100 Pier 4 Bl.,Boston,MA,USA'",'A',42.3518232,-71.0434178
Honey Dew Donuts,"'700 Atlantic Ave.,Boston,MA,USA'",'A',42.351854,-71.0551404
Mcdonalds,"'700 Atlantic Ave.,Boston,MA,USA'",'A',42.351854,-71.0551404
Mcdonald's,"'700 Atlantic Ave.,Boston,MA,USA'",'A',42.351854,-71.0551404
Oath Craft Pizza,"'700 Atlantic Ave.,Boston,MA,USA'",'A',42.351854,-71.0551404
Jaho Coffee,"'659 Washington St.,Boston,MA,USA'",'A',42.3518644,-71.0627266
Au Bon Pain Kiosk@Childrens Museum,"'308 Congress St.,Boston,MA,USA'",'A',42.3518667,-71.0495792
B.U. Healthy Blends,"'915 Commonwealth Ave.,Boston,MA,USA'",'A',42.3518686,-71.1164602
Dunkin Donuts,"'218 Congress St.,Boston,MA,USA'",'A',42.3519454,-71.0512884
Burgerfi,"'961 Commonwealth Ave.,Boston,MA,USA'",'A',42.35202,-71.119081
Abigail's Tea Room @Congress Bridge,"'306 Congress St.,Boston,MA,USA'",'A',42.3521949,-71.0512904
B.U. Harry Agganis Arena(Fs),"'925 Commonwealth Ave.,Boston,MA,USA'",'A',42.3522078,-71.1177309
B.U. Harry Agganis Arena/Stands,"'925 Commonwealth Ave.,Boston,MA,USA'",'A',42.3522078,-71.1177309
Dunkin/Donut/Watermark,"'630 Washington St.,Boston,MA,USA'",'A',42.3522331,-71.0623864
Hare Krishna Food For Life,"'72 Commonwealth Ave.,Boston,MA,USA'",'A',42.3522919,-71.0749804
Flik @ Goodwin Proctor,"'100 Northern Ave.,Boston,MA,USA'",'A',42.3522957,-71.0434876
Shake Shack,"'77 Seaport Bl.,Boston,MA,USA'",'A',42.3523269,-71.0468626
Mixx Frozen Yogurt,"'66 Brighton Ave.,Boston,MA,USA'",'A',42.3524164,-71.1285501
Olitoki,"'66 Brighton Ave.,Boston,MA,USA'",'A',42.3524164,-71.1285501
First Bite Pizza And Grill,"'76 Brighton Ave.,Boston,MA,USA'",'A',42.352439,-71.1288263
Wing Maru,"'76 Brighton Ave.,Boston,MA,USA'",'A',42.352439,-71.1288263
Starbucks Coffee (South Station),"'640 Atlantic Ave.,Boston,MA,USA'",'A',42.3524481,-71.0555559
Tavern In The Square Restaurant (So. Station),"'640 Atlantic Ave.,Boston,MA,USA'",'A',42.3524481,-71.0555559
Tavitas South Station,"'640 Atlantic Ave.,Boston,MA,USA'",'A',42.3524481,-71.0555559
Souper Bowl,"'1 Brighton Ave.,Boston,MA,USA'",'A',42.3524485,-71.1254097
Steve's Kitchen,"'116 Harvard Ave.,Boston,MA,USA'",'A',42.3525628,-71.1317264
White Horse Tavern,"'116 Brighton Ave.,Boston,MA,USA'",'A',42.3526291,-71.1306982
Energize,"'610 Washington St.,Boston,MA,USA'",'A',42.3527348,-71.0625786
Sodexo @State St. Financial-Ex. Dining,"'1 Lincoln St.,Boston,MA,USA'",'A',42.352773,-71.058609
Sodexo/Jazzman,"'1 Lincoln St.,Boston,MA,USA'",'A',42.352773,-71.058609
State St/Financial Center(Cafeteria),"'1 Lincoln St.,Boston,MA,USA'",'A',42.352773,-71.058609
Dunkin Donuts,"'598 Washington.,Boston,MA,USA'",'A',42.3527849,-71.0625733
Wabora Prime,"'164 Brighton Ave.,Boston,MA,USA'",'A',42.3529113,-71.1327632
Vertex Pharmaceuticals Cafe,"'11 Fan Pier Bl.,Boston,MA,USA'",'A',42.352915,-71.0460679
Wan Convenience,"'172 Brighton Ave.,Boston,MA,USA'",'A',42.3529601,-71.1330635
Teatro,"'177 Tremont St.,Boston,MA,USA'",'A',42.352996,-71.0640695
Silhouette Lounge Inc,"'192 Brighton Ave.,Boston,MA,USA'",'A',42.353005,-71.1343
Sams,"'28 Northern Ave.,Boston,MA,USA'",'A',42.3530139,-71.0459769
Blue Asia Cafe,"'101 Brighton Ave.,Boston,MA,USA'",'A',42.3530206,-71.1302597
Burger King,"'210 Brighton Ave.,Boston,MA,USA'",'A',42.353024,-71.13504
Starbucks Coffee No. 10599,"'125 Summer St.,Boston,MA,USA'",'A',42.3531001,-71.0574039
Taste Of The Town,"'125 Summer St.,Boston,MA,USA'",'A',42.3531001,-71.0574039
The Tam,"'220 Tremont St.,Boston,MA,USA'",'A',42.3531601,-71.1775771
Caffe Di Marina,"'1 Marina Park Dr.,Boston,MA,USA'",'A',42.3531991,-71.0453549
Empire Restaurant,"'1 Marina Park Dr.,Boston,MA,USA'",'A',42.3531991,-71.0453549
Strega Waterfront,"'1 Marina Park Drive.,Boston,MA,USA'",'A',42.3531991,-71.0453549
Lincoln Bar & Grill,"'8 Lincoln St.,Boston,MA,USA'",'A',42.3533315,-71.0577428
Mac's Deli,"'572 Washington St.,Boston,MA,USA'",'A',42.353378,-71.062006
Sa Pa,"'43 Kingston St.,Boston,MA,USA'",'A',42.3534451,-71.0595281
The Good Life,"'28 Kingston St.,Boston,MA,USA'",'A',42.3534701,-71.0590899
Chipotle Mexican Grill No. 1520,"'101 Summer St.,Boston,MA,USA'",'A',42.3535299,-71.058131
Kfc,"'30 N Beacon St.,Boston,MA,USA'",'A',42.353549,-71.138929
Boloco-Atlantic Wharf,"'280 Congress St.,Boston,MA,USA'",'A',42.3535679,-71.0525522
Guckenheimer/Wellington Management(31St Fl),"'280 Congress St.,Boston,MA,USA'",'A',42.3535679,-71.0525522
Starbucks Coffee No. 22566,"'48 Northern Ave.,Boston,MA,USA'",'A',42.353597,-71.0464229
Legal Crossing,"'558 Washington St.,Boston,MA,USA'",'A',42.3536141,-71.0621006
Model Cafe,"'9 North Beacon.,Boston,MA,USA'",'A',42.3536372,-71.137781
Serafina Boston,"'10 High St.,Boston,MA,USA'",'A',42.3536531,-71.0566382
Sodexo @ Emerson - Paramount Servery,"'543 Washington St.,Boston,MA,USA'",'A',42.3536539,-71.062338
Twelve Hours,"'559 Washington St.,Boston,MA,USA'",'A',42.3537411,-71.0626898
Wingz Xpress,"'559 Washington St.,Boston,MA,USA'",'A',42.3537411,-71.0626898
Lookout Rooftop And Bar 7Th Fl.,"'70 Sleeper St.,Boston,MA,USA'",'A',42.3537509,-71.0482098
Outlook Kitchen & Bar (Envoy 1St Fl),"'70 Sleeper St.,Boston,MA,USA'",'A',42.3537509,-71.0482098
Tealosophy,"'1 N Beacon St.,Boston,MA,USA'",'A',42.35377,-71.1374176
Barry's Bootcamp,"'38 Chauncy St.,Boston,MA,USA'",'A',42.3537992,-71.0596806
Boston University Athletic Ctr,"'285 Babcock.,Boston,MA,USA'",'A',42.3538244,-71.1203667
Nickerson Field (Bu),"'285 Babcock.,Boston,MA,USA'",'A',42.3538244,-71.1203667
Nixon & Peabody,"'100 Summer St.,Boston,MA,USA'",'A',42.3538414,-71.0573659
Sodexo @ Bloomberg Boston Pantry,"'100 Summer St.,Boston,MA,USA'",'A',42.3538414,-71.0573659
Whole Heart Provisions Llc,"'487 Cambridge St.,Boston,MA,USA'",'A',42.3538798,-71.137177
Fomu,"'477 Cambridge St.,Boston,MA,USA'",'A',42.3539178,-71.1370326
Intercontinental Boston - Rumba Bar,"'500 Atlantic Ave.,Boston,MA,USA'",'A',42.3539332,-71.0519953
Intercontinental Boston - Sushi Teq,"'500 Atlantic Ave.,Boston,MA,USA'",'A',42.3539332,-71.0519953
Miel Brasserie,"'500 Atlantic Ave.,Boston,MA,USA'",'A',42.3539332,-71.0519953
Papa Johns Pizza,"'533 Washington St.,Boston,MA,USA'",'A',42.3540655,-71.0622268
Clover,"'160 Federal St.,Boston,MA,USA'",'A',42.3540746,-71.0558504
Wendy's Old Fashioned Hambure,"'71 Summer St.,Boston,MA,USA'",'A',42.3540909,-71.058993
Cosi,"'133 Federal St.,Boston,MA,USA'",'A',42.3542676,-71.05661
Falafel King I I I,"'62 Summer St.,Boston,MA,USA'",'A',42.3543623,-71.0585471
Five Guys Burgers & Fries,"'58 Summer St.,Boston,MA,USA'",'A',42.3544168,-71.0586656
Starbucks Coffee No. 7201,"'211 Congress St.,Boston,MA,USA'",'A',42.3544778,-71.0554031
Camino Real,"'46 Harvard Ave.,Boston,MA,USA'",'A',42.3544989,-71.132478
The Field House,"'100 Ashford St.,Boston,MA,USA'",'A',42.354535,-71.123394
Papagayo,"'15 West St.,Boston,MA,USA'",'A',42.3547182,-71.0621093
George Howell Coffee,"'505 Washington St.,Boston,MA,USA'",'A',42.3547484,-71.0616134
The Godfrey Hotel Boston,"'505 Washington St.,Boston,MA,USA'",'A',42.3547484,-71.0616134
Boloco,"'125 Pearl St.,Boston,MA,USA'",'A',42.3549229,-71.0539169
Tremont Cafeteria,"'150 Tremont St.,Boston,MA,USA'",'A',42.3549236,-71.0631608
Irish Village Inc.,"'224 Market St.,Boston,MA,USA'",'A',42.3549275,-71.1497181
Pret-A-Manger,"'101 Arch St.,Boston,MA,USA'",'A',42.3549739,-71.0588044
Starbucks Coffee No. 869,"'101 Federal St.,Boston,MA,USA'",'A',42.3549953,-71.0568204
Subway,"'121 High St.,Boston,MA,USA'",'A',42.3550088,-71.05407
Boston College Club,"'100 Federal St.,Boston,MA,USA'",'A',42.3550619,-71.0559497
Eurest @Boa Cafeteria/Catering,"'100 Federal St.,Boston,MA,USA'",'A',42.3550619,-71.0559497
Wild Greens,"'100 Federal St.,Boston,MA,USA'",'A',42.3550619,-71.0559497
Lulus' Allston,"'417 Cambridge St.,Boston,MA,USA'",'A',42.3551582,-71.134061
Sheesha Lounge,"'417 Cambridge.,Boston,MA,USA'",'A',42.3551582,-71.134061
Deli One,"'85 Arch St St.,Boston,MA,USA'",'A',42.3551696,-71.0582828
Stoddard's Fine Food & Ale,"'48 Temple Pl.,Boston,MA,USA'",'A',42.3551842,-71.0616609
Orange Leaf,"'144 Tremont St.,Boston,MA,USA'",'A',42.355297,-71.06281
Bonapita,"'51 Franklin St.,Boston,MA,USA'",'A',42.3553669,-71.0587693
Roche Brothers Supermarket,"'10 Summer St.,Boston,MA,USA'",'A',42.3554798,-71.0597829
Yvonnes,"'3 Winter Pl.,Boston,MA,USA'",'A',42.3554816,-71.0615764
Herrera's Mexican Grill Inc.,"'11 Temple Pl.,Boston,MA,USA'",'A',42.35549,-71.0625962
Cosi (Kiosk),"'125 High St.,Boston,MA,USA'",'A',42.3555144,-71.0530268
Choat Hall & Stewart,"'150 Oliver St.,Boston,MA,USA'",'A',42.3555618,-71.0525502
Crystal Restaurant,"'14 Linden.,Boston,MA,USA'",'A',42.355614,-71.130667
Brown Brothers Harriman & Co.,"'185 Franklin St.,Boston,MA,USA'",'A',42.3556623,-71.0551085
Pret A Manger (185 Franklin St.),"'185 Franklin St.,Boston,MA,USA'",'A',42.3556623,-71.0551085
Avana Sushi Ii,"'58 Franklin St.,Boston,MA,USA'",'A',42.3557295,-71.0584403
Dunkin Donuts,"'417 Washington St.,Boston,MA,USA'",'A',42.3558635,-71.0604975
Dunkin Donuts,"'214 North Beacon.,Boston,MA,USA'",'A',42.3559035,-71.1490829
Subway,"'401 Washington St.,Boston,MA,USA'",'A',42.3559793,-71.059929
Starbucks Coffee No. 7805,"'90 Oliver St.,Boston,MA,USA'",'A',42.3559861,-71.0531144
D'Guru,"'181 Devonshire St.,Boston,MA,USA'",'A',42.3560315,-71.0575516
Boston Harbor Hotel,"'70 Rowes Wh.,Boston,MA,USA'",'A',42.3562236,-71.0502554
Peet's Coffee & Tea,"'129 Tremont St.,Boston,MA,USA'",'A',42.3562341,-71.0618959
Dunkin' Donuts (Brighton),"'350 Washington St.,Boston,MA,USA'",'A',42.3562818,-71.0588856
Millennium Tower Residents Only Amenity Restaurant,"'1 Franklin St.,Boston,MA,USA'",'A',42.35631,-71.05945
Burger King,"'128 Tremont St.,Boston,MA,USA'",'A',42.3563266,-71.0619247
The Reserve,"'250 Franklin St.,Boston,MA,USA'",'A',42.3564331,-71.0547923
Eaton Vance Harbor Cafe (13Th Fl.),"'2 International Pl.,Boston,MA,USA'",'A',42.356492,-71.051757
Dunkin Donuts(Franklin),"'265 Franklin St.,Boston,MA,USA'",'A',42.3565001,-71.0533679
Pizzeria Rico,"'32 Bromfield St.,Boston,MA,USA'",'A',42.3566062,-71.0602335
Starbucks Coffee/Transportation Bldg.,"'12 Charles St.,Boston,MA,USA'",'A',42.3566192,-71.0696591
Howl At The Moon,"'184 High St.,Boston,MA,USA'",'A',42.3566489,-71.0526247
Kiosk @ Wgbh,"'1 Guest St.,Boston,MA,USA'",'A',42.3566866,-71.1485015
Starbucks Coffee (Rowes Whart),"'30 Rowes Wharf.,Boston,MA,USA'",'A',42.3566931,-71.0502273
Ogawa Coffee,"'10 Milk St.,Boston,MA,USA'",'A',42.3567665,-71.0582077
Dunkin Donuts,"'77 Milk St St.,Boston,MA,USA'",'A',42.356784,-71.0567493
Ziggy's Coffee Bar,"'100 Tremont St.,Boston,MA,USA'",'A',42.3568438,-71.0615914
Panera Bread,"'200 High St.,Boston,MA,USA'",'A',42.3569184,-71.0519823
Flat Black Coffee,"'260 Franklin St.,Boston,MA,USA'",'A',42.3569306,-71.0539547
Gem Restaurant & Lounge,"'42 Province St.,Boston,MA,USA'",'A',42.3569387,-71.0599056
Suffolk University Law School,"'120 Tremont St.,Boston,MA,USA'",'A',42.3569472,-71.0612353
Dunkin Donuts,"'330 Washington St.,Boston,MA,USA'",'A',42.356986,-71.0589366
Render Coffee @ 121,"'50 Milk St.,Boston,MA,USA'",'A',42.3569998,-71.0575881
Pedro's Tacos,"'55 Bromfield St.,Boston,MA,USA'",'A',42.3570297,-71.0606411
Metro Subway Inc.,"'274 Franklin St.,Boston,MA,USA'",'A',42.3570602,-71.0535947
Dunkin' Donuts,"'7 Otis Pl.,Boston,MA,USA'",'A',42.3571336,-71.0720313
Broadside,"'99 Broad St.,Boston,MA,USA'",'A',42.3572672,-71.0526084
Terrace Cafe,"'100 Guest St.,Boston,MA,USA'",'A',42.3572809,-71.1429531
Haley Henry Wine Bar,"'45 Province St.,Boston,MA,USA'",'A',42.3572816,-71.0599532
Dunkin Donuts,"'89 Broad St.,Boston,MA,USA'",'A',42.3573324,-71.0532338
Aramark @ Sullivan & Worcester,"'1 Post Office Sq.,Boston,MA,USA'",'A',42.3573955,-71.0564013
Parkside Cafe 1,"'1 Post Office Sq.,Boston,MA,USA'",'A',42.3573955,-71.0564013
Parkside Cafe 2,"'1 Post Office Sq.,Boston,MA,USA'",'A',42.3573955,-71.0564013
Starbucks Coffee No. 7535,"'23 School St.,Boston,MA,USA'",'A',42.3575817,-71.0589405
Thirst Juice Co.,"'44 School St.,Boston,MA,USA'",'A',42.357599,-71.059725
Fro-Zen-Yo,"'277 Washington St.,Boston,MA,USA'",'A',42.357612,-71.05839
No. 9 Park Llc,"'9 Park St.,Boston,MA,USA'",'A',42.357619,-71.062791
Lucky Rice Chinese Restaurant,"'71 Broad St.,Boston,MA,USA'",'A',42.3576822,-71.0537397
Sweetgreen,"'15 School St.,Boston,MA,USA'",'A',42.3576954,-71.0587218
Dunkin' Donuts,"'22 Beacon St.,Boston,MA,USA'",'A',42.3577097,-71.0627662
73 Cafe,"'73 Tremont St.,Boston,MA,USA'",'A',42.3578231,-71.0610172
Ruth's Chris Steak House,"'45 School St.,Boston,MA,USA'",'A',42.3580622,-71.05922
Lala Rokh,"'97 Mount Vernon St.,Boston,MA,USA'",'A',42.3580668,-71.069761
Pita Thyme,"'112 Water St.,Boston,MA,USA'",'A',42.3581427,-71.0550105
The Alley Bar,"'275 Washington St.,Boston,MA,USA'",'A',42.3581466,-71.0581732
Starbucks Coffee,"'45 Broad St.,Boston,MA,USA'",'A',42.3581821,-71.0543765
Fiorella's Express,"'2 Tremont Pl.,Boston,MA,USA'",'A',42.3582267,-71.0612765
An Tain,"'31 India St.,Boston,MA,USA'",'A',42.3582503,-71.0532095
Dimelos Cafe,"'116 Washington St.,Boston,MA,USA'",'A',42.3583625,-71.0578247
Mooo...,"'15 Beacon St.,Boston,MA,USA'",'A',42.3584016,-71.0619665
Pret A Manger,"'1 State St.,Boston,MA,USA'",'A',42.3584473,-71.0575571
Dunkin Donuts,"'70 East India Ro.,Boston,MA,USA'",'A',42.3584528,-71.0510068
The Market,"'21 Broad St.,Boston,MA,USA'",'A',42.358486,-71.054668
Au Bon Pain,"'53 State St.,Boston,MA,USA'",'A',42.3584972,-71.0561757
Au Bon Pain Kiosk (1St Fl.),"'53 State St.,Boston,MA,USA'",'A',42.3584972,-71.0561757
Squeeze Juice Company,"'53 State St.,Boston,MA,USA'",'A',42.3584972,-71.0561757
International House Of Pancake,"'1850 Soldiers Field Rd.,Boston,MA,USA'",'A',42.3585787,-71.1573128
Starbucks Coffee,"'1660 Soldiers Field Rd.,Boston,MA,USA'",'A',42.3587306,-71.1542711
Grain Exchange,"'168 Milk St.,Boston,MA,USA'",'A',42.358737,-71.052604
Suffolk Univ. Somerset Cafe,"'10 Somerset St.,Boston,MA,USA'",'A',42.3587902,-71.061605
Starbucks Coffee No. 864,"'97 Charles St.,Boston,MA,USA'",'A',42.3588989,-71.070498
Dunkin' Donuts,"'16 Tremont St.,Boston,MA,USA'",'A',42.3589248,-71.0595957
The Oceanaire Seafood Room,"'40 Court St.,Boston,MA,USA'",'A',42.3589316,-71.0592756
The Ames Hotel Dining Room Patio & 2 Bars,"'1 Court St.,Boston,MA,USA'",'A',42.3590135,-71.0580123
State Room,"'60 State St.,Boston,MA,USA'",'A',42.35903,-71.05646
Marriott's Custom House,"'3 Mc Kinley Sq.,Boston,MA,USA'",'A',42.3590418,-71.0535364
New England Aquarium-Imax,"'240 Atlantic Ave.,Boston,MA,USA'",'A',42.3590525,-71.0516311
Dunkin' Donuts-Watermark,"'111 State St.,Boston,MA,USA'",'A',42.3590743,-71.0547982
Harborside Inn Of Boston,"'185 State St.,Boston,MA,USA'",'A',42.3592418,-71.0529238
The Ginger Man,"'148 State St.,Boston,MA,USA'",'A',42.3593454,-71.05418
Flat Black Coffee,"'255 State St.,Boston,MA,USA'",'A',42.3593804,-71.051295
State Street Provisions,"'255 State St.,Boston,MA,USA'",'A',42.3593804,-71.051295
Dunkin Donuts/Plaza Ent,"'66 Cornhill.,Boston,MA,USA'",'A',42.359504,-71.058783
Derne Street Deli,"'14 Derne St.,Boston,MA,USA'",'A',42.3595346,-71.063437
The Wild Rover Tavern,"'61 Chatham St.,Boston,MA,USA'",'A',42.3595815,-71.0540135
Hong Kong At Faneuil Hall,"'65 Chatham St.,Boston,MA,USA'",'A',42.3595975,-71.0537971
Somerset Cafe,"'20 Somerset St.,Boston,MA,USA'",'A',42.3596924,-71.0617928
M/V Fort Warren,"'1A Long Wharf.,Boston,MA,USA'",'A',42.3597218,-71.0506496
M/V Frederick Nolan Jr.,"'1A Long Wharf.,Boston,MA,USA'",'A',42.3597218,-71.0506496
M/V Regency,"'1A Long Wharf.,Boston,MA,USA'",'A',42.3597218,-71.0506496
Ames Plow Tavern,"'200 Faneuil Hall Market Pl.,Boston,MA,USA'",'A',42.3597994,-71.0544602
Ancient & Honorable Artillery Company,"'200 Faneuil Hall Market Pl.,Boston,MA,USA'",'A',42.3597994,-71.0544602
Fisherman's Net,"'300 Faneuil Hall Market Pl.,Boston,MA,USA'",'A',42.3597994,-71.0544602
J. J. Donovan Inc.,"'200 Faneuil Hall Market Pl.,Boston,MA,USA'",'A',42.3597994,-71.0544602
La Pastaria,"'300 Faneuil Hall Market Pl.,Boston,MA,USA'",'A',42.3597994,-71.0544602
Mmmac N' Cheese,"'1 Faneuil Hall Mkt Pl Pl.,Boston,MA,USA'",'A',42.3597994,-71.0544602
Raw Bar-Walrus & Carpenter,"'200 Faneuil Hall Market Pl.,Boston,MA,USA'",'A',42.3597994,-71.0544602
The Berry Twist,"'200 Faneuil Hall Market Pl.,Boston,MA,USA'",'A',42.3597994,-71.0544602
The Monkey Bar,"'200 Faneuil Hall Market Pl.,Boston,MA,USA'",'A',42.3597994,-71.0544602
The Salty Dog,"'100-199 Faneuil Hall Market Pl.,Boston,MA,USA'",'A',42.3597994,-71.0544602
The John Jeffries House,"'14 Embankment Rd.,Boston,MA,USA'",'A',42.3598609,-71.0720547
Afc Sushi @ Suffolk University,"'41 Temple St.,Boston,MA,USA'",'A',42.360005,-71.063833
Donohue Cafeteria,"'41 Temple St.,Boston,MA,USA'",'A',42.360005,-71.063833
Frost Ice Bar,"'200 State St.,Boston,MA,USA'",'A',42.3600283,-71.0531729
Chill On Park,"'.,Boston,MA,USA'",'A',42.3600825,-71.0588801
Frog Pond Boston @ Boston Common,"'.,Boston,MA,USA'",'A',42.3600825,-71.0588801
Life Force Beverages,"'.,Boston,MA,USA'",'A',42.3600825,-71.0588801
Chart House,"'60 Long Wh.,Boston,MA,USA'",'A',42.360165,-71.0494979
Boston Marriott Long Wharf - Fs,"'296 State St.,Boston,MA,USA'",'A',42.360179,-71.050786
Starbucks Coffee Kiosk,"'296 State St.,Boston,MA,USA'",'A',42.360179,-71.050786
Dunkin Donuts,"'100 Cambridge St.,Boston,MA,USA'",'A',42.3605873,-71.0622171
Dunkin Donuts',"'20 North St.,Boston,MA,USA'",'A',42.3606958,-71.0563511
The Bostonian Boston - A Millennium Hotel,"'20 North St.,Boston,MA,USA'",'A',42.3606958,-71.0563511
Koy,"'16 North St.,Boston,MA,USA'",'A',42.360722,-71.056457
Starbucks Coffee Co.,"'222 Cambridge St.,Boston,MA,USA'",'A',42.3609796,-71.0665188
Dunkin' Donuts,"'106 Cambridge St.,Boston,MA,USA'",'A',42.3610448,-71.0631847
Au Bon Pain (Cambridge St.),"'209 Cambridge St.,Boston,MA,USA'",'A',42.3613802,-71.0665615
Haymarket Pizza,"'102 Blackstone.,Boston,MA,USA'",'A',42.3616376,-71.0565033
Wyndham Boston Beacon Hill-The Dean's List,"'5 Blossom St.,Boston,MA,USA'",'A',42.3617806,-71.0666208
Rosso B,"'114 Blackstone St.,Boston,MA,USA'",'A',42.3619178,-71.0566127
Beantown Pastrami,"'100 Hanover St.,Boston,MA,USA'",'A',42.3620005,-71.0569411
Cellars @ Jasper Hill,"'100 Hanover St.,Boston,MA,USA'",'A',42.3620005,-71.0569411
Crescent Ridge Dairy,"'100 Hanover St.,Boston,MA,USA'",'A',42.3620005,-71.0569411
Inna's Kitchen,"'100 Hanover St.,Boston,MA,USA'",'A',42.3620005,-71.0569411
Noodle Lab,"'100 Hanover St.,Boston,MA,USA'",'A',42.3620005,-71.0569411
Boston Yacht Haven,"'87 Commercial Wharf.,Boston,MA,USA'",'A',42.3620143,-71.0484369
Riverside Cafe-Lev1,"'32 Fruit St.,Boston,MA,USA'",'A',42.3620194,-71.0694942
"Yawkey Center Coffee South""""""awkey Center ""","'32 Fruit St.,Boston,MA,USA'",'A',42.3620194,-71.0694942
Alibi,"'215 Charles St.,Boston,MA,USA'",'A',42.3620694,-71.070207
Mass Gen.Hosp./The Plaza Cafe,"'185 Cambridge St.,Boston,MA,USA'",'A',42.3621199,-71.0661467
Dunkin Donuts (209 North Harvard St.),"'209 North Harvard.,Boston,MA,USA'",'A',42.3625787,-71.1307084
Ariana Restaurant,"'384 Western Ave.,Boston,MA,USA'",'A',42.3626709,-71.1379219
Mass Eye And Ear Infirmary,"'243 Charles St.,Boston,MA,USA'",'A',42.3627557,-71.0701292
Massachusetts Eye & Ear Infirmary (Cart),"'243 Charles St.,Boston,MA,USA'",'A',42.3627557,-71.0701292
Sodexo @ Genzyme Allston,"'500 Soldiers Field Rd.,Boston,MA,USA'",'A',42.362759,-71.1184981
Mare,"'3 Mechanic St.,Boston,MA,USA'",'A',42.3629485,-71.0553086
The Improv Asylum,"'216 Hanover St.,Boston,MA,USA'",'A',42.3629813,-71.0555667
Gigi Gelateria,"'64 Cross St.,Boston,MA,USA'",'A',42.3630794,-71.0560497
Subway,"'260 Western Ave.,Boston,MA,USA'",'A',42.3631282,-71.1332256
Bricco Restaurant/Bakery,"'239 Hanover St.,Boston,MA,USA'",'A',42.3631424,-71.0551169
Mass Gen. Hosp./Tea Leaves & Coffee Beans,"'55 Fruit St.,Boston,MA,USA'",'A',42.3631542,-71.0688334
Mass General Hospital Cafe,"'55 Fruit St.,Boston,MA,USA'",'A',42.3631542,-71.0688334
Mass General Hospital/Blossom Cafe,"'55 Fruit St.,Boston,MA,USA'",'A',42.3631542,-71.0688334
Mass General Hospital/Coffee Central,"'55 Fruit St.,Boston,MA,USA'",'A',42.3631542,-71.0688334
Peet's Coffee & Tea,"'48 Salem St.,Boston,MA,USA'",'A',42.363171,-71.056326
Aria Trattoria,"'253 Hanover St.,Boston,MA,USA'",'A',42.3632026,-71.0547539
Caffe Paradiso,"'253 Hanover.,Boston,MA,USA'",'A',42.3632026,-71.0547539
Sfizi,"'135 Richmond St.,Boston,MA,USA'",'A',42.3632722,-71.0541008
North Street Grille & Cafe,"'229 North St.,Boston,MA,USA'",'A',42.3633947,-71.0525387
Carmen,"'33 North Sq.,Boston,MA,USA'",'A',42.3634886,-71.0537009
Il Nido,"'257 North St.,Boston,MA,USA'",'A',42.3636778,-71.0521059
Crudo,"'78 Salem St.,Boston,MA,USA'",'A',42.3637,-71.055907
Trattoria Il Panino,"'278 Hanover St.,Boston,MA,USA'",'A',42.363921,-71.054687
Gennaro 5 North Square,"'5 North Sq.,Boston,MA,USA'",'A',42.364001,-71.0535728
Terramia Ristorante,"'98 Salem St.,Boston,MA,USA'",'A',42.3640134,-71.0557411
Hi Lab Cafe,"'125 Western Ave.,Boston,MA,USA'",'A',42.3640774,-71.124182
Bacco Ristorante & Bar,"'107 Salem St.,Boston,MA,USA'",'A',42.3641631,-71.0553857
Community Workshop Inc.,"'174 Portland St.,Boston,MA,USA'",'A',42.3641683,-71.0618169
The North Star,"'222 Friend St.,Boston,MA,USA'",'A',42.3641926,-71.0609699
Friend Street Cafe,"'232 Friend St.,Boston,MA,USA'",'A',42.3643121,-71.061137
Dunkin Donuts (Causeway St.),"'55 Causeway St.,Boston,MA,USA'",'A',42.3643192,-71.0628708
Papa's Roast Beef And Pizza,"'55 Causeway St.,Boston,MA,USA'",'A',42.3643192,-71.0628708
Mulligans,"'83 Canal St.,Boston,MA,USA'",'A',42.3643505,-71.0596368
Cafe Rustico,"'85 Canal St.,Boston,MA,USA'",'A',42.3643874,-71.0596381
Rigoletto,"'115 Salem St.,Boston,MA,USA'",'A',42.364481,-71.0553651
La Famiglia Ristorante,"'112 Salem St.,Boston,MA,USA'",'A',42.3645584,-71.0557076
Au Bon Pain (Us Airways),"'200 Logan Airport Trmnl B.,Boston,MA,USA'",'A',42.3645818,-71.0195813
Bonfire By Todd English,"'200 Logan Airport Trmnl B.,Boston,MA,USA'",'A',42.3645818,-71.0195813
Dunkin Donuts/Airside,"'200 Logan Airport Trmnl B.,Boston,MA,USA'",'A',42.3645818,-71.0195813
Dunkin Donuts-U S Air,"'200 Logan Airport Trmnl B.,Boston,MA,USA'",'A',42.3645818,-71.0195813
Espessomente,"'200 Logan Airport Trmnl B.,Boston,MA,USA'",'A',42.3645818,-71.0195813
Host-Starbucks (Gate B31),"'200 Logan Airport Trmnl B.,Boston,MA,USA'",'A',42.3645818,-71.0195813
Legal Sea Food,"'200 Logan Airport Trmnl B.,Boston,MA,USA'",'A',42.3645818,-71.0195813
Pga Tour Grill,"'200 Logan Airport Trmnl B.,Boston,MA,USA'",'A',42.3645818,-71.0195813
Samuel Adams Toasts Boston(Gates B4-21),"'200 Logan Airport Trmnl B.,Boston,MA,USA'",'A',42.3645818,-71.0195813
Starbucks Coffee(Gateb1-3),"'200 Logan Airport Trmnl B.,Boston,MA,USA'",'A',42.3645818,-71.0195813
Starbucks Coffee(Gateb7),"'200 Logan Airport Trmnl B.,Boston,MA,USA'",'A',42.3645818,-71.0195813
Vinea,"'200 Logan Airport Trmnl B.,Boston,MA,USA'",'A',42.3645818,-71.0195813
The Harp,"'85 Causeway St.,Boston,MA,USA'",'A',42.364592,-71.062382
Panza,"'326 Hanover St.,Boston,MA,USA'",'A',42.3646664,-71.0538286
Sports Grille Boston,"'132 Canal St.,Boston,MA,USA'",'A',42.3646904,-71.0606485
Prezza,"'24 Fleet St.,Boston,MA,USA'",'A',42.3647111,-71.0526873
Wbz Cafe,"'1170 Soldiers Field Rd.,Boston,MA,USA'",'A',42.3648642,-71.1333799
Qdoba Mexican Eats No. 2592,"'101 Causeway St.,Boston,MA,USA'",'A',42.36487,-71.0618282
Morgan Hall Coffee Cart,"'117 Western Ave.,Boston,MA,USA'",'A',42.3650735,-71.1222389
Locale,"'350 Hanover St.,Boston,MA,USA'",'A',42.365118,-71.053387
Ward 8,"'90 N Washington St.,Boston,MA,USA'",'A',42.3653827,-71.0586503
Davide's,"'326 Commercial St.,Boston,MA,USA'",'A',42.3654212,-71.0510982
Ristorante Lucia,"'415 Hanover St.,Boston,MA,USA'",'A',42.3655841,-71.0527171
Harvard Bus./Aldrich Hall,"'35 Harvard Wy.,Boston,MA,USA'",'A',42.3658878,-71.1221003
Au Bon Pain (Space 31),"'100 Logan Airport Trmnl A.,Boston,MA,USA'",'A',42.3660751,-71.020461
Au Bon Pain (Space 58),"'300 Logan Airport Trmnl C.,Boston,MA,USA'",'A',42.3660751,-71.020461
Delta Satellite Crown Rm,"'100 Logan Airport Trmnl A.,Boston,MA,USA'",'A',42.3660751,-71.020461
Dunkin Donuts Space No. 52,"'300 Logan Airport Trmnl C.,Boston,MA,USA'",'A',42.3660751,-71.020461
Dunkin Donuts Space No. 86,"'300 Logan Airport Trmnl C.,Boston,MA,USA'",'A',42.3660751,-71.020461
Dunkin Donuts(Arrival),"'100 Logan Airport Trmnl A.,Boston,MA,USA'",'A',42.3660751,-71.020461
Dunkin Donuts(Departure),"'100 Logan Airport Trmnl A.,Boston,MA,USA'",'A',42.3660751,-71.020461
Fuddruckers (Space 7),"'100 Logan Airport Trmnl A.,Boston,MA,USA'",'A',42.3660751,-71.020461
Lean & Green Gourmet,"'300 Logan Airport Trmnl C.,Boston,MA,USA'",'A',42.3660751,-71.020461
Panda Express Space 29A,"'100 Logan Airport Trmnl A.,Boston,MA,USA'",'A',42.3660751,-71.020461
Starbucks,"'100 Logan Airport Trmnl A.,Boston,MA,USA'",'A',42.3660751,-71.020461
Harvard Business School Interim Dining,"'37A Harvard Wy.,Boston,MA,USA'",'A',42.3660828,-71.1220639
Harvard Bus./Baker Faculty,"'25 Harvard Wy.,Boston,MA,USA'",'A',42.3664077,-71.1227939
Hub Bar Stand 4Be,"'100 Legends Wa.,Boston,MA,USA'",'A',42.3664872,-71.0621057
Market Place West 3 - Stand No. 104,"'100 Legends Wa.,Boston,MA,USA'",'A',42.3664872,-71.0621057
Premium Market,"'100 Legends Wa.,Boston,MA,USA'",'A',42.3664872,-71.0621057
Stand 405,"'100 Legends Wa.,Boston,MA,USA'",'A',42.3664872,-71.0621057
Stand 406,"'100 Legends Wa.,Boston,MA,USA'",'A',42.3664872,-71.0621057
Stand 407,"'100 Legends Wa.,Boston,MA,USA'",'A',42.3664872,-71.0621057
Stand 408,"'100 Legends Wa.,Boston,MA,USA'",'A',42.3664872,-71.0621057
Stand 418,"'100 Legends Wa.,Boston,MA,USA'",'A',42.3664872,-71.0621057
Stand 420,"'100 Legends Wa.,Boston,MA,USA'",'A',42.3664872,-71.0621057
Stand 489,"'100 Legends Wa.,Boston,MA,USA'",'A',42.3664872,-71.0621057
Stand 707,"'100 Legends Wa.,Boston,MA,USA'",'A',42.3664872,-71.0621057
Stand 711,"'100 Legends Wa.,Boston,MA,USA'",'A',42.3664872,-71.0621057
Stand 725,"'100 Legends Wa.,Boston,MA,USA'",'A',42.3664872,-71.0621057
Stand 727,"'100 Legends Wa.,Boston,MA,USA'",'A',42.3664872,-71.0621057
Stand 730,"'100 Legends Wa.,Boston,MA,USA'",'A',42.3664872,-71.0621057
Stand No. 301,"'100 Legends Wa.,Boston,MA,USA'",'A',42.3664872,-71.0621057
Stand No. 401,"'100 Legends Wa.,Boston,MA,USA'",'A',42.3664872,-71.0621057
Stand No. 403,"'100 Legends Wa.,Boston,MA,USA'",'A',42.3664872,-71.0621057
Stand No. 409,"'100 Legends Wa.,Boston,MA,USA'",'A',42.3664872,-71.0621057
Stand No. 410,"'100 Legends Wa.,Boston,MA,USA'",'A',42.3664872,-71.0621057
Stand No. 412,"'100 Legends Wa.,Boston,MA,USA'",'A',42.3664872,-71.0621057
Stand No. 414,"'100 Legends Wa.,Boston,MA,USA'",'A',42.3664872,-71.0621057
Stand No. 415,"'100 Legends Wa.,Boston,MA,USA'",'A',42.3664872,-71.0621057
Stand No. 416,"'100 Legends Wa.,Boston,MA,USA'",'A',42.3664872,-71.0621057
Stand No. 417,"'100 Legends Wa.,Boston,MA,USA'",'A',42.3664872,-71.0621057
Stand No. 419,"'100 Legends Wa.,Boston,MA,USA'",'A',42.3664872,-71.0621057
Stand No. 421,"'100 Legends Wa.,Boston,MA,USA'",'A',42.3664872,-71.0621057
Stand No. 518,"'100 Legends Wa.,Boston,MA,USA'",'A',42.3664872,-71.0621057
Stand No. 520,"'100 Legends Wa.,Boston,MA,USA'",'A',42.3664872,-71.0621057
Stand No. 521,"'100 Legends Wa.,Boston,MA,USA'",'A',42.3664872,-71.0621057
Stand No. 702,"'100 Legends Wa.,Boston,MA,USA'",'A',42.3664872,-71.0621057
Stand No. 705,"'100 Legends Wa.,Boston,MA,USA'",'A',42.3664872,-71.0621057
Stand No. 708,"'100 Legends Wa.,Boston,MA,USA'",'A',42.3664872,-71.0621057
Stand No. 709,"'100 Legends Wa.,Boston,MA,USA'",'A',42.3664872,-71.0621057
Stand No. 710,"'100 Legends Wa.,Boston,MA,USA'",'A',42.3664872,-71.0621057
Stand No. 712,"'100 Legends Wa.,Boston,MA,USA'",'A',42.3664872,-71.0621057
Stand No. 715,"'100 Legends Wa.,Boston,MA,USA'",'A',42.3664872,-71.0621057
Stand No. 717,"'100 Legends Wa.,Boston,MA,USA'",'A',42.3664872,-71.0621057
Stand No. 720,"'100 Legends Wa.,Boston,MA,USA'",'A',42.3664872,-71.0621057
Stand No. 721,"'100 Legends Wa.,Boston,MA,USA'",'A',42.3664872,-71.0621057
Stand No. 722,"'100 Legends Wa.,Boston,MA,USA'",'A',42.3664872,-71.0621057
Stand No. 723,"'100 Legends Wa.,Boston,MA,USA'",'A',42.3664872,-71.0621057
Stand No. 724,"'100 Legends Wa.,Boston,MA,USA'",'A',42.3664872,-71.0621057
Stand No. 728,"'100 Legends Wy.,Boston,MA,USA'",'A',42.3664872,-71.0621057
T D Garden Executive Suites Kitchen,"'100 Legends Wa.,Boston,MA,USA'",'A',42.3664872,-71.0621057
T D Garden Legends Club,"'100 Legends Wa.,Boston,MA,USA'",'A',42.3664872,-71.0621057
Ruth Mulan Chu Chao Center,"'49 Harvard Wy.,Boston,MA,USA'",'A',42.3665925,-71.1211464
Equal Exchange,"'226 Causeway St.,Boston,MA,USA'",'A',42.3667498,-71.0593194
Battery Wharf Hotel Boston Waterfront,"'2 Battery Wh.,Boston,MA,USA'",'A',42.3668761,-71.0514032
East Boston Kitchen,"'331 Sumner St.,Boston,MA,USA'",'A',42.367103,-71.0360542
Converse,"'160 N Washington St.,Boston,MA,USA'",'A',42.3672449,-71.0593325
Bright-Landry Arena Briggs Cafe,"'65 N Harvard St.,Boston,MA,USA'",'A',42.3675709,-71.1258531
Harvard Stadium Stand No. 2,"'65 North Harvard St.,Boston,MA,USA'",'A',42.3675709,-71.1258531
Harvard Stadium Stand No. 3,"'65 North Harvard St.,Boston,MA,USA'",'A',42.3675709,-71.1258531
Harvard Stadium Stand No. 4,"'65 North Harvard St.,Boston,MA,USA'",'A',42.3675709,-71.1258531
125 Nashua St. Cafe (Mgh),"'125 Nashua St.,Boston,MA,USA'",'A',42.3678749,-71.0649526
Bright Arena/Briggs Cage,"'79 North Harvard.,Boston,MA,USA'",'A',42.3680172,-71.1256278
Dunkin Donuts,"'15 Transportation Wy.,Boston,MA,USA'",'A',42.3684268,-71.0302113
Aer Lingus Lounge (2Nd Level),"'500 Logan Airport Trmnl E.,Boston,MA,USA'",'A',42.3685769,-71.0228005
British Airways Exec Club,"'500 Logan Airport Trmnl E.,Boston,MA,USA'",'A',42.3685769,-71.0228005
British Airways First Class,"'500 Logan Airport Trmnl E.,Boston,MA,USA'",'A',42.3685769,-71.0228005
Starbucks Coffee(E-Fc),"'500 Logan Airport Trmnl E.,Boston,MA,USA'",'A',42.3685769,-71.0228005
Mirabella Pool Concession,"'471 Commercial St.,Boston,MA,USA'",'A',42.368809,-71.0540989
Dunkin' Donuts(Rmg Donuts Llc),"'13 Maverick Sq.,Boston,MA,USA'",'A',42.3688379,-71.039319
Dunkin Donuts,"'100 Service Rd.,Boston,MA,USA'",'A',42.3695775,-71.0236201
Residence Inn By Marriott Bos,"'34 Charles River Ave.,Boston,MA,USA'",'A',42.3704439,-71.0604248
Blackmoor Bar & Kitchen,"'1 Chelsea St.,Boston,MA,USA'",'A',42.3711683,-71.0613888
Papagayo,"'1 Chelsea St.,Boston,MA,USA'",'A',42.3711683,-71.0613888
Cafe Napoli,"'81 Chelsea St.,Boston,MA,USA'",'A',42.371801,-71.036204
Taste Of Eastie,"'75 Meridian St.,Boston,MA,USA'",'A',42.372042,-71.0387859
East Boston Pop Warner,"'143 Porter St.,Boston,MA,USA'",'A',42.3724511,-71.034754
Cafe Gigu,"'102 Meridian St.,Boston,MA,USA'",'A',42.3727286,-71.0392215
Americano Espresso Bar,"'155 Meridian St.,Boston,MA,USA'",'A',42.373841,-71.0388601
Que Arepa En Tertulias Cafe,"'26 Porter St.,Boston,MA,USA'",'A',42.3746601,-71.0378682
Navy Yard Bistro & Wine Bar,"'1 First Ave.,Boston,MA,USA'",'A',42.3752524,-71.0544886
Dunkin Donuts,"'39 First Ave.,Boston,MA,USA'",'A',42.375751,-71.053617
Harbor Pacific,"'235 Meridian St.,Boston,MA,USA'",'A',42.3758375,-71.0389029
Zelma Lacey House,"'9 West School St.,Boston,MA,USA'",'A',42.3759213,-71.0668282
Prima E Dopo,"'300 Saratoga St.,Boston,MA,USA'",'A',42.3784059,-71.0318808
Spaulding Rehabilitation Hospital,"'300 First Ave.,Boston,MA,USA'",'A',42.3786559,-71.0490754
Cosmopolitan Lounge,"'276 Bennington St.,Boston,MA,USA'",'A',42.3788188,-71.0290503
El Palmar Restaurant,"'290 Bennington St.,Boston,MA,USA'",'A',42.3790294,-71.0286006
Sate Grill,"'500 Rutherford Ave.,Boston,MA,USA'",'A',42.3811262,-71.0724657
Burger King No. 16370,"'300 Terminal Rd.,Boston,MA,USA'",'A',42.3816454,-71.0553531
Camden Food Co,"'300 Terminal Rd.,Boston,MA,USA'",'A',42.3816454,-71.0553531
Currito Burrito,"'300 Terminal Rd.,Boston,MA,USA'",'A',42.3816454,-71.0553531
Dunkin Donuts,"'300 Terminal Rd.,Boston,MA,USA'",'A',42.3816454,-71.0553531
Dunkin Donuts (Front Foodcourt),"'300 Terminal Rd.,Boston,MA,USA'",'A',42.3816454,-71.0553531
Dunkin Donuts Kiosk,"'300 Terminal Rd.,Boston,MA,USA'",'A',42.3816454,-71.0553531
Dunkin Donuts Kiosk Space 55A,"'300 Terminal Rd.,Boston,MA,USA'",'A',42.3816454,-71.0553531
Emirates Lounge,"'300 Terminal Rd.,Boston,MA,USA'",'A',42.3816454,-71.0553531
Green Express,"'300 Terminal Rd.,Boston,MA,USA'",'A',42.3816454,-71.0553531
Host-Starbucks-Gate C28 Trmnl C,"'300 Terminal Rd.,Boston,MA,USA'",'A',42.3816454,-71.0553531
La Baguette Marche,"'300 Terminal Rd.,Boston,MA,USA'",'A',42.3816454,-71.0553531
La Baguette Marche Express,"'300 Terminal Rd.,Boston,MA,USA'",'A',42.3816454,-71.0553531
Legal Sea Foods (Logan Airport Trmnl C),"'300 Terminal Rd.,Boston,MA,USA'",'A',42.3816454,-71.0553531
Potbelly Sandwich Shop,"'300 Terminal Rd.,Boston,MA,USA'",'A',42.3816454,-71.0553531
Starbucks Coffee,"'300 Terminal Rd.,Boston,MA,USA'",'A',42.3816454,-71.0553531
The Lounge,"'300 Terminal Rd.,Boston,MA,USA'",'A',42.3816454,-71.0553531
Wahlburgers,"'300 Terminal Rd.,Boston,MA,USA'",'A',42.3816454,-71.0553531
Air France Lounge,"'500 Terminal Rd.,Boston,MA,USA'",'A',42.3816475,-71.0553567
Burger King,"'500 Terminal Rd.,Boston,MA,USA'",'A',42.3816475,-71.0553567
Dine Boston,"'500 Terminal Rd.,Boston,MA,USA'",'A',42.3816475,-71.0553567
Durgin Park,"'500 Terminal Rd.,Boston,MA,USA'",'A',42.3816475,-71.0553567
Fuel America,"'500 Terminal Rd.,Boston,MA,USA'",'A',42.3816475,-71.0553567
Lufthansa Business Lounge,"'500 Terminal Rd.,Boston,MA,USA'",'A',42.3816475,-71.0553567
Lufthansa Senator,"'500 Terminal Rd.,Boston,MA,USA'",'A',42.3816475,-71.0553567
Vineyard Grille,"'500 Terminal Rd.,Boston,MA,USA'",'A',42.3816475,-71.0553567
Vino Volo,"'500 Terminal Rd.,Boston,MA,USA'",'A',42.3816475,-71.0553567
Delta Sky Club Trmnl A Main,"'100 Terminal Rd.,Boston,MA,USA'",'A',42.3828972,-71.0553676
Friendly's,"'100 Terminal Rd.,Boston,MA,USA'",'A',42.3828972,-71.0553676
Vino Volo,"'100 Terminal Rd.,Boston,MA,USA'",'A',42.3828972,-71.0553676
Auntie Anne's (Trmnl A Gate A 18),"'200 Terminal Rd.,Boston,MA,USA'",'A',42.3831476,-71.0499464
Legal Sea Foods (B Connector),"'200 Terminal Rd.,Boston,MA,USA'",'A',42.3831476,-71.0499464
Peet's Coffee & Tea(United Terminal Ba A34),"'200 Terminal Rd.,Boston,MA,USA'",'A',42.3831476,-71.0499464
Ryo Asian Fusion,"'200 Terminal Rd.,Boston,MA,USA'",'A',42.3831476,-71.0499464
Domino's Pizza,"'1144 Saratoga St.,Boston,MA,USA'",'A',42.3845987,-71.0002891
Mikes Vending L L C @ Constitution Beach,"'4 Barnes Ave.,Boston,MA,USA'",'A',42.3857565,-71.0065103
Woody's Pizza Inc,"'1035 Saratoga St.,Boston,MA,USA'",'A',42.3859629,-71.0053609
Pockets Billiard Club,"'981 Bennington St.,Boston,MA,USA'",'A',42.3862747,-71.0074367
Subway,"'944 Bennington St.,Boston,MA,USA'",'A',42.3862922,-71.0096337
Angela's Cafe Ii,"'1012 Bennington St.,Boston,MA,USA'",'A',42.3870999,-71.006316
Mi Pueblito Orient Heights,"'964 Saratoga St.,Boston,MA,USA'",'A',42.3871507,-71.0085684
Jacques,"'77 Broadway.,Boston,MA,USA'",'A',42.3873164,-71.0817286
Hilton Garden Inn East Boston,"'100 Boardman St.,Boston,MA,USA'",'A',42.3887429,-71.010109
Cirque Du Soleil,"'111 Waldemar Ave.,Boston,MA,USA'",'A',42.392316,-71.0029964
Cirque Du Soleil - Spectrum Catering,"'111 Waldemar Ave.,Boston,MA,USA'",'A',42.392316,-71.0029964
Suffolk Downs-Padduck,"'111 Waldemar Ave.,Boston,MA,USA'",'A',42.392316,-71.0029964
Suffolk Downs-Stands,"'111 Waldemar Ave.,Boston,MA,USA'",'A',42.392316,-71.0029964
Suffolk Downs-Terrace,"'111 Waldemar Ave.,Boston,MA,USA'",'A',42.392316,-71.0029964
Starbucks Coffee,"'440 William F Mcclellan Hw.,Boston,MA,USA'",'A',42.3934802,-71.0129973