Name,Address,Grades,Latitude,Longitude 
Misono Restaurant,"'669 Vfw Pw.,Boston,MA,USA'",'A; B',42.2964023,-71.1571555
Paddy O's,"'33 Union Pr.,Boston,MA,USA'",'A; B',42.3611244,-71.0568148
Dunkin Donuts/Hyde Pk Ave,"'1800 Hyde Park Ave.,Boston,MA,USA'",'A; B',42.2378805,-71.1321118
Mcdonald's No. 4845,"'1312 Hyde Park Ave.,Boston,MA,USA'",'A; B',42.2529031,-71.1245572
Dempsey's Bar & Grille,"'1185 River St.,Boston,MA,USA'",'A; B',42.2561799,-71.121499
Cottage Tavern,"'1227 Hyde Park Ave.,Boston,MA,USA'",'A; B',42.257205,-71.124056
Back Deck,"'10 West St.,Boston,MA,USA'",'A; B',42.2576521,-71.1163652
Dunkin Donuts,"'1200 Hyde Park Ave.,Boston,MA,USA'",'A; B',42.2578332,-71.1232254
Kentucky Fried Chicken,"'5318 Washington St.,Boston,MA,USA'",'A; B',42.2578713,-71.160803
Dunkin Donuts (West Roxbury),"'5305 Washington St.,Boston,MA,USA'",'A; B',42.2586136,-71.1607022
Los Antojitos Restaurant,"'5272 Washington St.,Boston,MA,USA'",'A; B',42.2591865,-71.1592274
Target Pizza,"'5200 Washington St.,Boston,MA,USA'",'A; B',42.261129,-71.156808
Yellowbird Chicken,"'239 Grove St.,Boston,MA,USA'",'A; B',42.261558,-71.1573839
Maryann's Breakfast & Lunch,"'223 Grove St.,Boston,MA,USA'",'A; B',42.261821,-71.157524
Birch Street Bistro,"'14 Birch Rd.,Boston,MA,USA'",'A; B',42.2636287,-71.1585826
Bagelville West Roxbury,"'1630 Vfw Pw.,Boston,MA,USA'",'A; B',42.2650381,-71.1676653
Burger King No. 3483,"'1610 Vfw Pw.,Boston,MA,USA'",'A; B',42.2659123,-71.1678795
Pizza Hut,"'950 Hyde Park Ave.,Boston,MA,USA'",'A; B',42.2669683,-71.1205415
The Wright Grill @ Geo. Wright Golf Course,"'420 West St.,Boston,MA,USA'",'A; B',42.267391,-71.133501
Dunkin' Donuts,"'2290 Dorchester Ave.,Boston,MA,USA'",'A; B',42.2724389,-71.0677522
Foley Senior Residences,"'249 River St.,Boston,MA,USA'",'A; B',42.2729007,-71.081728
Lower Mills Tavern,"'2269 Dorchester Ave.,Boston,MA,USA'",'A; B',42.2729782,-71.0680677
Dunkin Donuts(Station Donuts),"'4610 Washington St.,Boston,MA,USA'",'A; B',42.2752092,-71.1395695
Dunkin' Donuts(C.A. Donuts),"'155 Spring St.,Boston,MA,USA'",'A; B',42.2764577,-71.1667873
Dunkin Donuts (Carney),"'2100 Dorchester Ave.,Boston,MA,USA'",'A; B',42.2774856,-71.0657391
Safari African Restaurant,"'1336 Blue Hill Ave.,Boston,MA,USA'",'A; B',42.2779721,-71.0931254
Pleasant Cafe,"'4511 Washington St.,Boston,MA,USA'",'A; B',42.278783,-71.136801
Anna Hand Cut Donuts,"'2056 Centre St.,Boston,MA,USA'",'A; B',42.280071,-71.158124
Deno's Subs & Pizza,"'2040 Centre St.,Boston,MA,USA'",'A; B',42.2802297,-71.158013
Corrib Pub And Restaurant,"'2030 Centre St.,Boston,MA,USA'",'A; B',42.280819,-71.1578725
Stefano's Pizza,"'863 Washington St.,Boston,MA,USA'",'A; B',42.2816054,-71.0713391
Morning Star Baptist Church,"'1257 Blue Hill Ave.,Boston,MA,USA'",'A; B',42.2822825,-71.0925053
Erie Pub,"'791 Adams St.,Boston,MA,USA'",'A; B',42.2831441,-71.0559646
Molinari's,"'789 Adams St.,Boston,MA,USA'",'A; B',42.2832473,-71.0559502
West Napoli Pizza,"'1946 Centre St.,Boston,MA,USA'",'A; B',42.2835279,-71.156761
Dunkin' Donuts (Legion Donuts),"'684 American Legion Hw.,Boston,MA,USA'",'A; B',42.2835935,-71.112507
P S Gourmet Coffee,"'758 Adams St.,Boston,MA,USA'",'A; B',42.2838039,-71.0554793
Regal,"'686 Morton St.,Boston,MA,USA'",'A; B',42.2847475,-71.0920679
Eurest Dining Services@Mass Biologic Cafe,"'460 Walk Hill St.,Boston,MA,USA'",'A; B',42.2847694,-71.1007823
Kentucky Fried Chicken,"'625 American Legion Hw.,Boston,MA,USA'",'A; B',42.2856156,-71.1109177
El Recreo Coffee & Roastene,"'1872 Centre St.,Boston,MA,USA'",'A; B',42.2857725,-71.1553976
Subway (1868 Centre St.),"'1868 Centre St.,Boston,MA,USA'",'A; B',42.285836,-71.1550357
Stash's Roslindale,"'330 Belgrade Ave.,Boston,MA,USA'",'A; B',42.285871,-71.145228
Effie's Kitchen,"'37 Poplar St.,Boston,MA,USA'",'A; B',42.2860762,-71.1288537
Rustica Pizza,"'146 Belgrade Ave.,Boston,MA,USA'",'A; B',42.2862653,-71.1367285
Seven Star Street Bistro,"'153 Belgrade Ave.,Boston,MA,USA'",'A; B',42.2864431,-71.1369946
Frosty Freeze,"'530 Amer Legion Hw.,Boston,MA,USA'",'A; B',42.2872187,-71.1065745
Wendy's Properties,"'530 Amer Legion Hw.,Boston,MA,USA'",'A; B',42.2872187,-71.1065745
Checkmate Cafe,"'900 South St.,Boston,MA,USA'",'A; B',42.2884426,-71.1348398
Friturilandia & Grill,"'962 Blue Hill Ave.,Boston,MA,USA'",'A; B',42.2908986,-71.0889468
The Proper Slice,"'547 Washington St.,Boston,MA,USA'",'A; B',42.2925772,-71.0720474
The Centre Bar,"'1664 Dorchester Ave.,Boston,MA,USA'",'A; B',42.2935139,-71.0619516
Dunkin Donuts,"'855 Wm T Morrissey Bl.,Boston,MA,USA'",'A; B',42.29366,-71.048166
Swiss House,"'820 Wm T Morrissey Bl.,Boston,MA,USA'",'A; B',42.293875,-71.0462414
Harry's All American Breakfast,"'1410 Centre St.,Boston,MA,USA'",'A; B',42.2939385,-71.1361877
Kelleher's Bar And Grille,"'1410 Centre St.,Boston,MA,USA'",'A; B',42.2939385,-71.1361877
A & N Pizza,"'1409 Centre St.,Boston,MA,USA'",'A; B',42.2941396,-71.13673
J. P. Roti Shop,"'482 Washington St.,Boston,MA,USA'",'A; B',42.2946741,-71.0716932
Puritan Restaurant,"'735 William T Morrissey Bl.,Boston,MA,USA'",'A; B',42.295404,-71.0488881
Bruegger's,"'667 Vfw Pk.,Boston,MA,USA'",'A; B',42.2964126,-71.1570581
Hebrew Rehab Center,"'1200 Centre St.,Boston,MA,USA'",'A; B',42.2967906,-71.1309782
Fireside Tavern,"'26 Hyde Park Ave.,Boston,MA,USA'",'A; B',42.2992329,-71.1137328
Boston Burger,"'1493 Dorchester Ave.,Boston,MA,USA'",'A; B',42.2996337,-71.0605523
Spring House,"'44 Allandale St.,Boston,MA,USA'",'A; B',42.2997991,-71.1309048
Dogwood Cafe,"'3712 Washington St.,Boston,MA,USA'",'A; B',42.3001659,-71.1131702
Eugene O' Neills,"'3700 Washington St.,Boston,MA,USA'",'A; B',42.3005197,-71.1127788
Grass Fed Forest Hills,"'3698 Washington St.,Boston,MA,USA'",'A; B',42.300553,-71.11269
The Atrium Cafe@Brigham & Womens Faulkner Hosp.,"'1153 Centre St.,Boston,MA,USA'",'A; B',42.3016411,-71.1287817
Dunkin' Donuts,"'235 Washington St.,Boston,MA,USA'",'A; B',42.3016569,-71.0773961
Mikes Donut Shop,"'500 Arborway.,Boston,MA,USA'",'A; B',42.302555,-71.109556
Santo Domingo Restaurant,"'179 Washington St.,Boston,MA,USA'",'A; B',42.3034393,-71.0787559
Freeport Street Cafeteria,"'179 Freeport St.,Boston,MA,USA'",'A; B',42.3043458,-71.0555201
Jeanie Johnston Pub,"'144 South St.,Boston,MA,USA'",'A; B',42.3050821,-71.1143964
Drinking Fountain,"'3520 Washington St.,Boston,MA,USA'",'A; B',42.3055343,-71.108178
Peggy O'Neil's Pub & Grille,"'1310 Dorchester Ave.,Boston,MA,USA'",'A; B',42.3058945,-71.0588191
James's Gate,"'5 Mcbride St.,Boston,MA,USA'",'A; B',42.3059505,-71.1144618
United House Of Prayer,"'206 Seaver.,Boston,MA,USA'",'A; B',42.3078803,-71.0882584
Fish-N-Thingz,"'491B Blue Hill Ave.,Boston,MA,USA'",'A; B',42.3082989,-71.0833996
Dbar,"'1236 Dorchester Ave.,Boston,MA,USA'",'A; B',42.3083887,-71.0580296
Dunkin' Donuts,"'1236 Dorchester Ave.,Boston,MA,USA'",'A; B',42.3083887,-71.0580296
Cafe 1221,"'1221 Dorchester Ave.,Boston,MA,USA'",'A; B',42.30908,-71.05851
Savin Hill Yacht Club,"'400 William T Morrissey Bl.,Boston,MA,USA'",'A; B',42.309645,-71.0436287
J P House Of Pizza,"'775 Centre St.,Boston,MA,USA'",'A; B',42.3100826,-71.1155049
La Rana Rossa,"'154 Green St.,Boston,MA,USA'",'A; B',42.3104844,-71.1065318
Edward Kennedy Museum Cafe,"'210 William T Morrissey Bl.,Boston,MA,USA'",'A; B',42.3111548,-71.0455223
Van's Restaurant & Bar,"'1154 Dorchester Ave.,Boston,MA,USA'",'A; B',42.3112111,-71.0573049
Dunkin Donuts (Bay Road),"'684 Centre St.,Boston,MA,USA'",'A; B',42.3118453,-71.1140659
Centre Street Cafe,"'669 Centre St.,Boston,MA,USA'",'A; B',42.3125036,-71.1143365
Fort Hill Jerk Chicken,"'195 Quincy St.,Boston,MA,USA'",'A; B',42.3129671,-71.0752416
Cafe Beirut,"'650 Centre St.,Boston,MA,USA'",'A; B',42.3131029,-71.1139257
Samosaman Exotic Food,"'196 Quincy St.,Boston,MA,USA'",'A; B',42.3132151,-71.0743782
Coco's,"'3171 Washington St.,Boston,MA,USA'",'A; B',42.3134754,-71.1008112
St. Mary's Ctr. For Women & Children,"'90 Cushing Ave.,Boston,MA,USA'",'A; B',42.3139038,-71.0634264
St. Mary's Women And Children's Ctr.,"'90 Cushing Ave.,Boston,MA,USA'",'A; B',42.3139038,-71.0634264
Ula Cafe,"'284 Amory St.,Boston,MA,USA'",'A; B',42.3145192,-71.10371
Boston Globe Cafeteria,"'135 William T Morrissey Bl.,Boston,MA,USA'",'A; B',42.3155726,-71.0488811
Boston Globe Kiosk No. 2,"'135 William T Morrissey Bl.,Boston,MA,USA'",'A; B',42.3155726,-71.0488811
Afc Sushi Bar @ Umass Boston,"'100 Wm T Morrissey Bl.,Boston,MA,USA'",'A; B',42.315672,-71.0479068
Quinn Bldg./Umass Boston,"'100 Wm T Morrissey Bl.,Boston,MA,USA'",'A; B',42.315672,-71.0479068
Sodexo U Mass Faculty Club,"'100 Wm T Morrissey Bl.,Boston,MA,USA'",'A; B',42.315672,-71.0479068
B C High School (Faculty Food Serv.),"'150 William T Morrissey Bl.,Boston,MA,USA'",'A; B',42.31609,-71.0466842
Dunkin' Donuts,"'1926 Columbus Ave.,Boston,MA,USA'",'A; B',42.3167607,-71.0978896
Paraiso Restaurant,"'750 Dudley St.,Boston,MA,USA'",'A; B',42.3178508,-71.0663865
Yanet Restaurant,"'734 Dudley St.,Boston,MA,USA'",'A; B',42.3179263,-71.0671403
Tom English Cafe,"'957 Dorchester Ave.,Boston,MA,USA'",'A; B',42.3181589,-71.0568862
Popeyes,"'300 Martin Luther King Jr Bl.,Boston,MA,USA'",'A; B',42.3189447,-71.0853126
The Banshee,"'934 Dorchester Ave.,Boston,MA,USA'",'A; B',42.3189721,-71.0564697
Tres Gatos Cafe,"'470 Centre St.,Boston,MA,USA'",'A; B',42.3190914,-71.1116234
Zesto's Pizza,"'460 Centre St.,Boston,MA,USA'",'A; B',42.3193571,-71.1115644
Kentucky Fried Chicken,"'695 Columbia Rd.,Boston,MA,USA'",'A; B',42.3200321,-71.0617616
Restaurant Laura,"'688 Columbia Rd.,Boston,MA,USA'",'A; B',42.3200857,-71.0626605
Marketplace Cafe & Take Away,"'240 Mount Vernon St.,Boston,MA,USA'",'A; B',42.3202692,-71.0479171
Caffe Aromi,"'403 Centre St.,Boston,MA,USA'",'A; B',42.3216066,-71.1103051
Backwoods Pizza,"'539 Dudley St.,Boston,MA,USA'",'A; B',42.3217544,-71.0725234
Dunkin' Donuts,"'847 Dorchester Ave.,Boston,MA,USA'",'A; B',42.3218314,-71.0569886
Seaside Cafe,"'0 William J Day Bl.,Boston,MA,USA'",'A; B',42.3219886,-71.0510651
Dot Tavern,"'840 Dorchester Ave.,Boston,MA,USA'",'A; B',42.3221502,-71.0565928
Il Panino Cafe And Grill,"'268 Centre St.,Boston,MA,USA'",'A; B',42.3226912,-71.1008393
Rizzo's Pizza,"'347 Centre St.,Boston,MA,USA'",'A; B',42.3227676,-71.1064205
Kalihari Grill,"'1 Circuit Sq.,Boston,MA,USA'",'A; B',42.3232362,-71.0864418
The Olive Garden Italian Restaurant No. 1674,"'1118 Massachusetts Ave.,Boston,MA,USA'",'A; B',42.3249562,-71.0653281
Target Store T-1898,"'7 Allstate Rd.,Boston,MA,USA'",'A; B',42.3258375,-71.0633599
Applebee's Neighborhood Grill,"'11A Allstate Rd.,Boston,MA,USA'",'A; B',42.3260447,-71.0636198
Super Stop & Shop,"'1100 Massachusetts Ave.,Boston,MA,USA'",'A; B',42.3265749,-71.0650725
Liberty Diner,"'1003 Massachusetts Ave.,Boston,MA,USA'",'A; B',42.3280589,-71.0682988
Suya Joint,"'185 Dudley St.,Boston,MA,USA'",'A; B',42.3283291,-71.0819783
El Mondonguito,"'219 Dudley St.,Boston,MA,USA'",'A; B',42.3283681,-71.080654
Stop & Taste,"'235 Dudley St.,Boston,MA,USA'",'A; B',42.3284574,-71.0798723
Joe's Subs,"'140 Dudley St.,Boston,MA,USA'",'A; B',42.328906,-71.0838383
Silver Slipper,"'2387 Washington St.,Boston,MA,USA'",'A; B',42.3291737,-71.0850676
Dunkin' Donuts,"'2360 Washington St.,Boston,MA,USA'",'A; B',42.3293674,-71.0844591
Sate Asian Grill - Roxbury,"'1234 Columbus Ave.,Boston,MA,USA'",'A; B',42.3294427,-71.0956497
Supreme House Of Pizza,"'313 Old Colony Ave.,Boston,MA,USA'",'A; B',42.3295392,-71.0528959
Dunkin Donuts,"'510 Southampton St.,Boston,MA,USA'",'A; B',42.3297575,-71.0574266
Andrew Square House Of Pizza,"'395 Dorchester St.,Boston,MA,USA'",'A; B',42.330057,-71.0565387
Ipizza And Grill,"'283 Old Colony Ave.,Boston,MA,USA'",'A; B',42.3303362,-71.052891
Tasty Burger,"'2296 Washington St.,Boston,MA,USA'",'A; B',42.3304325,-71.0837531
Domino's Pizza,"'1400 Tremont St.,Boston,MA,USA'",'A; B',42.3314003,-71.0947153
Joseph's Pizza & Subs,"'8 S Huntington Ave.,Boston,MA,USA'",'A; B',42.331821,-71.1117898
Telegraph Hill,"'289 Dorchester St.,Boston,MA,USA'",'A; B',42.3320345,-71.0527522
Mikes Donuts,"'1524A Tremont St.,Boston,MA,USA'",'A; B',42.332222,-71.099975
Massachusetts Eye & Ear@ Longwood,"'800 Huntington Ave.,Boston,MA,USA'",'A; B',42.3328579,-71.1075
Mama's Place,"'764A Huntington Ave.,Boston,MA,USA'",'A; B',42.3333554,-71.1059571
Alumni 1,"'2597 Beacon St.,Boston,MA,USA'",'A; B',42.3334381,-71.1675375
Silvio O. Conte Forum East Roof 2A,"'2597 Beacon St.,Boston,MA,USA'",'A; B',42.3334381,-71.1675375
Jp Licks @ Brigham Circle,"'1618 Tremont St.,Boston,MA,USA'",'A; B',42.3337013,-71.1041401
Kwik E Pizza,"'738 Huntington Ave.,Boston,MA,USA'",'A; B',42.3337036,-71.1054181
Quality Eats,"'1199 Tremont St.,Boston,MA,USA'",'A; B',42.3337513,-71.0909021
Station 10 Cafe,"'1199 Tremont St.,Boston,MA,USA'",'A; B',42.3337513,-71.0909021
T.G.I. Friday's Inc.,"'1622 Tremont St.,Boston,MA,USA'",'A; B',42.333849,-71.1039049
Domino's Pizza,"'163 Old Colony Ave.,Boston,MA,USA'",'A; B',42.3340337,-71.0550235
Soul Fire,"'737 Huntington Ave.,Boston,MA,USA'",'A; B',42.334035,-71.1054561
Yawkey Cafe,"'850 Harrison Ave.,Boston,MA,USA'",'A; B',42.3345876,-71.0739339
Yo Berry,"'124 Dorchester St.,Boston,MA,USA'",'A; B',42.3348678,-71.0464464
Grille 705,"'705 Massachusetts Ave.,Boston,MA,USA'",'A; B',42.3349805,-71.0755248
Pizza Pie-Er,"'138 Old Colony Ave.,Boston,MA,USA'",'A; B',42.3350878,-71.0550235
The Junction,"'110 Dorchester St.,Boston,MA,USA'",'A; B',42.335101,-71.0459875
Northeastern University/Parcel 18 Cafe,"'1155 Tremont St.,Boston,MA,USA'",'A; B',42.335196,-71.089061
Boston Medical Center (Shapiro Bldg.),"'830 Harrison Ave.,Boston,MA,USA'",'A; B',42.3352024,-71.0727322
Dunkin' Donuts,"'1131 Tremont St.,Boston,MA,USA'",'A; B',42.3352141,-71.0882958
Gavin Foundation Inc.,"'535 E Broadway.,Boston,MA,USA'",'A; B',42.3352408,-71.0426641
The Urban Art Bar,"'709 E Broadway.,Boston,MA,USA'",'A; B',42.3355406,-71.0369706
Dunkin' Donuts,"'482 W Broadway.,Boston,MA,USA'",'A; B',42.3356422,-71.0455098
Cafe Quattro,"'60 E Springfield St.,Boston,MA,USA'",'A; B',42.335656,-71.074444
Dunkin Donuts At Old Colony,"'75 Old Colony Ave.,Boston,MA,USA'",'A; B',42.335747,-71.0559935
Dunkin Donuts,"'1955 Beacon St.,Boston,MA,USA'",'A; B',42.3357688,-71.1499597
Moko,"'674 E Broadway.,Boston,MA,USA'",'A; B',42.3357717,-71.0375744
Cafe Porto Bello,"'672 East Broadway.,Boston,MA,USA'",'A; B',42.3357739,-71.0376067
Subway,"'805 Harrison Ave.,Boston,MA,USA'",'A; B',42.3359523,-71.0742394
Cityside,"'1958 Beacon St.,Boston,MA,USA'",'A; B',42.3360822,-71.1503162
Brigham & Women Hospital Or Lounge,"'75 Francis St.,Boston,MA,USA'",'A; B',42.3360887,-71.1067067
Brigham & Womens Coffee Kiosk,"'75 Francis St.,Boston,MA,USA'",'A; B',42.3360887,-71.1067067
Pike Mezzanine Construction Cafe,"'75 Francis St.,Boston,MA,USA'",'A; B',42.3360887,-71.1067067
Lincoln Tavern,"'425 W Broadway.,Boston,MA,USA'",'A; B',42.3363271,-71.0476249
Jade Monkey,"'1952 Beacon St.,Boston,MA,USA'",'A; B',42.3363451,-71.1502821
Chequers Express,"'100 E Newton St.,Boston,MA,USA'",'A; B',42.3363993,-71.0701495
Chequers Coffee Express,"'72 E Concord St.,Boston,MA,USA'",'A; B',42.3364013,-71.072408
Teranga,"'1746 Washington St.,Boston,MA,USA'",'A; B',42.3364427,-71.0765851
Kung Fu Tea,"'1916B Beacon St.,Boston,MA,USA'",'A; B',42.3365586,-71.1490459
Bangkok Pinto,"'1041 Tremont St.,Boston,MA,USA'",'A; B',42.3365999,-71.0857766
Northeastern Univ. Ryder Hall,"'11 Leon.,Boston,MA,USA'",'A; B',42.3366027,-71.090675
Ali Roti Restaurant,"'1035 Tremont St.,Boston,MA,USA'",'A; B',42.336649,-71.085666
Mass. College Of Pharmacy,"'179 Longwood Ave.,Boston,MA,USA'",'A; B',42.336788,-71.101209
Atrium Cafe/Harvard Med.School,"'260 Longwood Ave.,Boston,MA,USA'",'A; B',42.3369359,-71.1041431
Dunkin Donuts,"'616 Massachusetts Ave.,Boston,MA,USA'",'A; B',42.3369919,-71.0772416
Noble Roman's Pizza & Tuscano's Subs,"'249 Ruggles St.,Boston,MA,USA'",'A; B',42.337226,-71.08813
Thirst,"'645 E Second St.,Boston,MA,USA'",'A; B',42.3372826,-71.0374675
Childrens Hospital Main Caf,"'300 Longwood Ave.,Boston,MA,USA'",'A; B',42.3373982,-71.104968
Dana Farber Cancer Institute Cafeteria,"'450 Brookline Ave.,Boston,MA,USA'",'A; B',42.3374895,-71.1081414
Northeastern Univ-716 Columbus,"'716 Columbus Ave.,Boston,MA,USA'",'A; B',42.3376006,-71.0851677
Boloco,"'283 Longwood Ave.,Boston,MA,USA'",'A; B',42.3379044,-71.1045525
Starbucks Coffee No. 7804,"'283 Longwood Ave.,Boston,MA,USA'",'A; B',42.3379044,-71.1045525
The Daily Squeeze,"'357 W Broadway.,Boston,MA,USA'",'A; B',42.3379076,-71.0497259
N.E. Deaconess Hospital Cafe,"'1 Deaconess Rd.,Boston,MA,USA'",'A; B',42.3379108,-71.1091456
Future Chefs,"'545 Albany St.,Boston,MA,USA'",'A; B',42.33805,-71.0671039
Chicken Lou's,"'50 Forsyth St.,Boston,MA,USA'",'A; B',42.3382292,-71.0899015
Dunkin Donuts/Galleria,"'340 Longwood Ave.,Boston,MA,USA'",'A; B',42.3382421,-71.1063943
Mcdonald's,"'340 Longwood Ave.,Boston,MA,USA'",'A; B',42.3382421,-71.1063943
Clock Tavern,"'342 W Broadway.,Boston,MA,USA'",'A; B',42.3383446,-71.0496797
Shenanagans Bar,"'332 W Broadway.,Boston,MA,USA'",'A; B',42.3383941,-71.0498008
Simmons College-Meyers Cafe,"'Ave Louis Pasteur.,Boston,MA,USA'",'A; B',42.3384264,-71.1022834
Elements Cafe & Conference,"'77 Ave Louis Pasteur.,Boston,MA,USA'",'A; B',42.338445,-71.103142
Flour Bakery & Cafe,"'1595 Washington St.,Boston,MA,USA'",'A; B',42.3385012,-71.0746609
Charley's Philly Steaks,"'350 Longwood Ave.,Boston,MA,USA'",'A; B',42.3386237,-71.1072353
Sakura Japan,"'350 Longwood Ave.,Boston,MA,USA'",'A; B',42.3386237,-71.1072353
Au Bon Pain (Joslin Pl.),"'1 Joslin Pl.,Boston,MA,USA'",'A; B',42.3386398,-71.1082998
Caffe Nero,"'354 Longwood Ave.,Boston,MA,USA'",'A; B',42.3389228,-71.1072958
Java City @ Simmons College,"'300 Fenway.,Boston,MA,USA'",'A; B',42.3390832,-71.1000654
Lower Dining Corcoran Dining Facility,"'60 St Thomas More Rd.,Boston,MA,USA'",'A; B',42.339166,-71.166002
Croke Park,"'268 W Broadway.,Boston,MA,USA'",'A; B',42.3391767,-71.0514094
Northeastern Univ Ell Ctn,"'360 Huntington Ave.,Boston,MA,USA'",'A; B',42.339348,-71.0881734
Museum Of Fine Arts Bravo Restaurant,"'465 Huntington Ave.,Boston,MA,USA'",'A; B',42.3394567,-71.0941429
Museum Of Fine Arts-Taste D/B/A No. 19285,"'465 Huntington Ave.,Boston,MA,USA'",'A; B',42.3394567,-71.0941429
Dunkin Donuts @ Hayden Hall,"'330 Huntington Ave.,Boston,MA,USA'",'A; B',42.3398867,-71.0871843
Shea's Tavern,"'222 W Broadway.,Boston,MA,USA'",'A; B',42.3398952,-71.0525257
Chartwells @ Snell Library,"'376 Huntington Ave.,Boston,MA,USA'",'A; B',42.3399186,-71.0897388
A K's Take Out,"'305 D St.,Boston,MA,USA'",'A; B',42.3399364,-71.0492161
Boloco,"'359 Huntington Ave.,Boston,MA,USA'",'A; B',42.3401489,-71.0902509
New York Sub Shop,"'433 Massachusetts Ave.,Boston,MA,USA'",'A; B',42.3405047,-71.0821254
Simmons College-Bartol,"'84 Pilgrim Rd.,Boston,MA,USA'",'A; B',42.340982,-71.1067597
Mashawi Grill,"'157 Sutherland Rd.,Boston,MA,USA'",'A; B',42.3410625,-71.1468213
Boston Shawarma,"'315 Huntington Ave.,Boston,MA,USA'",'A; B',42.3411296,-71.0877804
N.U. Stetson Hall East,"'11 Speare Pl.,Boston,MA,USA'",'A; B',42.3411856,-71.0898525
N.U. Stetson Hall West,"'11 Speare Pl.,Boston,MA,USA'",'A; B',42.3411856,-71.0898525
Amelia's Taqueria,"'309 Huntington Ave.,Boston,MA,USA'",'A; B',42.3412152,-71.0875429
New England Conservatory,"'33 Gainsborough St.,Boston,MA,USA'",'A; B',42.3412598,-71.0859443
Harry O's,"'1405 Washington St.,Boston,MA,USA'",'A; B',42.3413139,-71.070355
Pavement Coffeehouse,"'44 Gainsborough St.,Boston,MA,USA'",'A; B',42.3416076,-71.0870745
Moonshine 152,"'152 Dorchester Ave.,Boston,MA,USA'",'A; B',42.3417236,-71.0567736
Mobidick,"'269 Huntington Ave.,Boston,MA,USA'",'A; B',42.3420972,-71.0861123
Susan Bailis Assisted Living,"'352 Massachusetts Ave.,Boston,MA,USA'",'A; B',42.3421016,-71.0835227
Caffe Bene,"'333 Massachusetts Ave.,Boston,MA,USA'",'A; B',42.3422041,-71.0847558
Five Guys Burgers & Fries,"'261 Huntington Ave.,Boston,MA,USA'",'A; B',42.3422265,-71.0857483
Cafe @Mohr & Mcpherson,"'458 Harrison Ave.,Boston,MA,USA'",'A; B',42.3422276,-71.0642421
Tremont 647,"'647 Tremont St.,Boston,MA,USA'",'A; B',42.3422409,-71.0754317
Starbucks Coffee Company,"'11 W Broadway.,Boston,MA,USA'",'A; B',42.3423347,-71.056551
Stephis In Southie,"'11 W Broadway.,Boston,MA,USA'",'A; B',42.3423347,-71.056551
Coppersmith Hall,"'30 W Third St.,Boston,MA,USA'",'A; B',42.3424074,-71.0542987
K O Catering And Pies,"'87 A St.,Boston,MA,USA'",'A; B',42.3424374,-71.0545769
Tapestry,"'69 Kilmarnock St.,Boston,MA,USA'",'A; B',42.3424681,-71.0994874
Dunkin Donuts (48 W Broadway),"'48 W Broadway.,Boston,MA,USA'",'A; B',42.3425742,-71.0561205
Lucy Ethopian Cafe,"'334 Massachusetts Ave.,Boston,MA,USA'",'A; B',42.3425943,-71.0841727
Starbucks Coffee Inc.,"'627 Tremont St.,Boston,MA,USA'",'A; B',42.3426494,-71.0746778
Dunkin Donuts (V.F.W. Pkwy.),"'1435 V F W Pk.,Boston,MA,USA'",'A; B',42.3429041,-71.1022158
Sodexo Wheelock College Longfellow Cafe 1St Fl.,"'150 Riverway.,Boston,MA,USA'",'A; B',42.3429727,-71.1051802
Dunkin' Donuts,"'1420 Boylston.,Boston,MA,USA'",'A; B',42.3430898,-71.1019436
Fiouna's,"'90 Peterborough St.,Boston,MA,USA'",'A; B',42.3431041,-71.099021
El Pelon Taqueria,"'84 Peterborough St.,Boston,MA,USA'",'A; B',42.3431397,-71.0988372
Gyro City,"'84 Peterborough St.,Boston,MA,USA'",'A; B',42.3431397,-71.0988372
Milano Pizzeria & Pasta,"'60 Washington St.,Boston,MA,USA'",'A; B',42.3432611,-71.1423615
Tasca Restaurant,"'1612 Commonwealth Ave.,Boston,MA,USA'",'A; B',42.3433526,-71.1426453
The Restaurant @ Boston Athletic Club,"'653 Summer St.,Boston,MA,USA'",'A; B',42.3433788,-71.037642
Dunkin Donuts/1138 Washington St.,"'1138 Washington St.,Boston,MA,USA'",'A; B',42.3437321,-71.0658319
Providence House Senior Comm.,"'180 Corey Rd.,Boston,MA,USA'",'A; B',42.3437684,-71.1393443
Project Place Gatehouse,"'1143 Washington St.,Boston,MA,USA'",'A; B',42.343808,-71.0663243
Dunkin Donuts,"'405 D St.,Boston,MA,USA'",'A; B',42.3438535,-71.0449421
Charlie's,"'429 Columbus Ave.,Boston,MA,USA'",'A; B',42.3441143,-71.0777405
Brighton Cafe,"'1597 Commonwealth Ave.,Boston,MA,USA'",'A; B',42.3442008,-71.1432874
Mei Mei By Design,"'21 Dry Dock Ave.,Boston,MA,USA'",'A; B',42.3442246,-71.0310844
Au Bon Pain No. 518,"'1 Design Center Pl.,Boston,MA,USA'",'A; B',42.3442688,-71.0305676
Dry Dock Cafe,"'7 Dry Dock Ave.,Boston,MA,USA'",'A; B',42.3442767,-71.0360397
Boston Market,"'245 Massachusetts Ave.,Boston,MA,USA'",'A; B',42.344442,-71.086859
Channel Center Cafe,"'1 Iron St.,Boston,MA,USA'",'A; B',42.344538,-71.0522314
Fomu Ice Cream,"'201 Brookline Ave.,Boston,MA,USA'",'A; B',42.3445717,-71.1016796
Panera Bread,"'201 Brookline Ave.,Boston,MA,USA'",'A; B',42.3445717,-71.1016796
Panera Bread Bakery/Cafe,"'201 Brookline Ave.,Boston,MA,USA'",'A; B',42.3445717,-71.1016796
Starbucks,"'1341 Boylston St.,Boston,MA,USA'",'A; B',42.3446572,-71.0995726
Boston Eagle,"'520 Tremont St.,Boston,MA,USA'",'A; B',42.3447084,-71.0700763
Emack & Bolio,"'144 Brookline Ave.,Boston,MA,USA'",'A; B',42.3447204,-71.100834
Mixx Frozen Yogurt,"'1258 Boylston St.,Boston,MA,USA'",'A; B',42.3447239,-71.0959598
Sweet Caroline's,"'1260 Boylston St.,Boston,MA,USA'",'A; B',42.3447579,-71.0959193
Saturday Afternoon,"'1256 Boylston St.,Boston,MA,USA'",'A; B',42.345001,-71.095963
The Inn @ St. Botolph,"'99 Saint Botolph St.,Boston,MA,USA'",'A; B',42.345032,-71.080845
Hennessy's Of Boston,"'25 Union St.,Boston,MA,USA'",'A; B',42.3451006,-71.1483865
Yard House,"'122 Brookline Ave.,Boston,MA,USA'",'A; B',42.345245,-71.0999889
Nourish Your Soul,"'15 Channel Center St.,Boston,MA,USA'",'A; B',42.3456546,-71.0511046
Co3/Bo3/Yo3,"'4 Yawkey.,Boston,MA,USA'",'A; B',42.3458436,-71.0987819
Emc Inseat,"'4 Yawkey.,Boston,MA,USA'",'A; B',42.3458436,-71.0987819
Geb - 2,"'4 Yawkey Wa.,Boston,MA,USA'",'A; B',42.3458436,-71.0987819
Jordan's Bar,"'4 Yawkey Wy.,Boston,MA,USA'",'A; B',42.3458436,-71.0987819
Lc2/Ly1,"'4 Yawkey Wy.,Boston,MA,USA'",'A; B',42.3458436,-71.0987819
Ly4/Lb4,"'4 Yawkey Wy.,Boston,MA,USA'",'A; B',42.3458436,-71.0987819
Media,"'4 Yawkey Wy.,Boston,MA,USA'",'A; B',42.3458436,-71.0987819
Rf Roof,"'4 Yawkey Wy.,Boston,MA,USA'",'A; B',42.3458436,-71.0987819
Right Field Inseat,"'4 Yawkey Wy.,Boston,MA,USA'",'A; B',42.3458436,-71.0987819
Wheels Up Club,"'4 Yawkey Wy.,Boston,MA,USA'",'A; B',42.3458436,-71.0987819
Cafe 24,"'24 Fenway.,Boston,MA,USA'",'A; B',42.345889,-71.0900722
Bar Louie,"'121 Brookline Ave.,Boston,MA,USA'",'A; B',42.3459035,-71.1006082
The Cheesecake Factory,"'115 Huntington Ave.,Boston,MA,USA'",'A; B',42.3459428,-71.0816638
Copperfields,"'96 Brookline Ave.,Boston,MA,USA'",'A; B',42.346112,-71.099276
Blackbird Doughnuts,"'460 Tremont St.,Boston,MA,USA'",'A; B',42.346195,-71.0693244
Sheraton Boston (Starbucks),"'39 Dalton St.,Boston,MA,USA'",'A; B',42.3463836,-71.0840229
The Delux Cafe,"'100 Chandler St.,Boston,MA,USA'",'A; B',42.3463908,-71.073125
Dunkin Donuts,"'153 Massachusetts Ave.,Boston,MA,USA'",'A; B',42.3464447,-71.087661
Wendy's,"'153 Massachusetts Ave.,Boston,MA,USA'",'A; B',42.3464447,-71.087661
Barlows Restaurant,"'241 A St.,Boston,MA,USA'",'A; B',42.3465492,-71.0511082
Lucca Back Bay,"'116 Huntington Ave.,Boston,MA,USA'",'A; B',42.3465572,-71.079765
Kindred Hospital Boston,"'1515 Commonwealth Ave.,Boston,MA,USA'",'A; B',42.3465945,-71.1418557
Licks Cafe,"'1140 Boylston St.,Boston,MA,USA'",'A; B',42.3466121,-71.0894325
Starbucks Coffee No. 7234,"'147 Massachusetts Ave.,Boston,MA,USA'",'A; B',42.346635,-71.087789
Salty Pig,"'130 Dartmouth St.,Boston,MA,USA'",'A; B',42.3466598,-71.0760021
Little Steve's Pizza,"'1114 Boylston St.,Boston,MA,USA'",'A; B',42.3467399,-71.0885406
J P Licks@Boylston St.,"'1106 Boylston St.,Boston,MA,USA'",'A; B',42.346773,-71.0885802
Boston Burger,"'1100 Boylston St.,Boston,MA,USA'",'A; B',42.346801,-71.0884698
Blue Cross Blue Sheild Of Ma. Cafe,"'101 Huntington Ave.,Boston,MA,USA'",'A; B',42.3468751,-71.0811237
Paul,"'201 Washington St.,Boston,MA,USA'",'A; B',42.346901,-71.14758
Boloco - Berklee,"'1080 Boylston St.,Boston,MA,USA'",'A; B',42.3469792,-71.0881125
Marriott Hotel-Copley Place,"'110 Huntington Ave.,Boston,MA,USA'",'A; B',42.3470204,-71.0792887
Ellis Memorial Adult Day Health,"'95 Berkeley St.,Boston,MA,USA'",'A; B',42.347285,-71.0705
Legal Seafood,"'100 Huntington Ave.,Boston,MA,USA'",'A; B',42.347334,-71.0788745
Capital Grille,"'880 Boylston St.,Boston,MA,USA'",'A; B',42.34739,-71.084357
Dunkin Donuts @ Mbta Station,"'145 Dartmouth St.,Boston,MA,USA'",'A; B',42.3474193,-71.0753102
Dunkin' Donuts Express,"'145 Darthmouth.,Boston,MA,USA'",'A; B',42.3474193,-71.0753102
Juice Boston @ Mbta,"'145 Dartmouth St.,Boston,MA,USA'",'A; B',42.3474193,-71.0753102
Crispy Crepes Cafe,"'512 Park Dr.,Boston,MA,USA'",'A; B',42.3476539,-71.1059326
Jimmy John's,"'512 Park Dr.,Boston,MA,USA'",'A; B',42.3476539,-71.1059326
Dunkin Donuts,"'53 Huntington Ave.,Boston,MA,USA'",'A; B',42.3478393,-71.0794375
Brick House Pizza & Grille,"'256 Washington St.,Boston,MA,USA'",'A; B',42.3478894,-71.1497264
Starbucks Coffee Co. No. 872,"'350 Newbury St.,Boston,MA,USA'",'A; B',42.3481139,-71.0871581
Porto,"'780 Boylston St.,Boston,MA,USA'",'A; B',42.348156,-71.080817
Cafe 939,"'939 Boylston St.,Boston,MA,USA'",'A; B',42.3482685,-71.0850061
Harry's Bar & Grill,"'1430 Commonwealth Ave.,Boston,MA,USA'",'A; B',42.3483424,-71.1399057
Bertucci's,"'683 V F W Pk.,Boston,MA,USA'",'A; B',42.3483642,-71.10599
Flour Bakery & Cafe,"'131 Clarendon St.,Boston,MA,USA'",'A; B',42.3483676,-71.0737735
Dunkin' Donuts,"'430 Stuart St.,Boston,MA,USA'",'A; B',42.3483971,-71.0750227
Popeyes,"'645 Beacon St.,Boston,MA,USA'",'A; B',42.3484278,-71.0977677
Qdoba Mexican Eats,"'540 Commonwealth Ave.,Boston,MA,USA'",'A; B',42.3484351,-71.0968478
The Westin Copley-Bar 10,"'10 Huntington Ave.,Boston,MA,USA'",'A; B',42.3484581,-71.0774606
Westin Hotel,"'10 Huntington Ave.,Boston,MA,USA'",'A; B',42.3484581,-71.0774606
Santouka,"'66 Hereford St.,Boston,MA,USA'",'A; B',42.3484779,-71.0853432
University Club Of Boston,"'426 Stuart St.,Boston,MA,USA'",'A; B',42.348479,-71.0747559
Club Cafe,"'209 Columbus Ave.,Boston,MA,USA'",'A; B',42.3484831,-71.0724411
Lir,"'903 Boylston St.,Boston,MA,USA'",'A; B',42.3484965,-71.0842443
Barnes & Noble Booksellers (R),"'800 Boylston St.,Boston,MA,USA'",'A; B',42.348521,-71.0822975
Boston Chowda Co.,"'800 Boylston St.,Boston,MA,USA'",'A; B',42.348521,-71.0822975
California Pizza Kitchen,"'800 Boylston St.,Boston,MA,USA'",'A; B',42.348521,-71.0822975
Cheeseboy: Grilled Cheese To Go (Kiosk),"'800 Boylston St.,Boston,MA,USA'",'A; B',42.348521,-71.0822975
Crazy Dough Pizza,"'800 Boylston St.,Boston,MA,USA'",'A; B',42.348521,-71.0822975
Panda Express No. 208,"'800 Boylston St.,Boston,MA,USA'",'A; B',42.348521,-71.0822975
Pinkberry,"'800 Boylston St.,Boston,MA,USA'",'A; B',42.348521,-71.0822975
Qdoba Mexican Grill No. 2179,"'800 Boylston St.,Boston,MA,USA'",'A; B',42.348521,-71.0822975
Ropes & Gray L L P,"'800 Boylston St.,Boston,MA,USA'",'A; B',42.348521,-71.0822975
Josephine,"'468 Commonwealth Ave.,Boston,MA,USA'",'A; B',42.3485452,-71.0934812
Dunkin Donuts (Kenmore Sq. Donuts),"'530 Commonwealth Ave.,Boston,MA,USA'",'A; B',42.3485511,-71.0961356
Courtyard Marriott Copley,"'88 Exeter St.,Boston,MA,USA'",'A; B',42.3485573,-71.0788088
Smoothie King,"'314 Newbury St.,Boston,MA,USA'",'A; B',42.3486145,-71.0853333
The Hawthorne,"'500 Commonwealth Ave.,Boston,MA,USA'",'A; B',42.3486282,-71.0952228
Freshii Back Bay,"'441 Stuart St.,Boston,MA,USA'",'A; B',42.3486448,-71.076066
Nourish Your Soul,"'441 Stuart St.,Boston,MA,USA'",'A; B',42.3486448,-71.076066
Sorellina Restaurant,"'1 Huntington Ave.,Boston,MA,USA'",'A; B',42.3486664,-71.0782238
Domino's Pizza,"'464 Washington St.,Boston,MA,USA'",'A; B',42.3487613,-71.159035
Sonsie,"'327 Newbury St.,Boston,MA,USA'",'A; B',42.3488013,-71.086229
Green Briar,"'304 Washington St.,Boston,MA,USA'",'A; B',42.3488196,-71.1512769
Pinkberry,"'288 Newbury St.,Boston,MA,USA'",'A; B',42.3488454,-71.0844961
Porter Belly's,"'338 Washington St.,Boston,MA,USA'",'A; B',42.3488958,-71.1525073
Cosi No. 687,"'2 Seaport La.,Boston,MA,USA'",'A; B',42.3489287,-71.0408431
Morton's Of Chicago,"'2 Seaport La.,Boston,MA,USA'",'A; B',42.3489287,-71.0408431
Courtyard Cafe,"'77 Warren St.,Boston,MA,USA'",'A; B',42.3489571,-71.1426625
Abbott's Frozen Custard,"'362 Washington St.,Boston,MA,USA'",'A; B',42.3489795,-71.1535835
Los Amigos,"'366 Washington St.,Boston,MA,USA'",'A; B',42.3489906,-71.1538177
Barrington Coffee Roasting Co.,"'305 Newbury St.,Boston,MA,USA'",'A; B',42.3489937,-71.0855495
Liberty Mutual Berkeley (1St Fl.),"'157 Berkeley St.,Boston,MA,USA'",'A; B',42.34911,-71.0718557
Kentucky Fried Chicken,"'465 Washington St.,Boston,MA,USA'",'A; B',42.3491517,-71.1588502
Precinct Kitchen & Bar,"'350 Stuart St.,Boston,MA,USA'",'A; B',42.3491535,-71.0723748
Trattoria Newbury,"'264 Newbury St.,Boston,MA,USA'",'A; B',42.3492059,-71.083126
Su Su Gourmet,"'70 Tyler St.,Boston,MA,USA'",'A; B',42.3492137,-71.0612624
Seaport Hotel,"'1 Seaport Ln.,Boston,MA,USA'",'A; B',42.3492209,-71.0414338
Mdm Noodle,"'351 Washington St.,Boston,MA,USA'",'A; B',42.3492215,-71.1527995
Cafe At Barnes And Noble,"'660 Beacon St.,Boston,MA,USA'",'A; B',42.3492582,-71.0962487
Bangkok Bistro,"'433 Washington St.,Boston,MA,USA'",'A; B',42.3493447,-71.1567986
Wired Puppy,"'250 Newbury St.,Boston,MA,USA'",'A; B',42.3493482,-71.0826097
Atlantic Fish Company,"'761 Boylston St.,Boston,MA,USA'",'A; B',42.3493673,-71.0812029
Asaki,"'418 Market St.,Boston,MA,USA'",'A; B',42.3493804,-71.1531418
Baja Taco Truck,"'1 Citywide St.,Boston,MA,USA'",'A; B',42.3493824,-71.0777334
Bon Me,"'1 Citywide St.,Boston,MA,USA'",'A; B',42.3493824,-71.0777334
Bon Me 4,"'1 Citywide St.,Boston,MA,USA'",'A; B',42.3493824,-71.0777334
Boston Projuice Llc,"'1 Citywide St.,Boston,MA,USA'",'A; B',42.3493824,-71.0777334
Food Lakay,"'1 Citywide St.,Boston,MA,USA'",'A; B',42.3493824,-71.0777334
Mei Mei Street Kitchen,"'1 Citywide St.,Boston,MA,USA'",'A; B',42.3493824,-71.0777334
Morockin Infusion,"'1 Citywide St.,Boston,MA,USA'",'A; B',42.3493824,-71.0777334
North East Of The Border,"'1 Citywide St.,Boston,MA,USA'",'A; B',42.3493824,-71.0777334
Pennypackers 2,"'1 Citywide St.,Boston,MA,USA'",'A; B',42.3493824,-71.0777334
Redbones Barbecue Food Truck,"'1 Citywide St.,Boston,MA,USA'",'A; B',42.3493824,-71.0777334
Savory Food Truckno. 2,"'1 Citywide St.,Boston,MA,USA'",'A; B',42.3493824,-71.0777334
Slide By Food Truck,"'1 Citywide St.,Boston,MA,USA'",'A; B',42.3493824,-71.0777334
Tasty Burger Three,"'1 Citywide St.,Boston,MA,USA'",'A; B',42.3493824,-71.0777334
Zinneken's,"'1 Citywide St.,Boston,MA,USA'",'A; B',42.3493824,-71.0777334
Starbucks Coffee No. 7544,"'755 Boylston St.,Boston,MA,USA'",'A; B',42.3493917,-71.0810374
Cornwall's Restaurant,"'654 Beacon St.,Boston,MA,USA'",'A; B',42.3494107,-71.095846
The Catered Affair @ Boston Public Library,"'700 Boylston St.,Boston,MA,USA'",'A; B',42.3494163,-71.0788285
Dash Cafe,"'1 Henshaw St.,Boston,MA,USA'",'A; B',42.3494255,-71.1495674
Amsterdam Falafel,"'642 Beacon St.,Boston,MA,USA'",'A; B',42.349488,-71.095561
Umai,"'412A Market St.,Boston,MA,USA'",'A; B',42.3495147,-71.1531174
Max Brenner,"'745 Boylston St.,Boston,MA,USA'",'A; B',42.3495194,-71.0805865
Insomnia Cookies,"'708 Commonwealth Ave.,Boston,MA,USA'",'A; B',42.3495377,-71.1054077
Dug Out Cafe Inc,"'722 Commonwealth Ave.,Boston,MA,USA'",'A; B',42.3495454,-71.1061267
Row 34,"'381 Congress St.,Boston,MA,USA'",'A; B',42.349549,-71.047644
University Grill & Pizza,"'712 Commonwealth Ave.,Boston,MA,USA'",'A; B',42.3495587,-71.1055772
Deuxave,"'371 Commonwealth Ave.,Boston,MA,USA'",'A; B',42.349561,-71.0891
Rosa Mexicano,"'155 Seaport Bl.,Boston,MA,USA'",'A; B',42.3496068,-71.042722
B.U. School Of Management,"'595 Commonwealth Ave.,Boston,MA,USA'",'A; B',42.349626,-71.0995466
Bfresh,"'214 Harvard Ave.,Boston,MA,USA'",'A; B',42.3496803,-71.1299891
Guckenheimer @ Berkeley Cafe,"'200 Berkeley St.,Boston,MA,USA'",'A; B',42.3496809,-71.0729229
Dunkin Donuts,"'750 Washington St.,Boston,MA,USA'",'A; B',42.3497633,-71.0634235
Fresh Life Cafe @ Tuft's Medical Ctr.,"'750 Washington St.,Boston,MA,USA'",'A; B',42.3497633,-71.0634235
B U-100 Baystate Dining Cafe/Multi Purpose,"'100 Bay State Rd.,Boston,MA,USA'",'A; B',42.3497666,-71.0979066
Papagayo,"'281 Summer St.,Boston,MA,USA'",'A; B',42.3497666,-71.0500192
Boloco (247 Newbury St.),"'247 Newbury St.,Boston,MA,USA'",'A; B',42.3497799,-71.0827211
Wens Rice Noodle & Ramen,"'247 Newbury St.,Boston,MA,USA'",'A; B',42.3497799,-71.0827211
Shanghai Social Club,"'1277 Commonwealth Ave.,Boston,MA,USA'",'A; B',42.3498159,-71.133425
South St. Diner,"'178 Kneeland St.,Boston,MA,USA'",'A; B',42.3498315,-71.0577633
Au Bon Pain,"'800 Washington St.,Boston,MA,USA'",'A; B',42.3498323,-71.0632709
West End House/Boys-Girls Club,"'105 Allston St.,Boston,MA,USA'",'A; B',42.3498852,-71.1371068
Dunkin Donuts,"'179 Brighton Ave.,Boston,MA,USA'",'A; B',42.3499053,-71.1303007
Courtyard Cafe,"'275 Tremont St.,Boston,MA,USA'",'A; B',42.3499198,-71.0655674
Guilt Nightclub/Underbar,"'275 Tremont St.,Boston,MA,USA'",'A; B',42.3499198,-71.0655674
Campus Trolley,"'665 Commonwealth Ave.,Boston,MA,USA'",'A; B',42.3499555,-71.1028565
The Charles Playhouse,"'74 Warrenton St.,Boston,MA,USA'",'A; B',42.3499795,-71.0661826
Royale,"'279 Tremont St.,Boston,MA,USA'",'A; B',42.3499958,-71.0656288
Wingz Xpress,"'563 Washington St.,Boston,MA,USA'",'A; B',42.3500424,-71.1644033
Liberty Mutual Grab & Go,"'175 Berkeley St.,Boston,MA,USA'",'A; B',42.3500587,-71.0718044
Milner Hotel,"'71 Charles St South.,Boston,MA,USA'",'A; B',42.350122,-71.0666612
Kneeland Cafe,"'75 Kneeland St.,Boston,MA,USA'",'A; B',42.3502805,-71.0607747
Emerald Lounge,"'196 Stuart St.,Boston,MA,USA'",'A; B',42.3503922,-71.0674745
Abby Lane,"'253 Tremont St.,Boston,MA,USA'",'A; B',42.3505065,-71.0653879
Dunkin' Donuts,"'268 Summer St.,Boston,MA,USA'",'A; B',42.3505691,-71.050191
Drink,"'348 Congress St.,Boston,MA,USA'",'A; B',42.3506068,-71.0485054
Sportello,"'348 Congress St.,Boston,MA,USA'",'A; B',42.3506068,-71.0485054
The Whiskey Priest,"'148 Northern Ave.,Boston,MA,USA'",'A; B',42.3506159,-71.0429985
Pastoral,"'341 Congress St.,Boston,MA,USA'",'A; B',42.3506237,-71.0488517
Barrington Coffee,"'346 Congress St.,Boston,MA,USA'",'A; B',42.3506369,-71.0484323
Panera Bread,"'222 Berkeley St.,Boston,MA,USA'",'A; B',42.350667,-71.0731944
Chipotle Mexican Grill,"'553 Boylston St.,Boston,MA,USA'",'A; B',42.3507278,-71.0761492
Great Barbecu Inc.,"'15 Hudson St.,Boston,MA,USA'",'A; B',42.3507414,-71.0602242
Flik @ Skadden Arps Slate,"'500 Boylston St.,Boston,MA,USA'",'A; B',42.350742,-71.074378
Rebecca's Cafe,"'500 Boylston St.,Boston,MA,USA'",'A; B',42.350742,-71.074378
China Gourmet Restaurant,"'23 Tyler St.,Boston,MA,USA'",'A; B',42.3507606,-71.0609684
Tunnel,"'100 Stuart St.,Boston,MA,USA'",'A; B',42.3508154,-71.0655748
W Boston Banquet Rooms & Kitchen,"'100 Stuart St.,Boston,MA,USA'",'A; B',42.3508154,-71.0655748
W Boston Library Bar,"'100 Stuart St.,Boston,MA,USA'",'A; B',42.3508154,-71.0655748
Starbucks Coffee No. 870,"'165 Newbury St.,Boston,MA,USA'",'A; B',42.3508236,-71.078834
B.U. Pub,"'225 Bay State Rd.,Boston,MA,USA'",'A; B',42.3509056,-71.1036254
Metro Subway,"'31 Saint James Ave.,Boston,MA,USA'",'A; B',42.3509525,-71.0715658
Basho Japanese Sushi@B.U.(G.S.U.),"'775 Commonwealth Ave.,Boston,MA,USA'",'A; B',42.3509605,-71.1088587
B.U. School Of Law Cart,"'765 Commonwealth Ave.,Boston,MA,USA'",'A; B',42.3509792,-71.1070231
Hong Kong Eatery,"'79 Harrison Ave.,Boston,MA,USA'",'A; B',42.3510105,-71.0616268
Legal Seafoods,"'26 Park Sq.,Boston,MA,USA'",'A; B',42.3510123,-71.0679728
Shojo,"'11 Tyler St.,Boston,MA,USA'",'A; B',42.3510388,-71.0609194
Boston Kitchen Pizza,"'707 Washington St.,Boston,MA,USA'",'A; B',42.3510872,-71.0632505
Trattoria Andiamo,"'104 South St.,Boston,MA,USA'",'A; B',42.3510882,-71.0570821
Mcdonald's,"'702 Washington St.,Boston,MA,USA'",'A; B',42.3511448,-71.062697
Dunkin Donut,"'16 Kneeland.,Boston,MA,USA'",'A; B',42.3511879,-71.0623724
Dunkin Donut,"'326 Congress St.,Boston,MA,USA'",'A; B',42.351209,-71.049332
Jacob Wirth Restaurant,"'31 Stuart St.,Boston,MA,USA'",'A; B',42.3512183,-71.0638715
New Saigon Sandwich Inc.,"'696 Washington St.,Boston,MA,USA'",'A; B',42.3512233,-71.062696
L.A. Burdick Chocolate,"'224 Clarendon St.,Boston,MA,USA'",'A; B',42.3512239,-71.0756507
Subway,"'230 Tremont St.,Boston,MA,USA'",'A; B',42.3512868,-71.0646341
Five Spices House,"'58 Beach St.,Boston,MA,USA'",'A; B',42.3513198,-71.0603162
Dunkin Donuts (City Place),"'8 Park Pz.,Boston,MA,USA'",'A; B',42.3513467,-71.0661306
Jimmy John's,"'8 Park Pz.,Boston,MA,USA'",'A; B',42.3513467,-71.0661306
Sandella's Flatbread Cafe,"'8 Park Pz.,Boston,MA,USA'",'A; B',42.3513467,-71.0661306
Hot Pot Buffet,"'70 Beach St.,Boston,MA,USA'",'A; B',42.3513504,-71.0598321
Algonquin Club Of Boston,"'217 Commonwealth Ave.,Boston,MA,USA'",'A; B',42.3513938,-71.081861
Panera Bread,"'115 Stuart St.,Boston,MA,USA'",'A; B',42.3514083,-71.0653801
Panera Bread Bakery Cafe (Stuart St.),"'115 Stuart St.,Boston,MA,USA'",'A; B',42.3514083,-71.0653801
Dunkin Donuts (Wtc),"'200 Seaport La.,Boston,MA,USA'",'A; B',42.3514764,-71.0404699
Spirit Of Boston,"'200 Seaport La.,Boston,MA,USA'",'A; B',42.3514764,-71.0404699
World Trade Center,"'200 Seaport La.,Boston,MA,USA'",'A; B',42.3514764,-71.0404699
Subway,"'162 Harvard Ave.,Boston,MA,USA'",'A; B',42.3515612,-71.1314024
St Botolph Club Inc,"'199 Commonwealth Ave.,Boston,MA,USA'",'A; B',42.3516375,-71.0809427
Avana Express Bar,"'40 Harrison Ave.,Boston,MA,USA'",'A; B',42.3516622,-71.0608976
Chatime,"'27 Harrison Ave.,Boston,MA,USA'",'A; B',42.3517705,-71.0615619
Limelight Stage & Studios Inc.,"'204 Tremont St.,Boston,MA,USA'",'A; B',42.3518343,-71.0645073
Boloco,"'48 Congress St.,Boston,MA,USA'",'A; B',42.3518485,-71.0510462
D'Angelo's,"'700 Atlantic Ave.,Boston,MA,USA'",'A; B',42.351854,-71.0551404
Pinkberry,"'700 Atlantic Ave.,Boston,MA,USA'",'A; B',42.351854,-71.0551404
Raising Cane's,"'949 Commonwealth Ave.,Boston,MA,USA'",'A; B',42.3519161,-71.1187125
Sodexo@Emerson's Cafe(1St Fl.),"'80 Boylston St.,Boston,MA,USA'",'A; B',42.3520126,-71.0649292
Dumpling Kingdom Inc.,"'137 Harvard Ave.,Boston,MA,USA'",'A; B',42.3520136,-71.1320382
Sweet Kingdom,"'145 Harvard Ave.,Boston,MA,USA'",'A; B',42.3520385,-71.1321139
Paradise,"'963 Commonwealth Ave.,Boston,MA,USA'",'A; B',42.352051,-71.11935
Au Bon Pain,"'310 Congress St.,Boston,MA,USA'",'A; B',42.3521088,-71.049538
Sodexo @ Emerson - Max Cafe,"'150 Boylston St.,Boston,MA,USA'",'A; B',42.3521413,-71.0664369
Stage,"'120 Boylston St.,Boston,MA,USA'",'A; B',42.3522216,-71.06581
Boloco Inspired Burritos,"'2 Park Pz.,Boston,MA,USA'",'A; B',42.3522696,-71.0670277
Rock City Pizza,"'568 Cambridge St.,Boston,MA,USA'",'A; B',42.3522956,-71.1405002
Nile Lounge,"'66 Brighton Ave.,Boston,MA,USA'",'A; B',42.3524164,-71.1285501
Dolphin Bay,"'72 Brighton Ave.,Boston,MA,USA'",'A; B',42.3524364,-71.1287488
Au Bon Pain Store 511,"'640 Atlantic Ave.,Boston,MA,USA'",'A; B',42.3524481,-71.0555559
Cajun Cajun,"'640 Atlantic Ave.,Boston,MA,USA'",'A; B',42.3524481,-71.0555559
Dunkin Donuts Kiosk,"'640 Atlantic Ave.,Boston,MA,USA'",'A; B',42.3524481,-71.0555559
Mcdonald's,"'640 Atlantic Ave.,Boston,MA,USA'",'A; B',42.3524481,-71.0555559
Surf City Squeeze,"'640 Atlantic Ave.,Boston,MA,USA'",'A; B',42.3524481,-71.0555559
Dim Sum Chef Inc.,"'1 Brighton Ave.,Boston,MA,USA'",'A; B',42.3524485,-71.1254097
J.M.P. Fine Indian Cuisine,"'1 Brighton Ave.,Boston,MA,USA'",'A; B',42.3524485,-71.1254097
Lollicup Tea Zone,"'1 Brighton Ave.,Boston,MA,USA'",'A; B',42.3524485,-71.1254097
Pikaichi,"'1 Brighton Ave.,Boston,MA,USA'",'A; B',42.3524485,-71.1254097
"Cheeseboy Grilled Cheese To Go""""""heeseboy ""Grilled Che""""eeseboy ""Gr""""es""","'630 Atlantic Ave.,Boston,MA,USA'",'A; B',42.3525421,-71.05549
Cosi South Station,"'630 Atlantic Ave.,Boston,MA,USA'",'A; B',42.3525421,-71.05549
Infusions Tea Spa,"'108 Brighton Ave.,Boston,MA,USA'",'A; B',42.3526408,-71.1304113
Spike's Junkyard Dogs,"'108 Brighton Ave.,Boston,MA,USA'",'A; B',42.3526408,-71.1304113
Star Market No. 7588,"'1065 Commonwealth Ave.,Boston,MA,USA'",'A; B',42.3527057,-71.1235515
College Club,"'44 Commonwealth Ave.,Boston,MA,USA'",'A; B',42.3527312,-71.0732864
Patron's Mexican Kitchen,"'138 Brighton Ave.,Boston,MA,USA'",'A; B',42.3527496,-71.1317175
Thai Dish Restaurant,"'270 Babcock St.,Boston,MA,USA'",'A; B',42.3527679,-71.1217919
Chicken & Rice Guys,"'1 Lincoln St.,Boston,MA,USA'",'A; B',42.352773,-71.058609
Extreme Pita,"'275 Babcock St.,Boston,MA,USA'",'A; B',42.3527767,-71.1201541
The Last Drop,"'596 Washington.,Boston,MA,USA'",'A; B',42.3527849,-71.0625733
Iron Kitchen,"'164 Brighton Ave.,Boston,MA,USA'",'A; B',42.3529113,-71.1327632
Fish Market,"'170 Brighton Ave.,Boston,MA,USA'",'A; B',42.3529528,-71.1329989
Sabor Do Brasil,"'174 Brighton Ave.,Boston,MA,USA'",'A; B',42.3529579,-71.1330728
Coreanos,"'172 Brighton Ave.,Boston,MA,USA'",'A; B',42.3529601,-71.1330635
Pizza Days,"'101 Brighton Ave.,Boston,MA,USA'",'A; B',42.3530206,-71.1302597
Blu,"'4 Avery St.,Boston,MA,USA'",'A; B',42.3530525,-71.0631123
Pita (Raa Eatery),"'125 Summer St.,Boston,MA,USA'",'A; B',42.3531001,-71.0574039
Ritz-Carlton Boston Common,"'10 Avery St.,Boston,MA,USA'",'A; B',42.3531023,-71.0633401
Amc Theatres Boston Common 19,"'175 Tremont St.,Boston,MA,USA'",'A; B',42.3531263,-71.0639154
Beard Papa's And Chatime,"'145 Brighton Ave.,Boston,MA,USA'",'A; B',42.353252,-71.131868
Subway,"'560 Washington St.,Boston,MA,USA'",'A; B',42.353378,-71.062006
Committee,"'50 Northern Ave.,Boston,MA,USA'",'A; B',42.3534302,-71.0462
Dunkin Donuts (Allston),"'509 Cambridge St.,Boston,MA,USA'",'A; B',42.353455,-71.138529
Pret A Manger,"'265 Purchase St.,Boston,MA,USA'",'A; B',42.353499,-71.055841
Dunkin'Donuts/Watermark,"'101 Summer St.,Boston,MA,USA'",'A; B',42.3535299,-71.058131
Smith & Wollensky Atlantic Wharf,"'280 Congress St.,Boston,MA,USA'",'A; B',42.3535679,-71.0525522
Sorelle Cafe,"'280 Congress St.,Boston,MA,USA'",'A; B',42.3535679,-71.0525522
Caffe Nero,"'558 Washington St.,Boston,MA,USA'",'A; B',42.3536141,-71.0621006
Alfredo's,"'229 Brighton Ave.,Boston,MA,USA'",'A; B',42.3536317,-71.1355603
Salvatore's,"'543 Washington St.,Boston,MA,USA'",'A; B',42.3536539,-71.062338
Roxys Grilled Cheese,"'485 Cambridge St.,Boston,MA,USA'",'A; B',42.3537316,-71.1370224
Hyatt Regency Boston,"'1 Avenue De Lafayette.,Boston,MA,USA'",'A; B',42.3538065,-71.0605953
Domino's Pizza,"'7 Craftsman St.,Boston,MA,USA'",'A; B',42.3538257,-71.1358889
J J Foley's Grill Inc.,"'19 Kingston.,Boston,MA,USA'",'A; B',42.353844,-71.059215
B. Good,"'84 Summer St.,Boston,MA,USA'",'A; B',42.3538684,-71.0580491
Eagle Cafe 7Th Fl,"'160 Federal St.,Boston,MA,USA'",'A; B',42.3540746,-71.0558504
Subway (76 Summer St.),"'76 Summer St.,Boston,MA,USA'",'A; B',42.354088,-71.0581886
Wendy's,"'71 Summer St.,Boston,MA,USA'",'A; B',42.3540909,-71.058993
Wok N Talk,"'525 Washington St.,Boston,MA,USA'",'A; B',42.3542094,-71.062262
Street Food Revolution,"'48 Harvard Ave.,Boston,MA,USA'",'A; B',42.3544998,-71.1322574
Kwench Juice Bar,"'230 Congress St.,Boston,MA,USA'",'A; B',42.3545523,-71.0540872
Asia Wok,"'44 Harvard Ave.,Boston,MA,USA'",'A; B',42.3545725,-71.1322728
Dunkin' Donuts/Watermark,"'1 Summer St.,Boston,MA,USA'",'A; B',42.3546992,-71.0602708
Fajitas & Ritas Inc.,"'25 West St.,Boston,MA,USA'",'A; B',42.3548466,-71.0624136
Sal's Pizza/Bakery,"'150 Tremont St.,Boston,MA,USA'",'A; B',42.3549236,-71.0631608
Grass Roots Cafe,"'101 Arch St.,Boston,MA,USA'",'A; B',42.3549739,-71.0588044
Archie's New York Deli,"'93 Arch St.,Boston,MA,USA'",'A; B',42.355041,-71.059135
Petit Robert Central,"'93 Arch St.,Boston,MA,USA'",'A; B',42.355041,-71.059135
A @ Time,"'417 Cambridge St.,Boston,MA,USA'",'A; B',42.3551582,-71.134061
Allston Diner,"'417 Cambridge St.,Boston,MA,USA'",'A; B',42.3551582,-71.134061
J M Curley,"'21 Temple Pl.,Boston,MA,USA'",'A; B',42.3551825,-71.062377
O'Brien's Pub,"'1 Harvard Ave.,Boston,MA,USA'",'A; B',42.3552607,-71.1329402
Subway,"'144 Tremont St.,Boston,MA,USA'",'A; B',42.355297,-71.06281
Crystal/Gorage Lounge,"'20 Linden St.,Boston,MA,USA'",'A; B',42.3555393,-71.130792
Hale & Hearty,"'185 Franklin St.,Boston,MA,USA'",'A; B',42.3556623,-71.0551085
Ziti's Express,"'140 Tremont St.,Boston,MA,USA'",'A; B',42.3556656,-71.0625775
Papa Gino's,"'204 N Beacon St.,Boston,MA,USA'",'A; B',42.3558035,-71.1486719
Sarku Japan,"'417 Washington St.,Boston,MA,USA'",'A; B',42.3558635,-71.0604975
Zermatt Gelatria Llc,"'417 Washington St.,Boston,MA,USA'",'A; B',42.3558635,-71.0604975
Guru The Caterer,"'185 Devonshire St.,Boston,MA,USA'",'A; B',42.3559643,-71.0574616
Palm Restaurant (1 International Place),"'90 Oliver St.,Boston,MA,USA'",'A; B',42.3559861,-71.0531144
Banh Mi House,"'48 Winter St.,Boston,MA,USA'",'A; B',42.3560722,-71.0618626
Rebecca's Cafe,"'33 Arch St.,Boston,MA,USA'",'A; B',42.3562466,-71.0585848
Starbucks Coffee No. 807,"'12 Charles St.,Boston,MA,USA'",'A; B',42.3566192,-71.0696591
Mike's Cafe,"'190 High St.,Boston,MA,USA'",'A; B',42.3567024,-71.0522221
75 Chestnut,"'75 Chestnut St.,Boston,MA,USA'",'A; B',42.3569399,-71.0710063
Milk St Cafe,"'50 Milk St.,Boston,MA,USA'",'A; B',42.3569998,-71.0575881
Umbria Ristorante,"'295 Franklin St.,Boston,MA,USA'",'A; B',42.3570312,-71.052752
Mcdonalds,"'315 Washington St.,Boston,MA,USA'",'A; B',42.3570387,-71.0589067
Flame Cafe,"'2 Oliver St.,Boston,MA,USA'",'A; B',42.3571721,-71.0543269
Shawarma Falafel,"'26 Province St.,Boston,MA,USA'",'A; B',42.3572087,-71.0596282
The Hub Pub,"'18 Province St.,Boston,MA,USA'",'A; B',42.357281,-71.059575
Taste Of The Town,"'10 Post Office Sq.,Boston,MA,USA'",'A; B',42.3573784,-71.05573
The Littlest Bar,"'102 Broad St.,Boston,MA,USA'",'A; B',42.3574214,-71.0521544
Peet's Coffee & Tea,"'62 Charles St.,Boston,MA,USA'",'A; B',42.3575715,-71.0704638
Subway,"'153 Milk St.,Boston,MA,USA'",'A; B',42.3577188,-71.0541608
Falafel King,"'262 Washington St.,Boston,MA,USA'",'A; B',42.3577323,-71.0578469
Subway,"'262 Washington St.,Boston,MA,USA'",'A; B',42.3577323,-71.0578469
Stockyard,"'135 Market St.,Boston,MA,USA'",'A; B',42.3577779,-71.1484191
Casa Razbora,"'115 Water St.,Boston,MA,USA'",'A; B',42.3580278,-71.0546494
Flat Black Coffee Co. Ltd.,"'50 Broad St.,Boston,MA,USA'",'A; B',42.3580361,-71.0536022
High Spot Deli,"'8 Beacon St.,Boston,MA,USA'",'A; B',42.358127,-71.061782
21 St. Amendment,"'150 Bowdoin St.,Boston,MA,USA'",'A; B',42.3583993,-71.0626497
Warehouse Bar & Grille,"'40 Broad St.,Boston,MA,USA'",'A; B',42.358413,-71.0538438
Saladworks,"'18 Tremont St.,Boston,MA,USA'",'A; B',42.3586079,-71.059572
Mcdonalds,"'1750 Soldiers Field Rd.,Boston,MA,USA'",'A; B',42.3586744,-71.1549143
Suffolk University Cafe,"'8 Ashburton Pl.,Boston,MA,USA'",'A; B',42.3588616,-71.0618449
Capitol Coffee House,"'122 Bowdoin St.,Boston,MA,USA'",'A; B',42.3588865,-71.0625935
Flik International,"'60 State St.,Boston,MA,USA'",'A; B',42.35903,-71.05646
Hillstone Restaurant,"'60 State St.,Boston,MA,USA'",'A; B',42.35903,-71.05646
Starbucks Coffee No. 9463,"'84 State St.,Boston,MA,USA'",'A; B',42.3591464,-71.0556455
Zo,"'92 State St.,Boston,MA,USA'",'A; B',42.3592347,-71.055331
Starbucks Coffee No. 883,"'63 Court St.,Boston,MA,USA'",'A; B',42.3592721,-71.0590014
Clarke's,"'21 Merchants Ro.,Boston,MA,USA'",'A; B',42.3594001,-71.055403
Panera Bread No. 1636,"'3 Center Pz.,Boston,MA,USA'",'A; B',42.3594139,-71.0601613
Zo,"'3 Center Plaza.,Boston,MA,USA'",'A; B',42.3594139,-71.0601613
Boston News Cafe,"'28 State St.,Boston,MA,USA'",'A; B',42.3594435,-71.0574647
Great Taste Italian & Mexican,"'38 Cornhill.,Boston,MA,USA'",'A; B',42.359504,-71.058783
Ashburton Cafe,"'1 Ashburton Pl.,Boston,MA,USA'",'A; B',42.3595948,-71.0621929
Hissho Sushi @ Suffolk Univ.,"'20 Somerset St.,Boston,MA,USA'",'A; B',42.3596924,-71.0617928
Bagelville Inc.,"'200 Faneuil Hall Market Pl.,Boston,MA,USA'",'A; B',42.3597994,-71.0544602
Boston & Maine Fish Co.,"'200 Faneuil Hall Market Pl.,Boston,MA,USA'",'A; B',42.3597994,-71.0544602
Boston Chowda Co.,"'300 Faneuil Hall Market Pl.,Boston,MA,USA'",'A; B',42.3597994,-71.0544602
Dick's Last Resort,"'100-199 Faneuil Hall Market Pl.,Boston,MA,USA'",'A; B',42.3597994,-71.0544602
El Paso Enchiladas,"'1 Faneuil Hall Mkt Pl Pl.,Boston,MA,USA'",'A; B',42.3597994,-71.0544602
Ghirardelli Chocolate Co.,"'100 Faneuil Hall Marketplace.,Boston,MA,USA'",'A; B',42.3597994,-71.0544602
Joey's Fun Foods,"'100-199 Faneuil Hall Market Pl.,Boston,MA,USA'",'A; B',42.3597994,-71.0544602
Ned Devine's,"'200 Faneuil Hall Market Pl.,Boston,MA,USA'",'A; B',42.3597994,-71.0544602
Sprinkle's Ice Cream,"'100-199 Faneuil Hall Market Pl.,Boston,MA,USA'",'A; B',42.3597994,-71.0544602
Starbucks Coffee No. 862,"'1 Faneuil Hall Mkt Pl Pl.,Boston,MA,USA'",'A; B',42.3597994,-71.0544602
Ueno Sushi,"'1 Faneuil Hall Mkt Pl Pl.,Boston,MA,USA'",'A; B',42.3597994,-71.0544602
The Landing,"'6 Long Wh.,Boston,MA,USA'",'A; B',42.3599671,-71.0498288
Burger King,"'1 Center Plaza.,Boston,MA,USA'",'A; B',42.3600953,-71.0604624
Finagle A Bagel,"'1 Center Plaza.,Boston,MA,USA'",'A; B',42.3600953,-71.0604624
Grasshopper Creamery,"'1 Faneuil Hall Sq.,Boston,MA,USA'",'A; B',42.3601334,-71.055555
Steve's Greek Cuisine Inc.,"'1 Faneuil Hall Sq.,Boston,MA,USA'",'A; B',42.3601334,-71.055555
Blackstone Grill,"'1 Union St.,Boston,MA,USA'",'A; B',42.3605884,-71.0566478
Seafood El Buchu,"'14 Hancock St.,Boston,MA,USA'",'A; B',42.360618,-71.064267
The Tap,"'17 Union St.,Boston,MA,USA'",'A; B',42.360847,-71.0568196
Tip Tap Room,"'138 Cambridge St.,Boston,MA,USA'",'A; B',42.361006,-71.0639386
Durty Nellie's,"'108 Blackstone St.,Boston,MA,USA'",'A; B',42.3617713,-71.0564643
Joe's American Bar & Grill,"'100 Atlantic Ave.,Boston,MA,USA'",'A; B',42.3619639,-71.0506231
Bon Me,"'100 Hanover St.,Boston,MA,USA'",'A; B',42.3620005,-71.0569411
Swissbakers,"'100 Hanover St.,Boston,MA,USA'",'A; B',42.3620005,-71.0569411
Big Daddy's Pizza,"'436 Western Ave.,Boston,MA,USA'",'A; B',42.3622619,-71.1409442
Eric Lindeman,"'25 Staniford St.,Boston,MA,USA'",'A; B',42.3625855,-71.0636025
Mezzanine Coffee Shop,"'25 Staniford St.,Boston,MA,USA'",'A; B',42.3625855,-71.0636025
Dolce Vita,"'215 Hanover St.,Boston,MA,USA'",'A; B',42.3627443,-71.0552428
Swissbakers,"'168 Western Ave.,Boston,MA,USA'",'A; B',42.3629048,-71.1284878
Taranta,"'210 Hanover St.,Boston,MA,USA'",'A; B',42.3629263,-71.055595
Harvard Business School Cafete,"'230 Western Ave.,Boston,MA,USA'",'A; B',42.3629405,-71.1318491
Stone Hearth Pizza Co.,"'182 Western Ave.,Boston,MA,USA'",'A; B',42.3629709,-71.1293692
Viva Burrito,"'66 Staniford St.,Boston,MA,USA'",'A; B',42.3631164,-71.0643572
Lucca North End,"'226 Hanover St.,Boston,MA,USA'",'A; B',42.3631799,-71.0554643
Thinking Cup,"'234 Hanover St.,Boston,MA,USA'",'A; B',42.3632274,-71.0550304
Ristorante Fiore,"'250 Hanover.,Boston,MA,USA'",'A; B',42.3635605,-71.05509
Pinkberry,"'283 Hanover St.,Boston,MA,USA'",'A; B',42.3637158,-71.054557
Scopa,"'319 Hanover St.,Boston,MA,USA'",'A; B',42.364066,-71.053976
Ruby Room,"'155 Portland.,Boston,MA,USA'",'A; B',42.3641932,-71.061358
L'Osteria Restaurant,"'104 Salem St.,Boston,MA,USA'",'A; B',42.3642226,-71.0557308
Rodey Pizza & Pasta,"'55 Causeway St.,Boston,MA,USA'",'A; B',42.3643192,-71.0628708
Ko Catering And Pies,"'256 Marginal St.,Boston,MA,USA'",'A; B',42.3644235,-71.0334794
Pushcart Cafe,"'117 Salem St.,Boston,MA,USA'",'A; B',42.3644992,-71.0555031
Ristorante Euno,"'119 Salem St.,Boston,MA,USA'",'A; B',42.3645558,-71.0554149
Au Bon Pain (Food Court U S Air),"'200 Logan Airport Trmnl B.,Boston,MA,USA'",'A; B',42.3645818,-71.0195813
Cisco Brew Pub Of Nantucket,"'200 Logan Airport Trmnl B.,Boston,MA,USA'",'A; B',42.3645818,-71.0195813
Legal C Bar (Space Ba-Lo6),"'200 Logan Airport Trmnl B.,Boston,MA,USA'",'A; B',42.3645818,-71.0195813
Mcdonalds Restaurant,"'200 Logan Airport Trmnl B.,Boston,MA,USA'",'A; B',42.3645818,-71.0195813
Sodexo @Admirals Club American Airlines Inc.,"'200 Logan Airport Trmnl B.,Boston,MA,USA'",'A; B',42.3645818,-71.0195813
U S Airways Club Boston,"'200 Logan Airport Trmnl B.,Boston,MA,USA'",'A; B',42.3645818,-71.0195813
Locontes Restaurant,"'116 Salem St.,Boston,MA,USA'",'A; B',42.3646818,-71.0556217
Sports Grille,"'132 Canal St.,Boston,MA,USA'",'A; B',42.3646904,-71.0606485
Cantina Italiana,"'344 Hanover St.,Boston,MA,USA'",'A; B',42.3649637,-71.0534338
Four's Boston,"'162 Canal St.,Boston,MA,USA'",'A; B',42.364982,-71.060986
Dunkin Donuts (Canal St.),"'168 Canal St.,Boston,MA,USA'",'A; B',42.365011,-71.061185
Sullivan's Tap,"'168 Canal St.,Boston,MA,USA'",'A; B',42.365011,-71.061185
Dino's Cafe,"'141 Salem St.,Boston,MA,USA'",'A; B',42.365057,-71.055358
Jimmy John's,"'96 Beverly St.,Boston,MA,USA'",'A; B',42.3653207,-71.0595029
Au Bon Pain (Space 49),"'300 Logan Airport Trmnl C.,Boston,MA,USA'",'A; B',42.3660751,-71.020461
Harpoon Tap Room,"'100 Logan Airport Trmnl A.,Boston,MA,USA'",'A; B',42.3660751,-71.020461
Legal Sea Food,"'100 Logan Airport Trmnl A.,Boston,MA,USA'",'A; B',42.3660751,-71.020461
Remy's,"'300 Logan Airport Trmnl C.,Boston,MA,USA'",'A; B',42.3660751,-71.020461
Ryo Asian Fusion,"'300 Logan Airport Trmnl C.,Boston,MA,USA'",'A; B',42.3660751,-71.020461
Wendy's (Logan Airport T-A),"'Logan Airport Trmnl A.,Boston,MA,USA'",'A; B',42.3660751,-71.020461
Causeway Cafe,"'239 Causeway St.,Boston,MA,USA'",'A; B',42.3660988,-71.0594128
Dunkin Donuts North Station,"'100 Legends Wa.,Boston,MA,USA'",'A; B',42.3664872,-71.0621057
Emack & Bolio,"'100 Legends Wa.,Boston,MA,USA'",'A; B',42.3664872,-71.0621057
T D Garden Banner Restaurant,"'100 Legends Wa.,Boston,MA,USA'",'A; B',42.3664872,-71.0621057
T D Garden Premium Club,"'100 Legends Wy.,Boston,MA,USA'",'A; B',42.3664872,-71.0621057
Massiminos Cucina,"'207 Endicott St.,Boston,MA,USA'",'A; B',42.3665953,-71.0579268
Battery Wharf Hotel,"'2 Battery Wharf.,Boston,MA,USA'",'A; B',42.3668761,-71.0514032
Ducali Pizzeria & Bar,"'289 Causeway St.,Boston,MA,USA'",'A; B',42.3670723,-71.0580596
Dunkin Donuts/Waldwin Group,"'500 Logan Airport Trmnl E.,Boston,MA,USA'",'A; B',42.3685769,-71.0228005
Earl Of Sandwich,"'300 Logan Airport Trmnl E.,Boston,MA,USA'",'A; B',42.3685769,-71.0228005
Market Cafe,"'20 Maverick Sq.,Boston,MA,USA'",'A; B',42.3697197,-71.0395642
Salamanders Coffee Place,"'154 Maverick St.,Boston,MA,USA'",'A; B',42.369914,-71.0379108
Eddie C's,"'34 Maverick Sq.,Boston,MA,USA'",'A; B',42.369961,-71.039351
Nfarra 2,"'127 Maverick St.,Boston,MA,USA'",'A; B',42.3701802,-71.0393919
Emack & Bolio's,"'1 Chelsea St.,Boston,MA,USA'",'A; B',42.3711683,-71.0613888
Mi Rancho Restaurant,"'45 Meridian St.,Boston,MA,USA'",'A; B',42.3715149,-71.0387903
Undine Cafe @ Caturano Co.,"'80 City Sq.,Boston,MA,USA'",'A; B',42.3715497,-71.0608595
Latinos Restaurant,"'88 Chelsea St.,Boston,MA,USA'",'A; B',42.3721229,-71.0363835
Legal Oysteria,"'10 City Sq.,Boston,MA,USA'",'A; B',42.3723514,-71.0616236
Ecco,"'107 Porter St.,Boston,MA,USA'",'A; B',42.3729821,-71.0361314
Sully's Pub,"'85 Main St.,Boston,MA,USA'",'A; B',42.373777,-71.0628717
Saus Boston,"'31 Union St.,Boston,MA,USA'",'A; B',42.3740288,-71.0650366
La Terraza Restaurant,"'19 Bennington St.,Boston,MA,USA'",'A; B',42.3750651,-71.0379225
Billares Colombia,"'16 Bennington St.,Boston,MA,USA'",'A; B',42.3753183,-71.0383507
Punto Rojo,"'16 Bennington St.,Boston,MA,USA'",'A; B',42.3753183,-71.0383507
Bohemio's Restaurant,"'30 Bennington St.,Boston,MA,USA'",'A; B',42.3754004,-71.0379654
Brewer's Fork,"'29 Bunker Hill St.,Boston,MA,USA'",'A; B',42.3763144,-71.0566444
Barney's Grill,"'299 Havre St.,Boston,MA,USA'",'A; B',42.376482,-71.033733
Paolo's,"'247 Main St.,Boston,MA,USA'",'A; B',42.3767332,-71.0660663
Slush King,"'211 Bennington.,Boston,MA,USA'",'A; B',42.3777676,-71.0311997
Mario's Restaurant,"'347 Chelsea.,Boston,MA,USA'",'A; B',42.3781298,-71.0288653
Tutti Frutti,"'382 Chelsea St.,Boston,MA,USA'",'A; B',42.3794265,-71.0279655
Rincon Limeno,"'409 Chelsea St.,Boston,MA,USA'",'A; B',42.3798613,-71.0268813
Dunkin Donuts (Trmnl-C Baggage Area),"'300 Terminal Rd.,Boston,MA,USA'",'A; B',42.3816454,-71.0553531
Dunkin Donuts Space No. 86,"'300 Terminal Rd.,Boston,MA,USA'",'A; B',42.3816454,-71.0553531
Pinkberry (Trmnl C Pier B Side),"'300 Terminal Rd.,Boston,MA,USA'",'A; B',42.3816454,-71.0553531
Uptown Cafe,"'116 Cambridge.,Boston,MA,USA'",'A; B',42.3821338,-71.079529
Vivian's Cafe,"'50 Terminal St.,Boston,MA,USA'",'A; B',42.3823675,-71.0605165
Dunkin' Donuts,"'99 Cambridge St.,Boston,MA,USA'",'A; B',42.3825388,-71.0791988
Honey Dew Donuts,"'470 Meridian St.,Boston,MA,USA'",'A; B',42.3828793,-71.0396943
Sbarro Restaurant,"'100 Terminal Rd.,Boston,MA,USA'",'A; B',42.3828972,-71.0553676
Berkshire Farms Market,"'200 Terminal Rd.,Boston,MA,USA'",'A; B',42.3831476,-71.0499464
Fuel America,"'200 Terminal Rd.,Boston,MA,USA'",'A; B',42.3831476,-71.0499464
Stephanie's,"'200 Terminal Rd.,Boston,MA,USA'",'A; B',42.3831476,-71.0499464
The United Club,"'200 Terminal Rd.,Boston,MA,USA'",'A; B',42.3831476,-71.0499464
Vineyard Grille Br-02,"'200 Terminal Rd.,Boston,MA,USA'",'A; B',42.3831476,-71.0499464
Schraffts Center Cafe,"'529 Main St.,Boston,MA,USA'",'A; B',42.3848424,-71.071451
Dunkin' Donuts(Rmg Donuts Llc),"'951 Bennington St.,Boston,MA,USA'",'A; B',42.3858866,-71.008327
Great Chef Orient Heights,"'965 Bennington St.,Boston,MA,USA'",'A; B',42.3860678,-71.0079849
Burger King,"'944 Bennington St.,Boston,MA,USA'",'A; B',42.3862922,-71.0096337
Milano's Deli,"'978 Saratoga St.,Boston,MA,USA'",'A; B',42.387026,-71.0074001
Jessica's Table,"'78 Arlington Ave.,Boston,MA,USA'",'A; B',42.3871868,-71.0750047
Suffolk Downs-Legends Turf Club,"'111 Waldemar Ave.,Boston,MA,USA'",'A; B',42.392316,-71.0029964